{"type": "FeatureCollection", "features": [{"type": "Feature", "geometry": {"type": "Point", "coordinates": [-122.084, 37.422]}, "properties": {"name": "Location 0"}}, {"type": "Feature", "geometry": {"type": "Point", "coordinates": [-122.074, 37.422]}, "properties": {"name": "Location 1"}}, {"type": "Feature", "geometry": {"type": "Point", "coordinates": [-122.06400000000001, 37.422]}, "properties": {"name": "Location 2"}}, {"type": "Feature", "geometry": {"type": "Point", "coordinates": [-122.054, 37.422]}, "properties": {"name": "Location 3"}}, {"type": "Feature", "geometry": {"type": "Point", "coordinates": [-122.044, 37.422]}, "properties": {"name": "Location 4"}}]}