{"type": "FeatureCollection", "features": [{"type": "Feature", "geometry": {"type": "Point", "coordinates": [-122.084, 37.422]}, "properties": {"name": "Location 0"}}, {"type": "Feature", "geometry": {"type": "Point", "coordinates": [-122.074, 37.422]}, "properties": {"name": "Location 1"}}, {"type": "Feature", "geometry": {"type": "Point", "coordinates": [-122.06400000000001, 37.422]}, "properties": {"name": "Location 2"}}, {"type": "Feature", "geometry": {"type": "Point", "coordinates": [-122.054, 37.422]}, "properties": {"name": "Location 3"}}, {"type": "Feature", "geometry": {"type": "Point", "coordinates": [-122.044, 37.422]}, "properties": {"name": "Location 4"}}, {"type": "Feature", "geometry": {"type": "Point", "coordinates": [-122.034, 37.422]}, "properties": {"name": "Location 5"}}, {"type": "Feature", "geometry": {"type": "Point", "coordinates": [-122.024, 37.422]}, "properties": {"name": "Location 6"}}, {"type": "Feature", "geometry": {"type": "Point", "coordinates": [-122.01400000000001, 37.422]}, "properties": {"name": "Location 7"}}, {"type": "Feature", "geometry": {"type": "Point", "coordinates": [-122.004, 37.422]}, "properties": {"name": "Location 8"}}, {"type": "Feature", "geometry": {"type": "Point", "coordinates": [-121.994, 37.422]}, "properties": {"name": "Location 9"}}, {"type": "Feature", "geometry": {"type": "Point", "coordinates": [-121.98400000000001, 37.422]}, "properties": {"name": "Location 10"}}, {"type": "Feature", "geometry": {"type": "Point", "coordinates": [-121.974, 37.422]}, "properties": {"name": "Location 11"}}, {"type": "Feature", "geometry": {"type": "Point", "coordinates": [-121.964, 37.422]}, "properties": {"name": "Location 12"}}, {"type": "Feature", "geometry": {"type": "Point", "coordinates": [-121.95400000000001, 37.422]}, "properties": {"name": "Location 13"}}, {"type": "Feature", "geometry": {"type": "Point", "coordinates": [-121.944, 37.422]}, "properties": {"name": "Location 14"}}, {"type": "Feature", "geometry": {"type": "Point", "coordinates": [-121.934, 37.422]}, "properties": {"name": "Location 15"}}, {"type": "Feature", "geometry": {"type": "Point", "coordinates": [-121.924, 37.422]}, "properties": {"name": "Location 16"}}, {"type": "Feature", "geometry": {"type": "Point", "coordinates": [-121.914, 37.422]}, "properties": {"name": "Location 17"}}, {"type": "Feature", "geometry": {"type": "Point", "coordinates": [-121.904, 37.422]}, "properties": {"name": "Location 18"}}, {"type": "Feature", "geometry": {"type": "Point", "coordinates": [-121.894, 37.422]}, "properties": {"name": "Location 19"}}, {"type": "Feature", "geometry": {"type": "Point", "coordinates": [-121.884, 37.422]}, "properties": {"name": "Location 20"}}, {"type": "Feature", "geometry": {"type": "Point", "coordinates": [-121.87400000000001, 37.422]}, "properties": {"name": "Location 21"}}, {"type": "Feature", "geometry": {"type": "Point", "coordinates": [-121.864, 37.422]}, "properties": {"name": "Location 22"}}, {"type": "Feature", "geometry": {"type": "Point", "coordinates": [-121.854, 37.422]}, "properties": {"name": "Location 23"}}, {"type": "Feature", "geometry": {"type": "Point", "coordinates": [-121.84400000000001, 37.422]}, "properties": {"name": "Location 24"}}, {"type": "Feature", "geometry": {"type": "Point", "coordinates": [-121.834, 37.422]}, "properties": {"name": "Location 25"}}, {"type": "Feature", "geometry": {"type": "Point", "coordinates": [-121.824, 37.422]}, "properties": {"name": "Location 26"}}, {"type": "Feature", "geometry": {"type": "Point", "coordinates": [-121.81400000000001, 37.422]}, "properties": {"name": "Location 27"}}, {"type": "Feature", "geometry": {"type": "Point", "coordinates": [-121.804, 37.422]}, "properties": {"name": "Location 28"}}, {"type": "Feature", "geometry": {"type": "Point", "coordinates": [-121.794, 37.422]}, "properties": {"name": "Location 29"}}, {"type": "Feature", "geometry": {"type": "Point", "coordinates": [-121.784, 37.422]}, "properties": {"name": "Location 30"}}, {"type": "Feature", "geometry": {"type": "Point", "coordinates": [-121.774, 37.422]}, "properties": {"name": "Location 31"}}, {"type": "Feature", "geometry": {"type": "Point", "coordinates": [-121.76400000000001, 37.422]}, "properties": {"name": "Location 32"}}, {"type": "Feature", "geometry": {"type": "Point", "coordinates": [-121.754, 37.422]}, "properties": {"name": "Location 33"}}, {"type": "Feature", "geometry": {"type": "Point", "coordinates": [-121.744, 37.422]}, "properties": {"name": "Location 34"}}, {"type": "Feature", "geometry": {"type": "Point", "coordinates": [-121.73400000000001, 37.422]}, "properties": {"name": "Location 35"}}, {"type": "Feature", "geometry": {"type": "Point", "coordinates": [-121.724, 37.422]}, "properties": {"name": "Location 36"}}, {"type": "Feature", "geometry": {"type": "Point", "coordinates": [-121.714, 37.422]}, "properties": {"name": "Location 37"}}, {"type": "Feature", "geometry": {"type": "Point", "coordinates": [-121.70400000000001, 37.422]}, "properties": {"name": "Location 38"}}, {"type": "Feature", "geometry": {"type": "Point", "coordinates": [-121.694, 37.422]}, "properties": {"name": "Location 39"}}, {"type": "Feature", "geometry": {"type": "Point", "coordinates": [-121.684, 37.422]}, "properties": {"name": "Location 40"}}, {"type": "Feature", "geometry": {"type": "Point", "coordinates": [-121.674, 37.422]}, "properties": {"name": "Location 41"}}, {"type": "Feature", "geometry": {"type": "Point", "coordinates": [-121.664, 37.422]}, "properties": {"name": "Location 42"}}, {"type": "Feature", "geometry": {"type": "Point", "coordinates": [-121.654, 37.422]}, "properties": {"name": "Location 43"}}, {"type": "Feature", "geometry": {"type": "Point", "coordinates": [-121.644, 37.422]}, "properties": {"name": "Location 44"}}, {"type": "Feature", "geometry": {"type": "Point", "coordinates": [-121.634, 37.422]}, "properties": {"name": "Location 45"}}, {"type": "Feature", "geometry": {"type": "Point", "coordinates": [-121.62400000000001, 37.422]}, "properties": {"name": "Location 46"}}, {"type": "Feature", "geometry": {"type": "Point", "coordinates": [-121.614, 37.422]}, "properties": {"name": "Location 47"}}, {"type": "Feature", "geometry": {"type": "Point", "coordinates": [-121.604, 37.422]}, "properties": {"name": "Location 48"}}, {"type": "Feature", "geometry": {"type": "Point", "coordinates": [-121.59400000000001, 37.422]}, "properties": {"name": "Location 49"}}, {"type": "Feature", "geometry": {"type": "Point", "coordinates": [-121.584, 37.422]}, "properties": {"name": "Location 50"}}, {"type": "Feature", "geometry": {"type": "Point", "coordinates": [-121.574, 37.422]}, "properties": {"name": "Location 51"}}, {"type": "Feature", "geometry": {"type": "Point", "coordinates": [-121.56400000000001, 37.422]}, "properties": {"name": "Location 52"}}, {"type": "Feature", "geometry": {"type": "Point", "coordinates": [-121.554, 37.422]}, "properties": {"name": "Location 53"}}, {"type": "Feature", "geometry": {"type": "Point", "coordinates": [-121.544, 37.422]}, "properties": {"name": "Location 54"}}, {"type": "Feature", "geometry": {"type": "Point", "coordinates": [-121.534, 37.422]}, "properties": {"name": "Location 55"}}, {"type": "Feature", "geometry": {"type": "Point", "coordinates": [-121.524, 37.422]}, "properties": {"name": "Location 56"}}, {"type": "Feature", "geometry": {"type": "Point", "coordinates": [-121.51400000000001, 37.422]}, "properties": {"name": "Location 57"}}, {"type": "Feature", "geometry": {"type": "Point", "coordinates": [-121.504, 37.422]}, "properties": {"name": "Location 58"}}, {"type": "Feature", "geometry": {"type": "Point", "coordinates": [-121.494, 37.422]}, "properties": {"name": "Location 59"}}, {"type": "Feature", "geometry": {"type": "Point", "coordinates": [-121.48400000000001, 37.422]}, "properties": {"name": "Location 60"}}, {"type": "Feature", "geometry": {"type": "Point", "coordinates": [-121.474, 37.422]}, "properties": {"name": "Location 61"}}, {"type": "Feature", "geometry": {"type": "Point", "coordinates": [-121.464, 37.422]}, "properties": {"name": "Location 62"}}, {"type": "Feature", "geometry": {"type": "Point", "coordinates": [-121.45400000000001, 37.422]}, "properties": {"name": "Location 63"}}, {"type": "Feature", "geometry": {"type": "Point", "coordinates": [-121.444, 37.422]}, "properties": {"name": "Location 64"}}, {"type": "Feature", "geometry": {"type": "Point", "coordinates": [-121.434, 37.422]}, "properties": {"name": "Location 65"}}, {"type": "Feature", "geometry": {"type": "Point", "coordinates": [-121.424, 37.422]}, "properties": {"name": "Location 66"}}, {"type": "Feature", "geometry": {"type": "Point", "coordinates": [-121.414, 37.422]}, "properties": {"name": "Location 67"}}, {"type": "Feature", "geometry": {"type": "Point", "coordinates": [-121.404, 37.422]}, "properties": {"name": "Location 68"}}, {"type": "Feature", "geometry": {"type": "Point", "coordinates": [-121.394, 37.422]}, "properties": {"name": "Location 69"}}, {"type": "Feature", "geometry": {"type": "Point", "coordinates": [-121.384, 37.422]}, "properties": {"name": "Location 70"}}, {"type": "Feature", "geometry": {"type": "Point", "coordinates": [-121.37400000000001, 37.422]}, "properties": {"name": "Location 71"}}, {"type": "Feature", "geometry": {"type": "Point", "coordinates": [-121.364, 37.422]}, "properties": {"name": "Location 72"}}, {"type": "Feature", "geometry": {"type": "Point", "coordinates": [-121.354, 37.422]}, "properties": {"name": "Location 73"}}, {"type": "Feature", "geometry": {"type": "Point", "coordinates": [-121.34400000000001, 37.422]}, "properties": {"name": "Location 74"}}, {"type": "Feature", "geometry": {"type": "Point", "coordinates": [-121.334, 37.422]}, "properties": {"name": "Location 75"}}, {"type": "Feature", "geometry": {"type": "Point", "coordinates": [-121.324, 37.422]}, "properties": {"name": "Location 76"}}, {"type": "Feature", "geometry": {"type": "Point", "coordinates": [-121.31400000000001, 37.422]}, "properties": {"name": "Location 77"}}, {"type": "Feature", "geometry": {"type": "Point", "coordinates": [-121.304, 37.422]}, "properties": {"name": "Location 78"}}, {"type": "Feature", "geometry": {"type": "Point", "coordinates": [-121.294, 37.422]}, "properties": {"name": "Location 79"}}, {"type": "Feature", "geometry": {"type": "Point", "coordinates": [-121.284, 37.422]}, "properties": {"name": "Location 80"}}, {"type": "Feature", "geometry": {"type": "Point", "coordinates": [-121.274, 37.422]}, "properties": {"name": "Location 81"}}, {"type": "Feature", "geometry": {"type": "Point", "coordinates": [-121.26400000000001, 37.422]}, "properties": {"name": "Location 82"}}, {"type": "Feature", "geometry": {"type": "Point", "coordinates": [-121.254, 37.422]}, "properties": {"name": "Location 83"}}, {"type": "Feature", "geometry": {"type": "Point", "coordinates": [-121.244, 37.422]}, "properties": {"name": "Location 84"}}, {"type": "Feature", "geometry": {"type": "Point", "coordinates": [-121.23400000000001, 37.422]}, "properties": {"name": "Location 85"}}, {"type": "Feature", "geometry": {"type": "Point", "coordinates": [-121.224, 37.422]}, "properties": {"name": "Location 86"}}, {"type": "Feature", "geometry": {"type": "Point", "coordinates": [-121.214, 37.422]}, "properties": {"name": "Location 87"}}, {"type": "Feature", "geometry": {"type": "Point", "coordinates": [-121.20400000000001, 37.422]}, "properties": {"name": "Location 88"}}, {"type": "Feature", "geometry": {"type": "Point", "coordinates": [-121.194, 37.422]}, "properties": {"name": "Location 89"}}, {"type": "Feature", "geometry": {"type": "Point", "coordinates": [-121.184, 37.422]}, "properties": {"name": "Location 90"}}, {"type": "Feature", "geometry": {"type": "Point", "coordinates": [-121.174, 37.422]}, "properties": {"name": "Location 91"}}, {"type": "Feature", "geometry": {"type": "Point", "coordinates": [-121.164, 37.422]}, "properties": {"name": "Location 92"}}, {"type": "Feature", "geometry": {"type": "Point", "coordinates": [-121.154, 37.422]}, "properties": {"name": "Location 93"}}, {"type": "Feature", "geometry": {"type": "Point", "coordinates": [-121.144, 37.422]}, "properties": {"name": "Location 94"}}, {"type": "Feature", "geometry": {"type": "Point", "coordinates": [-121.134, 37.422]}, "properties": {"name": "Location 95"}}, {"type": "Feature", "geometry": {"type": "Point", "coordinates": [-121.12400000000001, 37.422]}, "properties": {"name": "Location 96"}}, {"type": "Feature", "geometry": {"type": "Point", "coordinates": [-121.114, 37.422]}, "properties": {"name": "Location 97"}}, {"type": "Feature", "geometry": {"type": "Point", "coordinates": [-121.104, 37.422]}, "properties": {"name": "Location 98"}}, {"type": "Feature", "geometry": {"type": "Point", "coordinates": [-121.09400000000001, 37.422]}, "properties": {"name": "Location 99"}}, {"type": "Feature", "geometry": {"type": "Point", "coordinates": [-122.084, 37.431999999999995]}, "properties": {"name": "Location 100"}}, {"type": "Feature", "geometry": {"type": "Point", "coordinates": [-122.074, 37.431999999999995]}, "properties": {"name": "Location 101"}}, {"type": "Feature", "geometry": {"type": "Point", "coordinates": [-122.06400000000001, 37.431999999999995]}, "properties": {"name": "Location 102"}}, {"type": "Feature", "geometry": {"type": "Point", "coordinates": [-122.054, 37.431999999999995]}, "properties": {"name": "Location 103"}}, {"type": "Feature", "geometry": {"type": "Point", "coordinates": [-122.044, 37.431999999999995]}, "properties": {"name": "Location 104"}}, {"type": "Feature", "geometry": {"type": "Point", "coordinates": [-122.034, 37.431999999999995]}, "properties": {"name": "Location 105"}}, {"type": "Feature", "geometry": {"type": "Point", "coordinates": [-122.024, 37.431999999999995]}, "properties": {"name": "Location 106"}}, {"type": "Feature", "geometry": {"type": "Point", "coordinates": [-122.01400000000001, 37.431999999999995]}, "properties": {"name": "Location 107"}}, {"type": "Feature", "geometry": {"type": "Point", "coordinates": [-122.004, 37.431999999999995]}, "properties": {"name": "Location 108"}}, {"type": "Feature", "geometry": {"type": "Point", "coordinates": [-121.994, 37.431999999999995]}, "properties": {"name": "Location 109"}}, {"type": "Feature", "geometry": {"type": "Point", "coordinates": [-121.98400000000001, 37.431999999999995]}, "properties": {"name": "Location 110"}}, {"type": "Feature", "geometry": {"type": "Point", "coordinates": [-121.974, 37.431999999999995]}, "properties": {"name": "Location 111"}}, {"type": "Feature", "geometry": {"type": "Point", "coordinates": [-121.964, 37.431999999999995]}, "properties": {"name": "Location 112"}}, {"type": "Feature", "geometry": {"type": "Point", "coordinates": [-121.95400000000001, 37.431999999999995]}, "properties": {"name": "Location 113"}}, {"type": "Feature", "geometry": {"type": "Point", "coordinates": [-121.944, 37.431999999999995]}, "properties": {"name": "Location 114"}}, {"type": "Feature", "geometry": {"type": "Point", "coordinates": [-121.934, 37.431999999999995]}, "properties": {"name": "Location 115"}}, {"type": "Feature", "geometry": {"type": "Point", "coordinates": [-121.924, 37.431999999999995]}, "properties": {"name": "Location 116"}}, {"type": "Feature", "geometry": {"type": "Point", "coordinates": [-121.914, 37.431999999999995]}, "properties": {"name": "Location 117"}}, {"type": "Feature", "geometry": {"type": "Point", "coordinates": [-121.904, 37.431999999999995]}, "properties": {"name": "Location 118"}}, {"type": "Feature", "geometry": {"type": "Point", "coordinates": [-121.894, 37.431999999999995]}, "properties": {"name": "Location 119"}}, {"type": "Feature", "geometry": {"type": "Point", "coordinates": [-121.884, 37.431999999999995]}, "properties": {"name": "Location 120"}}, {"type": "Feature", "geometry": {"type": "Point", "coordinates": [-121.87400000000001, 37.431999999999995]}, "properties": {"name": "Location 121"}}, {"type": "Feature", "geometry": {"type": "Point", "coordinates": [-121.864, 37.431999999999995]}, "properties": {"name": "Location 122"}}, {"type": "Feature", "geometry": {"type": "Point", "coordinates": [-121.854, 37.431999999999995]}, "properties": {"name": "Location 123"}}, {"type": "Feature", "geometry": {"type": "Point", "coordinates": [-121.84400000000001, 37.431999999999995]}, "properties": {"name": "Location 124"}}, {"type": "Feature", "geometry": {"type": "Point", "coordinates": [-121.834, 37.431999999999995]}, "properties": {"name": "Location 125"}}, {"type": "Feature", "geometry": {"type": "Point", "coordinates": [-121.824, 37.431999999999995]}, "properties": {"name": "Location 126"}}, {"type": "Feature", "geometry": {"type": "Point", "coordinates": [-121.81400000000001, 37.431999999999995]}, "properties": {"name": "Location 127"}}, {"type": "Feature", "geometry": {"type": "Point", "coordinates": [-121.804, 37.431999999999995]}, "properties": {"name": "Location 128"}}, {"type": "Feature", "geometry": {"type": "Point", "coordinates": [-121.794, 37.431999999999995]}, "properties": {"name": "Location 129"}}, {"type": "Feature", "geometry": {"type": "Point", "coordinates": [-121.784, 37.431999999999995]}, "properties": {"name": "Location 130"}}, {"type": "Feature", "geometry": {"type": "Point", "coordinates": [-121.774, 37.431999999999995]}, "properties": {"name": "Location 131"}}, {"type": "Feature", "geometry": {"type": "Point", "coordinates": [-121.76400000000001, 37.431999999999995]}, "properties": {"name": "Location 132"}}, {"type": "Feature", "geometry": {"type": "Point", "coordinates": [-121.754, 37.431999999999995]}, "properties": {"name": "Location 133"}}, {"type": "Feature", "geometry": {"type": "Point", "coordinates": [-121.744, 37.431999999999995]}, "properties": {"name": "Location 134"}}, {"type": "Feature", "geometry": {"type": "Point", "coordinates": [-121.73400000000001, 37.431999999999995]}, "properties": {"name": "Location 135"}}, {"type": "Feature", "geometry": {"type": "Point", "coordinates": [-121.724, 37.431999999999995]}, "properties": {"name": "Location 136"}}, {"type": "Feature", "geometry": {"type": "Point", "coordinates": [-121.714, 37.431999999999995]}, "properties": {"name": "Location 137"}}, {"type": "Feature", "geometry": {"type": "Point", "coordinates": [-121.70400000000001, 37.431999999999995]}, "properties": {"name": "Location 138"}}, {"type": "Feature", "geometry": {"type": "Point", "coordinates": [-121.694, 37.431999999999995]}, "properties": {"name": "Location 139"}}, {"type": "Feature", "geometry": {"type": "Point", "coordinates": [-121.684, 37.431999999999995]}, "properties": {"name": "Location 140"}}, {"type": "Feature", "geometry": {"type": "Point", "coordinates": [-121.674, 37.431999999999995]}, "properties": {"name": "Location 141"}}, {"type": "Feature", "geometry": {"type": "Point", "coordinates": [-121.664, 37.431999999999995]}, "properties": {"name": "Location 142"}}, {"type": "Feature", "geometry": {"type": "Point", "coordinates": [-121.654, 37.431999999999995]}, "properties": {"name": "Location 143"}}, {"type": "Feature", "geometry": {"type": "Point", "coordinates": [-121.644, 37.431999999999995]}, "properties": {"name": "Location 144"}}, {"type": "Feature", "geometry": {"type": "Point", "coordinates": [-121.634, 37.431999999999995]}, "properties": {"name": "Location 145"}}, {"type": "Feature", "geometry": {"type": "Point", "coordinates": [-121.62400000000001, 37.431999999999995]}, "properties": {"name": "Location 146"}}, {"type": "Feature", "geometry": {"type": "Point", "coordinates": [-121.614, 37.431999999999995]}, "properties": {"name": "Location 147"}}, {"type": "Feature", "geometry": {"type": "Point", "coordinates": [-121.604, 37.431999999999995]}, "properties": {"name": "Location 148"}}, {"type": "Feature", "geometry": {"type": "Point", "coordinates": [-121.59400000000001, 37.431999999999995]}, "properties": {"name": "Location 149"}}, {"type": "Feature", "geometry": {"type": "Point", "coordinates": [-121.584, 37.431999999999995]}, "properties": {"name": "Location 150"}}, {"type": "Feature", "geometry": {"type": "Point", "coordinates": [-121.574, 37.431999999999995]}, "properties": {"name": "Location 151"}}, {"type": "Feature", "geometry": {"type": "Point", "coordinates": [-121.56400000000001, 37.431999999999995]}, "properties": {"name": "Location 152"}}, {"type": "Feature", "geometry": {"type": "Point", "coordinates": [-121.554, 37.431999999999995]}, "properties": {"name": "Location 153"}}, {"type": "Feature", "geometry": {"type": "Point", "coordinates": [-121.544, 37.431999999999995]}, "properties": {"name": "Location 154"}}, {"type": "Feature", "geometry": {"type": "Point", "coordinates": [-121.534, 37.431999999999995]}, "properties": {"name": "Location 155"}}, {"type": "Feature", "geometry": {"type": "Point", "coordinates": [-121.524, 37.431999999999995]}, "properties": {"name": "Location 156"}}, {"type": "Feature", "geometry": {"type": "Point", "coordinates": [-121.51400000000001, 37.431999999999995]}, "properties": {"name": "Location 157"}}, {"type": "Feature", "geometry": {"type": "Point", "coordinates": [-121.504, 37.431999999999995]}, "properties": {"name": "Location 158"}}, {"type": "Feature", "geometry": {"type": "Point", "coordinates": [-121.494, 37.431999999999995]}, "properties": {"name": "Location 159"}}, {"type": "Feature", "geometry": {"type": "Point", "coordinates": [-121.48400000000001, 37.431999999999995]}, "properties": {"name": "Location 160"}}, {"type": "Feature", "geometry": {"type": "Point", "coordinates": [-121.474, 37.431999999999995]}, "properties": {"name": "Location 161"}}, {"type": "Feature", "geometry": {"type": "Point", "coordinates": [-121.464, 37.431999999999995]}, "properties": {"name": "Location 162"}}, {"type": "Feature", "geometry": {"type": "Point", "coordinates": [-121.45400000000001, 37.431999999999995]}, "properties": {"name": "Location 163"}}, {"type": "Feature", "geometry": {"type": "Point", "coordinates": [-121.444, 37.431999999999995]}, "properties": {"name": "Location 164"}}, {"type": "Feature", "geometry": {"type": "Point", "coordinates": [-121.434, 37.431999999999995]}, "properties": {"name": "Location 165"}}, {"type": "Feature", "geometry": {"type": "Point", "coordinates": [-121.424, 37.431999999999995]}, "properties": {"name": "Location 166"}}, {"type": "Feature", "geometry": {"type": "Point", "coordinates": [-121.414, 37.431999999999995]}, "properties": {"name": "Location 167"}}, {"type": "Feature", "geometry": {"type": "Point", "coordinates": [-121.404, 37.431999999999995]}, "properties": {"name": "Location 168"}}, {"type": "Feature", "geometry": {"type": "Point", "coordinates": [-121.394, 37.431999999999995]}, "properties": {"name": "Location 169"}}, {"type": "Feature", "geometry": {"type": "Point", "coordinates": [-121.384, 37.431999999999995]}, "properties": {"name": "Location 170"}}, {"type": "Feature", "geometry": {"type": "Point", "coordinates": [-121.37400000000001, 37.431999999999995]}, "properties": {"name": "Location 171"}}, {"type": "Feature", "geometry": {"type": "Point", "coordinates": [-121.364, 37.431999999999995]}, "properties": {"name": "Location 172"}}, {"type": "Feature", "geometry": {"type": "Point", "coordinates": [-121.354, 37.431999999999995]}, "properties": {"name": "Location 173"}}, {"type": "Feature", "geometry": {"type": "Point", "coordinates": [-121.34400000000001, 37.431999999999995]}, "properties": {"name": "Location 174"}}, {"type": "Feature", "geometry": {"type": "Point", "coordinates": [-121.334, 37.431999999999995]}, "properties": {"name": "Location 175"}}, {"type": "Feature", "geometry": {"type": "Point", "coordinates": [-121.324, 37.431999999999995]}, "properties": {"name": "Location 176"}}, {"type": "Feature", "geometry": {"type": "Point", "coordinates": [-121.31400000000001, 37.431999999999995]}, "properties": {"name": "Location 177"}}, {"type": "Feature", "geometry": {"type": "Point", "coordinates": [-121.304, 37.431999999999995]}, "properties": {"name": "Location 178"}}, {"type": "Feature", "geometry": {"type": "Point", "coordinates": [-121.294, 37.431999999999995]}, "properties": {"name": "Location 179"}}, {"type": "Feature", "geometry": {"type": "Point", "coordinates": [-121.284, 37.431999999999995]}, "properties": {"name": "Location 180"}}, {"type": "Feature", "geometry": {"type": "Point", "coordinates": [-121.274, 37.431999999999995]}, "properties": {"name": "Location 181"}}, {"type": "Feature", "geometry": {"type": "Point", "coordinates": [-121.26400000000001, 37.431999999999995]}, "properties": {"name": "Location 182"}}, {"type": "Feature", "geometry": {"type": "Point", "coordinates": [-121.254, 37.431999999999995]}, "properties": {"name": "Location 183"}}, {"type": "Feature", "geometry": {"type": "Point", "coordinates": [-121.244, 37.431999999999995]}, "properties": {"name": "Location 184"}}, {"type": "Feature", "geometry": {"type": "Point", "coordinates": [-121.23400000000001, 37.431999999999995]}, "properties": {"name": "Location 185"}}, {"type": "Feature", "geometry": {"type": "Point", "coordinates": [-121.224, 37.431999999999995]}, "properties": {"name": "Location 186"}}, {"type": "Feature", "geometry": {"type": "Point", "coordinates": [-121.214, 37.431999999999995]}, "properties": {"name": "Location 187"}}, {"type": "Feature", "geometry": {"type": "Point", "coordinates": [-121.20400000000001, 37.431999999999995]}, "properties": {"name": "Location 188"}}, {"type": "Feature", "geometry": {"type": "Point", "coordinates": [-121.194, 37.431999999999995]}, "properties": {"name": "Location 189"}}, {"type": "Feature", "geometry": {"type": "Point", "coordinates": [-121.184, 37.431999999999995]}, "properties": {"name": "Location 190"}}, {"type": "Feature", "geometry": {"type": "Point", "coordinates": [-121.174, 37.431999999999995]}, "properties": {"name": "Location 191"}}, {"type": "Feature", "geometry": {"type": "Point", "coordinates": [-121.164, 37.431999999999995]}, "properties": {"name": "Location 192"}}, {"type": "Feature", "geometry": {"type": "Point", "coordinates": [-121.154, 37.431999999999995]}, "properties": {"name": "Location 193"}}, {"type": "Feature", "geometry": {"type": "Point", "coordinates": [-121.144, 37.431999999999995]}, "properties": {"name": "Location 194"}}, {"type": "Feature", "geometry": {"type": "Point", "coordinates": [-121.134, 37.431999999999995]}, "properties": {"name": "Location 195"}}, {"type": "Feature", "geometry": {"type": "Point", "coordinates": [-121.12400000000001, 37.431999999999995]}, "properties": {"name": "Location 196"}}, {"type": "Feature", "geometry": {"type": "Point", "coordinates": [-121.114, 37.431999999999995]}, "properties": {"name": "Location 197"}}, {"type": "Feature", "geometry": {"type": "Point", "coordinates": [-121.104, 37.431999999999995]}, "properties": {"name": "Location 198"}}, {"type": "Feature", "geometry": {"type": "Point", "coordinates": [-121.09400000000001, 37.431999999999995]}, "properties": {"name": "Location 199"}}, {"type": "Feature", "geometry": {"type": "Point", "coordinates": [-122.084, 37.442]}, "properties": {"name": "Location 200"}}, {"type": "Feature", "geometry": {"type": "Point", "coordinates": [-122.074, 37.442]}, "properties": {"name": "Location 201"}}, {"type": "Feature", "geometry": {"type": "Point", "coordinates": [-122.06400000000001, 37.442]}, "properties": {"name": "Location 202"}}, {"type": "Feature", "geometry": {"type": "Point", "coordinates": [-122.054, 37.442]}, "properties": {"name": "Location 203"}}, {"type": "Feature", "geometry": {"type": "Point", "coordinates": [-122.044, 37.442]}, "properties": {"name": "Location 204"}}, {"type": "Feature", "geometry": {"type": "Point", "coordinates": [-122.034, 37.442]}, "properties": {"name": "Location 205"}}, {"type": "Feature", "geometry": {"type": "Point", "coordinates": [-122.024, 37.442]}, "properties": {"name": "Location 206"}}, {"type": "Feature", "geometry": {"type": "Point", "coordinates": [-122.01400000000001, 37.442]}, "properties": {"name": "Location 207"}}, {"type": "Feature", "geometry": {"type": "Point", "coordinates": [-122.004, 37.442]}, "properties": {"name": "Location 208"}}, {"type": "Feature", "geometry": {"type": "Point", "coordinates": [-121.994, 37.442]}, "properties": {"name": "Location 209"}}, {"type": "Feature", "geometry": {"type": "Point", "coordinates": [-121.98400000000001, 37.442]}, "properties": {"name": "Location 210"}}, {"type": "Feature", "geometry": {"type": "Point", "coordinates": [-121.974, 37.442]}, "properties": {"name": "Location 211"}}, {"type": "Feature", "geometry": {"type": "Point", "coordinates": [-121.964, 37.442]}, "properties": {"name": "Location 212"}}, {"type": "Feature", "geometry": {"type": "Point", "coordinates": [-121.95400000000001, 37.442]}, "properties": {"name": "Location 213"}}, {"type": "Feature", "geometry": {"type": "Point", "coordinates": [-121.944, 37.442]}, "properties": {"name": "Location 214"}}, {"type": "Feature", "geometry": {"type": "Point", "coordinates": [-121.934, 37.442]}, "properties": {"name": "Location 215"}}, {"type": "Feature", "geometry": {"type": "Point", "coordinates": [-121.924, 37.442]}, "properties": {"name": "Location 216"}}, {"type": "Feature", "geometry": {"type": "Point", "coordinates": [-121.914, 37.442]}, "properties": {"name": "Location 217"}}, {"type": "Feature", "geometry": {"type": "Point", "coordinates": [-121.904, 37.442]}, "properties": {"name": "Location 218"}}, {"type": "Feature", "geometry": {"type": "Point", "coordinates": [-121.894, 37.442]}, "properties": {"name": "Location 219"}}, {"type": "Feature", "geometry": {"type": "Point", "coordinates": [-121.884, 37.442]}, "properties": {"name": "Location 220"}}, {"type": "Feature", "geometry": {"type": "Point", "coordinates": [-121.87400000000001, 37.442]}, "properties": {"name": "Location 221"}}, {"type": "Feature", "geometry": {"type": "Point", "coordinates": [-121.864, 37.442]}, "properties": {"name": "Location 222"}}, {"type": "Feature", "geometry": {"type": "Point", "coordinates": [-121.854, 37.442]}, "properties": {"name": "Location 223"}}, {"type": "Feature", "geometry": {"type": "Point", "coordinates": [-121.84400000000001, 37.442]}, "properties": {"name": "Location 224"}}, {"type": "Feature", "geometry": {"type": "Point", "coordinates": [-121.834, 37.442]}, "properties": {"name": "Location 225"}}, {"type": "Feature", "geometry": {"type": "Point", "coordinates": [-121.824, 37.442]}, "properties": {"name": "Location 226"}}, {"type": "Feature", "geometry": {"type": "Point", "coordinates": [-121.81400000000001, 37.442]}, "properties": {"name": "Location 227"}}, {"type": "Feature", "geometry": {"type": "Point", "coordinates": [-121.804, 37.442]}, "properties": {"name": "Location 228"}}, {"type": "Feature", "geometry": {"type": "Point", "coordinates": [-121.794, 37.442]}, "properties": {"name": "Location 229"}}, {"type": "Feature", "geometry": {"type": "Point", "coordinates": [-121.784, 37.442]}, "properties": {"name": "Location 230"}}, {"type": "Feature", "geometry": {"type": "Point", "coordinates": [-121.774, 37.442]}, "properties": {"name": "Location 231"}}, {"type": "Feature", "geometry": {"type": "Point", "coordinates": [-121.76400000000001, 37.442]}, "properties": {"name": "Location 232"}}, {"type": "Feature", "geometry": {"type": "Point", "coordinates": [-121.754, 37.442]}, "properties": {"name": "Location 233"}}, {"type": "Feature", "geometry": {"type": "Point", "coordinates": [-121.744, 37.442]}, "properties": {"name": "Location 234"}}, {"type": "Feature", "geometry": {"type": "Point", "coordinates": [-121.73400000000001, 37.442]}, "properties": {"name": "Location 235"}}, {"type": "Feature", "geometry": {"type": "Point", "coordinates": [-121.724, 37.442]}, "properties": {"name": "Location 236"}}, {"type": "Feature", "geometry": {"type": "Point", "coordinates": [-121.714, 37.442]}, "properties": {"name": "Location 237"}}, {"type": "Feature", "geometry": {"type": "Point", "coordinates": [-121.70400000000001, 37.442]}, "properties": {"name": "Location 238"}}, {"type": "Feature", "geometry": {"type": "Point", "coordinates": [-121.694, 37.442]}, "properties": {"name": "Location 239"}}, {"type": "Feature", "geometry": {"type": "Point", "coordinates": [-121.684, 37.442]}, "properties": {"name": "Location 240"}}, {"type": "Feature", "geometry": {"type": "Point", "coordinates": [-121.674, 37.442]}, "properties": {"name": "Location 241"}}, {"type": "Feature", "geometry": {"type": "Point", "coordinates": [-121.664, 37.442]}, "properties": {"name": "Location 242"}}, {"type": "Feature", "geometry": {"type": "Point", "coordinates": [-121.654, 37.442]}, "properties": {"name": "Location 243"}}, {"type": "Feature", "geometry": {"type": "Point", "coordinates": [-121.644, 37.442]}, "properties": {"name": "Location 244"}}, {"type": "Feature", "geometry": {"type": "Point", "coordinates": [-121.634, 37.442]}, "properties": {"name": "Location 245"}}, {"type": "Feature", "geometry": {"type": "Point", "coordinates": [-121.62400000000001, 37.442]}, "properties": {"name": "Location 246"}}, {"type": "Feature", "geometry": {"type": "Point", "coordinates": [-121.614, 37.442]}, "properties": {"name": "Location 247"}}, {"type": "Feature", "geometry": {"type": "Point", "coordinates": [-121.604, 37.442]}, "properties": {"name": "Location 248"}}, {"type": "Feature", "geometry": {"type": "Point", "coordinates": [-121.59400000000001, 37.442]}, "properties": {"name": "Location 249"}}]}