{"type": "FeatureCollection", "features": [{"type": "Feature", "geometry": {"type": "Point", "coordinates": [-122.084, 37.422]}, "properties": {"name": "Location 0"}}, {"type": "Feature", "geometry": {"type": "Point", "coordinates": [-122.074, 37.422]}, "properties": {"name": "Location 1"}}, {"type": "Feature", "geometry": {"type": "Point", "coordinates": [-122.06400000000001, 37.422]}, "properties": {"name": "Location 2"}}, {"type": "Feature", "geometry": {"type": "Point", "coordinates": [-122.054, 37.422]}, "properties": {"name": "Location 3"}}, {"type": "Feature", "geometry": {"type": "Point", "coordinates": [-122.044, 37.422]}, "properties": {"name": "Location 4"}}, {"type": "Feature", "geometry": {"type": "Point", "coordinates": [-122.034, 37.422]}, "properties": {"name": "Location 5"}}, {"type": "Feature", "geometry": {"type": "Point", "coordinates": [-122.024, 37.422]}, "properties": {"name": "Location 6"}}, {"type": "Feature", "geometry": {"type": "Point", "coordinates": [-122.01400000000001, 37.422]}, "properties": {"name": "Location 7"}}, {"type": "Feature", "geometry": {"type": "Point", "coordinates": [-122.004, 37.422]}, "properties": {"name": "Location 8"}}, {"type": "Feature", "geometry": {"type": "Point", "coordinates": [-121.994, 37.422]}, "properties": {"name": "Location 9"}}, {"type": "Feature", "geometry": {"type": "Point", "coordinates": [-121.98400000000001, 37.422]}, "properties": {"name": "Location 10"}}, {"type": "Feature", "geometry": {"type": "Point", "coordinates": [-121.974, 37.422]}, "properties": {"name": "Location 11"}}, {"type": "Feature", "geometry": {"type": "Point", "coordinates": [-121.964, 37.422]}, "properties": {"name": "Location 12"}}, {"type": "Feature", "geometry": {"type": "Point", "coordinates": [-121.95400000000001, 37.422]}, "properties": {"name": "Location 13"}}, {"type": "Feature", "geometry": {"type": "Point", "coordinates": [-121.944, 37.422]}, "properties": {"name": "Location 14"}}, {"type": "Feature", "geometry": {"type": "Point", "coordinates": [-121.934, 37.422]}, "properties": {"name": "Location 15"}}, {"type": "Feature", "geometry": {"type": "Point", "coordinates": [-121.924, 37.422]}, "properties": {"name": "Location 16"}}, {"type": "Feature", "geometry": {"type": "Point", "coordinates": [-121.914, 37.422]}, "properties": {"name": "Location 17"}}, {"type": "Feature", "geometry": {"type": "Point", "coordinates": [-121.904, 37.422]}, "properties": {"name": "Location 18"}}, {"type": "Feature", "geometry": {"type": "Point", "coordinates": [-121.894, 37.422]}, "properties": {"name": "Location 19"}}, {"type": "Feature", "geometry": {"type": "Point", "coordinates": [-121.884, 37.422]}, "properties": {"name": "Location 20"}}, {"type": "Feature", "geometry": {"type": "Point", "coordinates": [-121.87400000000001, 37.422]}, "properties": {"name": "Location 21"}}, {"type": "Feature", "geometry": {"type": "Point", "coordinates": [-121.864, 37.422]}, "properties": {"name": "Location 22"}}, {"type": "Feature", "geometry": {"type": "Point", "coordinates": [-121.854, 37.422]}, "properties": {"name": "Location 23"}}, {"type": "Feature", "geometry": {"type": "Point", "coordinates": [-121.84400000000001, 37.422]}, "properties": {"name": "Location 24"}}, {"type": "Feature", "geometry": {"type": "Point", "coordinates": [-121.834, 37.422]}, "properties": {"name": "Location 25"}}, {"type": "Feature", "geometry": {"type": "Point", "coordinates": [-121.824, 37.422]}, "properties": {"name": "Location 26"}}, {"type": "Feature", "geometry": {"type": "Point", "coordinates": [-121.81400000000001, 37.422]}, "properties": {"name": "Location 27"}}, {"type": "Feature", "geometry": {"type": "Point", "coordinates": [-121.804, 37.422]}, "properties": {"name": "Location 28"}}, {"type": "Feature", "geometry": {"type": "Point", "coordinates": [-121.794, 37.422]}, "properties": {"name": "Location 29"}}, {"type": "Feature", "geometry": {"type": "Point", "coordinates": [-121.784, 37.422]}, "properties": {"name": "Location 30"}}, {"type": "Feature", "geometry": {"type": "Point", "coordinates": [-121.774, 37.422]}, "properties": {"name": "Location 31"}}, {"type": "Feature", "geometry": {"type": "Point", "coordinates": [-121.76400000000001, 37.422]}, "properties": {"name": "Location 32"}}, {"type": "Feature", "geometry": {"type": "Point", "coordinates": [-121.754, 37.422]}, "properties": {"name": "Location 33"}}, {"type": "Feature", "geometry": {"type": "Point", "coordinates": [-121.744, 37.422]}, "properties": {"name": "Location 34"}}, {"type": "Feature", "geometry": {"type": "Point", "coordinates": [-121.73400000000001, 37.422]}, "properties": {"name": "Location 35"}}, {"type": "Feature", "geometry": {"type": "Point", "coordinates": [-121.724, 37.422]}, "properties": {"name": "Location 36"}}, {"type": "Feature", "geometry": {"type": "Point", "coordinates": [-121.714, 37.422]}, "properties": {"name": "Location 37"}}, {"type": "Feature", "geometry": {"type": "Point", "coordinates": [-121.70400000000001, 37.422]}, "properties": {"name": "Location 38"}}, {"type": "Feature", "geometry": {"type": "Point", "coordinates": [-121.694, 37.422]}, "properties": {"name": "Location 39"}}]}