{"type": "FeatureCollection", "features": [{"type": "Feature", "geometry": {"type": "Point", "coordinates": [-122.084, 37.422]}, "properties": {"name": "Location 0"}}, {"type": "Feature", "geometry": {"type": "Point", "coordinates": [-122.074, 37.422]}, "properties": {"name": "Location 1"}}, {"type": "Feature", "geometry": {"type": "Point", "coordinates": [-122.06400000000001, 37.422]}, "properties": {"name": "Location 2"}}, {"type": "Feature", "geometry": {"type": "Point", "coordinates": [-122.054, 37.422]}, "properties": {"name": "Location 3"}}, {"type": "Feature", "geometry": {"type": "Point", "coordinates": [-122.044, 37.422]}, "properties": {"name": "Location 4"}}, {"type": "Feature", "geometry": {"type": "Point", "coordinates": [-122.034, 37.422]}, "properties": {"name": "Location 5"}}, {"type": "Feature", "geometry": {"type": "Point", "coordinates": [-122.024, 37.422]}, "properties": {"name": "Location 6"}}, {"type": "Feature", "geometry": {"type": "Point", "coordinates": [-122.01400000000001, 37.422]}, "properties": {"name": "Location 7"}}, {"type": "Feature", "geometry": {"type": "Point", "coordinates": [-122.004, 37.422]}, "properties": {"name": "Location 8"}}, {"type": "Feature", "geometry": {"type": "Point", "coordinates": [-121.994, 37.422]}, "properties": {"name": "Location 9"}}, {"type": "Feature", "geometry": {"type": "Point", "coordinates": [-121.98400000000001, 37.422]}, "properties": {"name": "Location 10"}}, {"type": "Feature", "geometry": {"type": "Point", "coordinates": [-121.974, 37.422]}, "properties": {"name": "Location 11"}}, {"type": "Feature", "geometry": {"type": "Point", "coordinates": [-121.964, 37.422]}, "properties": {"name": "Location 12"}}, {"type": "Feature", "geometry": {"type": "Point", "coordinates": [-121.95400000000001, 37.422]}, "properties": {"name": "Location 13"}}, {"type": "Feature", "geometry": {"type": "Point", "coordinates": [-121.944, 37.422]}, "properties": {"name": "Location 14"}}]}