<?xml version="1.0" encoding="UTF-8"?>
<gpx version="1.1" creator="GetSampleData.com" xmlns="http://www.topografix.com/GPX/1/1">
  <wpt lat="37.422" lon="-122.084"><name>Location 0</name></wpt>
  <wpt lat="37.422" lon="-122.074"><name>Location 1</name></wpt>
  <wpt lat="37.422" lon="-122.06400000000001"><name>Location 2</name></wpt>
  <wpt lat="37.422" lon="-122.054"><name>Location 3</name></wpt>
  <wpt lat="37.422" lon="-122.044"><name>Location 4</name></wpt>
  <wpt lat="37.422" lon="-122.034"><name>Location 5</name></wpt>
  <wpt lat="37.422" lon="-122.024"><name>Location 6</name></wpt>
  <wpt lat="37.422" lon="-122.01400000000001"><name>Location 7</name></wpt>
  <wpt lat="37.422" lon="-122.004"><name>Location 8</name></wpt>
  <wpt lat="37.422" lon="-121.994"><name>Location 9</name></wpt>
  <wpt lat="37.422" lon="-121.98400000000001"><name>Location 10</name></wpt>
  <wpt lat="37.422" lon="-121.974"><name>Location 11</name></wpt>
  <wpt lat="37.422" lon="-121.964"><name>Location 12</name></wpt>
  <wpt lat="37.422" lon="-121.95400000000001"><name>Location 13</name></wpt>
  <wpt lat="37.422" lon="-121.944"><name>Location 14</name></wpt>
</gpx>
