<?xml version="1.0" encoding="UTF-8"?>
<gpx version="1.1" creator="GetSampleData.com" xmlns="http://www.topografix.com/GPX/1/1">
  <wpt lat="37.422" lon="-122.084"><name>Location 0</name></wpt>
  <wpt lat="37.422" lon="-122.074"><name>Location 1</name></wpt>
  <wpt lat="37.422" lon="-122.06400000000001"><name>Location 2</name></wpt>
  <wpt lat="37.422" lon="-122.054"><name>Location 3</name></wpt>
  <wpt lat="37.422" lon="-122.044"><name>Location 4</name></wpt>
  <wpt lat="37.422" lon="-122.034"><name>Location 5</name></wpt>
  <wpt lat="37.422" lon="-122.024"><name>Location 6</name></wpt>
  <wpt lat="37.422" lon="-122.01400000000001"><name>Location 7</name></wpt>
  <wpt lat="37.422" lon="-122.004"><name>Location 8</name></wpt>
  <wpt lat="37.422" lon="-121.994"><name>Location 9</name></wpt>
  <wpt lat="37.422" lon="-121.98400000000001"><name>Location 10</name></wpt>
  <wpt lat="37.422" lon="-121.974"><name>Location 11</name></wpt>
  <wpt lat="37.422" lon="-121.964"><name>Location 12</name></wpt>
  <wpt lat="37.422" lon="-121.95400000000001"><name>Location 13</name></wpt>
  <wpt lat="37.422" lon="-121.944"><name>Location 14</name></wpt>
  <wpt lat="37.422" lon="-121.934"><name>Location 15</name></wpt>
  <wpt lat="37.422" lon="-121.924"><name>Location 16</name></wpt>
  <wpt lat="37.422" lon="-121.914"><name>Location 17</name></wpt>
  <wpt lat="37.422" lon="-121.904"><name>Location 18</name></wpt>
  <wpt lat="37.422" lon="-121.894"><name>Location 19</name></wpt>
  <wpt lat="37.422" lon="-121.884"><name>Location 20</name></wpt>
  <wpt lat="37.422" lon="-121.87400000000001"><name>Location 21</name></wpt>
  <wpt lat="37.422" lon="-121.864"><name>Location 22</name></wpt>
  <wpt lat="37.422" lon="-121.854"><name>Location 23</name></wpt>
  <wpt lat="37.422" lon="-121.84400000000001"><name>Location 24</name></wpt>
  <wpt lat="37.422" lon="-121.834"><name>Location 25</name></wpt>
  <wpt lat="37.422" lon="-121.824"><name>Location 26</name></wpt>
  <wpt lat="37.422" lon="-121.81400000000001"><name>Location 27</name></wpt>
  <wpt lat="37.422" lon="-121.804"><name>Location 28</name></wpt>
  <wpt lat="37.422" lon="-121.794"><name>Location 29</name></wpt>
  <wpt lat="37.422" lon="-121.784"><name>Location 30</name></wpt>
  <wpt lat="37.422" lon="-121.774"><name>Location 31</name></wpt>
  <wpt lat="37.422" lon="-121.76400000000001"><name>Location 32</name></wpt>
  <wpt lat="37.422" lon="-121.754"><name>Location 33</name></wpt>
  <wpt lat="37.422" lon="-121.744"><name>Location 34</name></wpt>
  <wpt lat="37.422" lon="-121.73400000000001"><name>Location 35</name></wpt>
  <wpt lat="37.422" lon="-121.724"><name>Location 36</name></wpt>
  <wpt lat="37.422" lon="-121.714"><name>Location 37</name></wpt>
  <wpt lat="37.422" lon="-121.70400000000001"><name>Location 38</name></wpt>
  <wpt lat="37.422" lon="-121.694"><name>Location 39</name></wpt>
</gpx>
