<?xml version="1.0" encoding="UTF-8"?>
<gpx version="1.1" creator="GetSampleData.com" xmlns="http://www.topografix.com/GPX/1/1">
  <wpt lat="37.422" lon="-122.084"><name>Location 0</name></wpt>
  <wpt lat="37.422" lon="-122.074"><name>Location 1</name></wpt>
  <wpt lat="37.422" lon="-122.06400000000001"><name>Location 2</name></wpt>
  <wpt lat="37.422" lon="-122.054"><name>Location 3</name></wpt>
  <wpt lat="37.422" lon="-122.044"><name>Location 4</name></wpt>
  <wpt lat="37.422" lon="-122.034"><name>Location 5</name></wpt>
  <wpt lat="37.422" lon="-122.024"><name>Location 6</name></wpt>
  <wpt lat="37.422" lon="-122.01400000000001"><name>Location 7</name></wpt>
  <wpt lat="37.422" lon="-122.004"><name>Location 8</name></wpt>
  <wpt lat="37.422" lon="-121.994"><name>Location 9</name></wpt>
  <wpt lat="37.422" lon="-121.98400000000001"><name>Location 10</name></wpt>
  <wpt lat="37.422" lon="-121.974"><name>Location 11</name></wpt>
  <wpt lat="37.422" lon="-121.964"><name>Location 12</name></wpt>
  <wpt lat="37.422" lon="-121.95400000000001"><name>Location 13</name></wpt>
  <wpt lat="37.422" lon="-121.944"><name>Location 14</name></wpt>
  <wpt lat="37.422" lon="-121.934"><name>Location 15</name></wpt>
  <wpt lat="37.422" lon="-121.924"><name>Location 16</name></wpt>
  <wpt lat="37.422" lon="-121.914"><name>Location 17</name></wpt>
  <wpt lat="37.422" lon="-121.904"><name>Location 18</name></wpt>
  <wpt lat="37.422" lon="-121.894"><name>Location 19</name></wpt>
  <wpt lat="37.422" lon="-121.884"><name>Location 20</name></wpt>
  <wpt lat="37.422" lon="-121.87400000000001"><name>Location 21</name></wpt>
  <wpt lat="37.422" lon="-121.864"><name>Location 22</name></wpt>
  <wpt lat="37.422" lon="-121.854"><name>Location 23</name></wpt>
  <wpt lat="37.422" lon="-121.84400000000001"><name>Location 24</name></wpt>
  <wpt lat="37.422" lon="-121.834"><name>Location 25</name></wpt>
  <wpt lat="37.422" lon="-121.824"><name>Location 26</name></wpt>
  <wpt lat="37.422" lon="-121.81400000000001"><name>Location 27</name></wpt>
  <wpt lat="37.422" lon="-121.804"><name>Location 28</name></wpt>
  <wpt lat="37.422" lon="-121.794"><name>Location 29</name></wpt>
  <wpt lat="37.422" lon="-121.784"><name>Location 30</name></wpt>
  <wpt lat="37.422" lon="-121.774"><name>Location 31</name></wpt>
  <wpt lat="37.422" lon="-121.76400000000001"><name>Location 32</name></wpt>
  <wpt lat="37.422" lon="-121.754"><name>Location 33</name></wpt>
  <wpt lat="37.422" lon="-121.744"><name>Location 34</name></wpt>
  <wpt lat="37.422" lon="-121.73400000000001"><name>Location 35</name></wpt>
  <wpt lat="37.422" lon="-121.724"><name>Location 36</name></wpt>
  <wpt lat="37.422" lon="-121.714"><name>Location 37</name></wpt>
  <wpt lat="37.422" lon="-121.70400000000001"><name>Location 38</name></wpt>
  <wpt lat="37.422" lon="-121.694"><name>Location 39</name></wpt>
  <wpt lat="37.422" lon="-121.684"><name>Location 40</name></wpt>
  <wpt lat="37.422" lon="-121.674"><name>Location 41</name></wpt>
  <wpt lat="37.422" lon="-121.664"><name>Location 42</name></wpt>
  <wpt lat="37.422" lon="-121.654"><name>Location 43</name></wpt>
  <wpt lat="37.422" lon="-121.644"><name>Location 44</name></wpt>
  <wpt lat="37.422" lon="-121.634"><name>Location 45</name></wpt>
  <wpt lat="37.422" lon="-121.62400000000001"><name>Location 46</name></wpt>
  <wpt lat="37.422" lon="-121.614"><name>Location 47</name></wpt>
  <wpt lat="37.422" lon="-121.604"><name>Location 48</name></wpt>
  <wpt lat="37.422" lon="-121.59400000000001"><name>Location 49</name></wpt>
  <wpt lat="37.422" lon="-121.584"><name>Location 50</name></wpt>
  <wpt lat="37.422" lon="-121.574"><name>Location 51</name></wpt>
  <wpt lat="37.422" lon="-121.56400000000001"><name>Location 52</name></wpt>
  <wpt lat="37.422" lon="-121.554"><name>Location 53</name></wpt>
  <wpt lat="37.422" lon="-121.544"><name>Location 54</name></wpt>
  <wpt lat="37.422" lon="-121.534"><name>Location 55</name></wpt>
  <wpt lat="37.422" lon="-121.524"><name>Location 56</name></wpt>
  <wpt lat="37.422" lon="-121.51400000000001"><name>Location 57</name></wpt>
  <wpt lat="37.422" lon="-121.504"><name>Location 58</name></wpt>
  <wpt lat="37.422" lon="-121.494"><name>Location 59</name></wpt>
  <wpt lat="37.422" lon="-121.48400000000001"><name>Location 60</name></wpt>
  <wpt lat="37.422" lon="-121.474"><name>Location 61</name></wpt>
  <wpt lat="37.422" lon="-121.464"><name>Location 62</name></wpt>
  <wpt lat="37.422" lon="-121.45400000000001"><name>Location 63</name></wpt>
  <wpt lat="37.422" lon="-121.444"><name>Location 64</name></wpt>
  <wpt lat="37.422" lon="-121.434"><name>Location 65</name></wpt>
  <wpt lat="37.422" lon="-121.424"><name>Location 66</name></wpt>
  <wpt lat="37.422" lon="-121.414"><name>Location 67</name></wpt>
  <wpt lat="37.422" lon="-121.404"><name>Location 68</name></wpt>
  <wpt lat="37.422" lon="-121.394"><name>Location 69</name></wpt>
  <wpt lat="37.422" lon="-121.384"><name>Location 70</name></wpt>
  <wpt lat="37.422" lon="-121.37400000000001"><name>Location 71</name></wpt>
  <wpt lat="37.422" lon="-121.364"><name>Location 72</name></wpt>
  <wpt lat="37.422" lon="-121.354"><name>Location 73</name></wpt>
  <wpt lat="37.422" lon="-121.34400000000001"><name>Location 74</name></wpt>
  <wpt lat="37.422" lon="-121.334"><name>Location 75</name></wpt>
  <wpt lat="37.422" lon="-121.324"><name>Location 76</name></wpt>
  <wpt lat="37.422" lon="-121.31400000000001"><name>Location 77</name></wpt>
  <wpt lat="37.422" lon="-121.304"><name>Location 78</name></wpt>
  <wpt lat="37.422" lon="-121.294"><name>Location 79</name></wpt>
  <wpt lat="37.422" lon="-121.284"><name>Location 80</name></wpt>
  <wpt lat="37.422" lon="-121.274"><name>Location 81</name></wpt>
  <wpt lat="37.422" lon="-121.26400000000001"><name>Location 82</name></wpt>
  <wpt lat="37.422" lon="-121.254"><name>Location 83</name></wpt>
  <wpt lat="37.422" lon="-121.244"><name>Location 84</name></wpt>
  <wpt lat="37.422" lon="-121.23400000000001"><name>Location 85</name></wpt>
  <wpt lat="37.422" lon="-121.224"><name>Location 86</name></wpt>
  <wpt lat="37.422" lon="-121.214"><name>Location 87</name></wpt>
  <wpt lat="37.422" lon="-121.20400000000001"><name>Location 88</name></wpt>
  <wpt lat="37.422" lon="-121.194"><name>Location 89</name></wpt>
  <wpt lat="37.422" lon="-121.184"><name>Location 90</name></wpt>
  <wpt lat="37.422" lon="-121.174"><name>Location 91</name></wpt>
  <wpt lat="37.422" lon="-121.164"><name>Location 92</name></wpt>
  <wpt lat="37.422" lon="-121.154"><name>Location 93</name></wpt>
  <wpt lat="37.422" lon="-121.144"><name>Location 94</name></wpt>
  <wpt lat="37.422" lon="-121.134"><name>Location 95</name></wpt>
  <wpt lat="37.422" lon="-121.12400000000001"><name>Location 96</name></wpt>
  <wpt lat="37.422" lon="-121.114"><name>Location 97</name></wpt>
  <wpt lat="37.422" lon="-121.104"><name>Location 98</name></wpt>
  <wpt lat="37.422" lon="-121.09400000000001"><name>Location 99</name></wpt>
</gpx>
