<?xml version="1.0" encoding="UTF-8"?>
<gpx version="1.1" creator="GetSampleData.com" xmlns="http://www.topografix.com/GPX/1/1">
  <wpt lat="37.422" lon="-122.084"><name>Location 0</name></wpt>
  <wpt lat="37.422" lon="-122.074"><name>Location 1</name></wpt>
  <wpt lat="37.422" lon="-122.06400000000001"><name>Location 2</name></wpt>
  <wpt lat="37.422" lon="-122.054"><name>Location 3</name></wpt>
  <wpt lat="37.422" lon="-122.044"><name>Location 4</name></wpt>
  <wpt lat="37.422" lon="-122.034"><name>Location 5</name></wpt>
  <wpt lat="37.422" lon="-122.024"><name>Location 6</name></wpt>
  <wpt lat="37.422" lon="-122.01400000000001"><name>Location 7</name></wpt>
  <wpt lat="37.422" lon="-122.004"><name>Location 8</name></wpt>
  <wpt lat="37.422" lon="-121.994"><name>Location 9</name></wpt>
  <wpt lat="37.422" lon="-121.98400000000001"><name>Location 10</name></wpt>
  <wpt lat="37.422" lon="-121.974"><name>Location 11</name></wpt>
  <wpt lat="37.422" lon="-121.964"><name>Location 12</name></wpt>
  <wpt lat="37.422" lon="-121.95400000000001"><name>Location 13</name></wpt>
  <wpt lat="37.422" lon="-121.944"><name>Location 14</name></wpt>
  <wpt lat="37.422" lon="-121.934"><name>Location 15</name></wpt>
  <wpt lat="37.422" lon="-121.924"><name>Location 16</name></wpt>
  <wpt lat="37.422" lon="-121.914"><name>Location 17</name></wpt>
  <wpt lat="37.422" lon="-121.904"><name>Location 18</name></wpt>
  <wpt lat="37.422" lon="-121.894"><name>Location 19</name></wpt>
  <wpt lat="37.422" lon="-121.884"><name>Location 20</name></wpt>
  <wpt lat="37.422" lon="-121.87400000000001"><name>Location 21</name></wpt>
  <wpt lat="37.422" lon="-121.864"><name>Location 22</name></wpt>
  <wpt lat="37.422" lon="-121.854"><name>Location 23</name></wpt>
  <wpt lat="37.422" lon="-121.84400000000001"><name>Location 24</name></wpt>
  <wpt lat="37.422" lon="-121.834"><name>Location 25</name></wpt>
  <wpt lat="37.422" lon="-121.824"><name>Location 26</name></wpt>
  <wpt lat="37.422" lon="-121.81400000000001"><name>Location 27</name></wpt>
  <wpt lat="37.422" lon="-121.804"><name>Location 28</name></wpt>
  <wpt lat="37.422" lon="-121.794"><name>Location 29</name></wpt>
  <wpt lat="37.422" lon="-121.784"><name>Location 30</name></wpt>
  <wpt lat="37.422" lon="-121.774"><name>Location 31</name></wpt>
  <wpt lat="37.422" lon="-121.76400000000001"><name>Location 32</name></wpt>
  <wpt lat="37.422" lon="-121.754"><name>Location 33</name></wpt>
  <wpt lat="37.422" lon="-121.744"><name>Location 34</name></wpt>
  <wpt lat="37.422" lon="-121.73400000000001"><name>Location 35</name></wpt>
  <wpt lat="37.422" lon="-121.724"><name>Location 36</name></wpt>
  <wpt lat="37.422" lon="-121.714"><name>Location 37</name></wpt>
  <wpt lat="37.422" lon="-121.70400000000001"><name>Location 38</name></wpt>
  <wpt lat="37.422" lon="-121.694"><name>Location 39</name></wpt>
  <wpt lat="37.422" lon="-121.684"><name>Location 40</name></wpt>
  <wpt lat="37.422" lon="-121.674"><name>Location 41</name></wpt>
  <wpt lat="37.422" lon="-121.664"><name>Location 42</name></wpt>
  <wpt lat="37.422" lon="-121.654"><name>Location 43</name></wpt>
  <wpt lat="37.422" lon="-121.644"><name>Location 44</name></wpt>
  <wpt lat="37.422" lon="-121.634"><name>Location 45</name></wpt>
  <wpt lat="37.422" lon="-121.62400000000001"><name>Location 46</name></wpt>
  <wpt lat="37.422" lon="-121.614"><name>Location 47</name></wpt>
  <wpt lat="37.422" lon="-121.604"><name>Location 48</name></wpt>
  <wpt lat="37.422" lon="-121.59400000000001"><name>Location 49</name></wpt>
  <wpt lat="37.422" lon="-121.584"><name>Location 50</name></wpt>
  <wpt lat="37.422" lon="-121.574"><name>Location 51</name></wpt>
  <wpt lat="37.422" lon="-121.56400000000001"><name>Location 52</name></wpt>
  <wpt lat="37.422" lon="-121.554"><name>Location 53</name></wpt>
  <wpt lat="37.422" lon="-121.544"><name>Location 54</name></wpt>
  <wpt lat="37.422" lon="-121.534"><name>Location 55</name></wpt>
  <wpt lat="37.422" lon="-121.524"><name>Location 56</name></wpt>
  <wpt lat="37.422" lon="-121.51400000000001"><name>Location 57</name></wpt>
  <wpt lat="37.422" lon="-121.504"><name>Location 58</name></wpt>
  <wpt lat="37.422" lon="-121.494"><name>Location 59</name></wpt>
  <wpt lat="37.422" lon="-121.48400000000001"><name>Location 60</name></wpt>
  <wpt lat="37.422" lon="-121.474"><name>Location 61</name></wpt>
  <wpt lat="37.422" lon="-121.464"><name>Location 62</name></wpt>
  <wpt lat="37.422" lon="-121.45400000000001"><name>Location 63</name></wpt>
  <wpt lat="37.422" lon="-121.444"><name>Location 64</name></wpt>
  <wpt lat="37.422" lon="-121.434"><name>Location 65</name></wpt>
  <wpt lat="37.422" lon="-121.424"><name>Location 66</name></wpt>
  <wpt lat="37.422" lon="-121.414"><name>Location 67</name></wpt>
  <wpt lat="37.422" lon="-121.404"><name>Location 68</name></wpt>
  <wpt lat="37.422" lon="-121.394"><name>Location 69</name></wpt>
  <wpt lat="37.422" lon="-121.384"><name>Location 70</name></wpt>
  <wpt lat="37.422" lon="-121.37400000000001"><name>Location 71</name></wpt>
  <wpt lat="37.422" lon="-121.364"><name>Location 72</name></wpt>
  <wpt lat="37.422" lon="-121.354"><name>Location 73</name></wpt>
  <wpt lat="37.422" lon="-121.34400000000001"><name>Location 74</name></wpt>
  <wpt lat="37.422" lon="-121.334"><name>Location 75</name></wpt>
  <wpt lat="37.422" lon="-121.324"><name>Location 76</name></wpt>
  <wpt lat="37.422" lon="-121.31400000000001"><name>Location 77</name></wpt>
  <wpt lat="37.422" lon="-121.304"><name>Location 78</name></wpt>
  <wpt lat="37.422" lon="-121.294"><name>Location 79</name></wpt>
  <wpt lat="37.422" lon="-121.284"><name>Location 80</name></wpt>
  <wpt lat="37.422" lon="-121.274"><name>Location 81</name></wpt>
  <wpt lat="37.422" lon="-121.26400000000001"><name>Location 82</name></wpt>
  <wpt lat="37.422" lon="-121.254"><name>Location 83</name></wpt>
  <wpt lat="37.422" lon="-121.244"><name>Location 84</name></wpt>
  <wpt lat="37.422" lon="-121.23400000000001"><name>Location 85</name></wpt>
  <wpt lat="37.422" lon="-121.224"><name>Location 86</name></wpt>
  <wpt lat="37.422" lon="-121.214"><name>Location 87</name></wpt>
  <wpt lat="37.422" lon="-121.20400000000001"><name>Location 88</name></wpt>
  <wpt lat="37.422" lon="-121.194"><name>Location 89</name></wpt>
  <wpt lat="37.422" lon="-121.184"><name>Location 90</name></wpt>
  <wpt lat="37.422" lon="-121.174"><name>Location 91</name></wpt>
  <wpt lat="37.422" lon="-121.164"><name>Location 92</name></wpt>
  <wpt lat="37.422" lon="-121.154"><name>Location 93</name></wpt>
  <wpt lat="37.422" lon="-121.144"><name>Location 94</name></wpt>
  <wpt lat="37.422" lon="-121.134"><name>Location 95</name></wpt>
  <wpt lat="37.422" lon="-121.12400000000001"><name>Location 96</name></wpt>
  <wpt lat="37.422" lon="-121.114"><name>Location 97</name></wpt>
  <wpt lat="37.422" lon="-121.104"><name>Location 98</name></wpt>
  <wpt lat="37.422" lon="-121.09400000000001"><name>Location 99</name></wpt>
  <wpt lat="37.431999999999995" lon="-122.084"><name>Location 100</name></wpt>
  <wpt lat="37.431999999999995" lon="-122.074"><name>Location 101</name></wpt>
  <wpt lat="37.431999999999995" lon="-122.06400000000001"><name>Location 102</name></wpt>
  <wpt lat="37.431999999999995" lon="-122.054"><name>Location 103</name></wpt>
  <wpt lat="37.431999999999995" lon="-122.044"><name>Location 104</name></wpt>
  <wpt lat="37.431999999999995" lon="-122.034"><name>Location 105</name></wpt>
  <wpt lat="37.431999999999995" lon="-122.024"><name>Location 106</name></wpt>
  <wpt lat="37.431999999999995" lon="-122.01400000000001"><name>Location 107</name></wpt>
  <wpt lat="37.431999999999995" lon="-122.004"><name>Location 108</name></wpt>
  <wpt lat="37.431999999999995" lon="-121.994"><name>Location 109</name></wpt>
  <wpt lat="37.431999999999995" lon="-121.98400000000001"><name>Location 110</name></wpt>
  <wpt lat="37.431999999999995" lon="-121.974"><name>Location 111</name></wpt>
  <wpt lat="37.431999999999995" lon="-121.964"><name>Location 112</name></wpt>
  <wpt lat="37.431999999999995" lon="-121.95400000000001"><name>Location 113</name></wpt>
  <wpt lat="37.431999999999995" lon="-121.944"><name>Location 114</name></wpt>
  <wpt lat="37.431999999999995" lon="-121.934"><name>Location 115</name></wpt>
  <wpt lat="37.431999999999995" lon="-121.924"><name>Location 116</name></wpt>
  <wpt lat="37.431999999999995" lon="-121.914"><name>Location 117</name></wpt>
  <wpt lat="37.431999999999995" lon="-121.904"><name>Location 118</name></wpt>
  <wpt lat="37.431999999999995" lon="-121.894"><name>Location 119</name></wpt>
  <wpt lat="37.431999999999995" lon="-121.884"><name>Location 120</name></wpt>
  <wpt lat="37.431999999999995" lon="-121.87400000000001"><name>Location 121</name></wpt>
  <wpt lat="37.431999999999995" lon="-121.864"><name>Location 122</name></wpt>
  <wpt lat="37.431999999999995" lon="-121.854"><name>Location 123</name></wpt>
  <wpt lat="37.431999999999995" lon="-121.84400000000001"><name>Location 124</name></wpt>
  <wpt lat="37.431999999999995" lon="-121.834"><name>Location 125</name></wpt>
  <wpt lat="37.431999999999995" lon="-121.824"><name>Location 126</name></wpt>
  <wpt lat="37.431999999999995" lon="-121.81400000000001"><name>Location 127</name></wpt>
  <wpt lat="37.431999999999995" lon="-121.804"><name>Location 128</name></wpt>
  <wpt lat="37.431999999999995" lon="-121.794"><name>Location 129</name></wpt>
  <wpt lat="37.431999999999995" lon="-121.784"><name>Location 130</name></wpt>
  <wpt lat="37.431999999999995" lon="-121.774"><name>Location 131</name></wpt>
  <wpt lat="37.431999999999995" lon="-121.76400000000001"><name>Location 132</name></wpt>
  <wpt lat="37.431999999999995" lon="-121.754"><name>Location 133</name></wpt>
  <wpt lat="37.431999999999995" lon="-121.744"><name>Location 134</name></wpt>
  <wpt lat="37.431999999999995" lon="-121.73400000000001"><name>Location 135</name></wpt>
  <wpt lat="37.431999999999995" lon="-121.724"><name>Location 136</name></wpt>
  <wpt lat="37.431999999999995" lon="-121.714"><name>Location 137</name></wpt>
  <wpt lat="37.431999999999995" lon="-121.70400000000001"><name>Location 138</name></wpt>
  <wpt lat="37.431999999999995" lon="-121.694"><name>Location 139</name></wpt>
  <wpt lat="37.431999999999995" lon="-121.684"><name>Location 140</name></wpt>
  <wpt lat="37.431999999999995" lon="-121.674"><name>Location 141</name></wpt>
  <wpt lat="37.431999999999995" lon="-121.664"><name>Location 142</name></wpt>
  <wpt lat="37.431999999999995" lon="-121.654"><name>Location 143</name></wpt>
  <wpt lat="37.431999999999995" lon="-121.644"><name>Location 144</name></wpt>
  <wpt lat="37.431999999999995" lon="-121.634"><name>Location 145</name></wpt>
  <wpt lat="37.431999999999995" lon="-121.62400000000001"><name>Location 146</name></wpt>
  <wpt lat="37.431999999999995" lon="-121.614"><name>Location 147</name></wpt>
  <wpt lat="37.431999999999995" lon="-121.604"><name>Location 148</name></wpt>
  <wpt lat="37.431999999999995" lon="-121.59400000000001"><name>Location 149</name></wpt>
  <wpt lat="37.431999999999995" lon="-121.584"><name>Location 150</name></wpt>
  <wpt lat="37.431999999999995" lon="-121.574"><name>Location 151</name></wpt>
  <wpt lat="37.431999999999995" lon="-121.56400000000001"><name>Location 152</name></wpt>
  <wpt lat="37.431999999999995" lon="-121.554"><name>Location 153</name></wpt>
  <wpt lat="37.431999999999995" lon="-121.544"><name>Location 154</name></wpt>
  <wpt lat="37.431999999999995" lon="-121.534"><name>Location 155</name></wpt>
  <wpt lat="37.431999999999995" lon="-121.524"><name>Location 156</name></wpt>
  <wpt lat="37.431999999999995" lon="-121.51400000000001"><name>Location 157</name></wpt>
  <wpt lat="37.431999999999995" lon="-121.504"><name>Location 158</name></wpt>
  <wpt lat="37.431999999999995" lon="-121.494"><name>Location 159</name></wpt>
  <wpt lat="37.431999999999995" lon="-121.48400000000001"><name>Location 160</name></wpt>
  <wpt lat="37.431999999999995" lon="-121.474"><name>Location 161</name></wpt>
  <wpt lat="37.431999999999995" lon="-121.464"><name>Location 162</name></wpt>
  <wpt lat="37.431999999999995" lon="-121.45400000000001"><name>Location 163</name></wpt>
  <wpt lat="37.431999999999995" lon="-121.444"><name>Location 164</name></wpt>
  <wpt lat="37.431999999999995" lon="-121.434"><name>Location 165</name></wpt>
  <wpt lat="37.431999999999995" lon="-121.424"><name>Location 166</name></wpt>
  <wpt lat="37.431999999999995" lon="-121.414"><name>Location 167</name></wpt>
  <wpt lat="37.431999999999995" lon="-121.404"><name>Location 168</name></wpt>
  <wpt lat="37.431999999999995" lon="-121.394"><name>Location 169</name></wpt>
  <wpt lat="37.431999999999995" lon="-121.384"><name>Location 170</name></wpt>
  <wpt lat="37.431999999999995" lon="-121.37400000000001"><name>Location 171</name></wpt>
  <wpt lat="37.431999999999995" lon="-121.364"><name>Location 172</name></wpt>
  <wpt lat="37.431999999999995" lon="-121.354"><name>Location 173</name></wpt>
  <wpt lat="37.431999999999995" lon="-121.34400000000001"><name>Location 174</name></wpt>
  <wpt lat="37.431999999999995" lon="-121.334"><name>Location 175</name></wpt>
  <wpt lat="37.431999999999995" lon="-121.324"><name>Location 176</name></wpt>
  <wpt lat="37.431999999999995" lon="-121.31400000000001"><name>Location 177</name></wpt>
  <wpt lat="37.431999999999995" lon="-121.304"><name>Location 178</name></wpt>
  <wpt lat="37.431999999999995" lon="-121.294"><name>Location 179</name></wpt>
  <wpt lat="37.431999999999995" lon="-121.284"><name>Location 180</name></wpt>
  <wpt lat="37.431999999999995" lon="-121.274"><name>Location 181</name></wpt>
  <wpt lat="37.431999999999995" lon="-121.26400000000001"><name>Location 182</name></wpt>
  <wpt lat="37.431999999999995" lon="-121.254"><name>Location 183</name></wpt>
  <wpt lat="37.431999999999995" lon="-121.244"><name>Location 184</name></wpt>
  <wpt lat="37.431999999999995" lon="-121.23400000000001"><name>Location 185</name></wpt>
  <wpt lat="37.431999999999995" lon="-121.224"><name>Location 186</name></wpt>
  <wpt lat="37.431999999999995" lon="-121.214"><name>Location 187</name></wpt>
  <wpt lat="37.431999999999995" lon="-121.20400000000001"><name>Location 188</name></wpt>
  <wpt lat="37.431999999999995" lon="-121.194"><name>Location 189</name></wpt>
  <wpt lat="37.431999999999995" lon="-121.184"><name>Location 190</name></wpt>
  <wpt lat="37.431999999999995" lon="-121.174"><name>Location 191</name></wpt>
  <wpt lat="37.431999999999995" lon="-121.164"><name>Location 192</name></wpt>
  <wpt lat="37.431999999999995" lon="-121.154"><name>Location 193</name></wpt>
  <wpt lat="37.431999999999995" lon="-121.144"><name>Location 194</name></wpt>
  <wpt lat="37.431999999999995" lon="-121.134"><name>Location 195</name></wpt>
  <wpt lat="37.431999999999995" lon="-121.12400000000001"><name>Location 196</name></wpt>
  <wpt lat="37.431999999999995" lon="-121.114"><name>Location 197</name></wpt>
  <wpt lat="37.431999999999995" lon="-121.104"><name>Location 198</name></wpt>
  <wpt lat="37.431999999999995" lon="-121.09400000000001"><name>Location 199</name></wpt>
  <wpt lat="37.442" lon="-122.084"><name>Location 200</name></wpt>
  <wpt lat="37.442" lon="-122.074"><name>Location 201</name></wpt>
  <wpt lat="37.442" lon="-122.06400000000001"><name>Location 202</name></wpt>
  <wpt lat="37.442" lon="-122.054"><name>Location 203</name></wpt>
  <wpt lat="37.442" lon="-122.044"><name>Location 204</name></wpt>
  <wpt lat="37.442" lon="-122.034"><name>Location 205</name></wpt>
  <wpt lat="37.442" lon="-122.024"><name>Location 206</name></wpt>
  <wpt lat="37.442" lon="-122.01400000000001"><name>Location 207</name></wpt>
  <wpt lat="37.442" lon="-122.004"><name>Location 208</name></wpt>
  <wpt lat="37.442" lon="-121.994"><name>Location 209</name></wpt>
  <wpt lat="37.442" lon="-121.98400000000001"><name>Location 210</name></wpt>
  <wpt lat="37.442" lon="-121.974"><name>Location 211</name></wpt>
  <wpt lat="37.442" lon="-121.964"><name>Location 212</name></wpt>
  <wpt lat="37.442" lon="-121.95400000000001"><name>Location 213</name></wpt>
  <wpt lat="37.442" lon="-121.944"><name>Location 214</name></wpt>
  <wpt lat="37.442" lon="-121.934"><name>Location 215</name></wpt>
  <wpt lat="37.442" lon="-121.924"><name>Location 216</name></wpt>
  <wpt lat="37.442" lon="-121.914"><name>Location 217</name></wpt>
  <wpt lat="37.442" lon="-121.904"><name>Location 218</name></wpt>
  <wpt lat="37.442" lon="-121.894"><name>Location 219</name></wpt>
  <wpt lat="37.442" lon="-121.884"><name>Location 220</name></wpt>
  <wpt lat="37.442" lon="-121.87400000000001"><name>Location 221</name></wpt>
  <wpt lat="37.442" lon="-121.864"><name>Location 222</name></wpt>
  <wpt lat="37.442" lon="-121.854"><name>Location 223</name></wpt>
  <wpt lat="37.442" lon="-121.84400000000001"><name>Location 224</name></wpt>
  <wpt lat="37.442" lon="-121.834"><name>Location 225</name></wpt>
  <wpt lat="37.442" lon="-121.824"><name>Location 226</name></wpt>
  <wpt lat="37.442" lon="-121.81400000000001"><name>Location 227</name></wpt>
  <wpt lat="37.442" lon="-121.804"><name>Location 228</name></wpt>
  <wpt lat="37.442" lon="-121.794"><name>Location 229</name></wpt>
  <wpt lat="37.442" lon="-121.784"><name>Location 230</name></wpt>
  <wpt lat="37.442" lon="-121.774"><name>Location 231</name></wpt>
  <wpt lat="37.442" lon="-121.76400000000001"><name>Location 232</name></wpt>
  <wpt lat="37.442" lon="-121.754"><name>Location 233</name></wpt>
  <wpt lat="37.442" lon="-121.744"><name>Location 234</name></wpt>
  <wpt lat="37.442" lon="-121.73400000000001"><name>Location 235</name></wpt>
  <wpt lat="37.442" lon="-121.724"><name>Location 236</name></wpt>
  <wpt lat="37.442" lon="-121.714"><name>Location 237</name></wpt>
  <wpt lat="37.442" lon="-121.70400000000001"><name>Location 238</name></wpt>
  <wpt lat="37.442" lon="-121.694"><name>Location 239</name></wpt>
  <wpt lat="37.442" lon="-121.684"><name>Location 240</name></wpt>
  <wpt lat="37.442" lon="-121.674"><name>Location 241</name></wpt>
  <wpt lat="37.442" lon="-121.664"><name>Location 242</name></wpt>
  <wpt lat="37.442" lon="-121.654"><name>Location 243</name></wpt>
  <wpt lat="37.442" lon="-121.644"><name>Location 244</name></wpt>
  <wpt lat="37.442" lon="-121.634"><name>Location 245</name></wpt>
  <wpt lat="37.442" lon="-121.62400000000001"><name>Location 246</name></wpt>
  <wpt lat="37.442" lon="-121.614"><name>Location 247</name></wpt>
  <wpt lat="37.442" lon="-121.604"><name>Location 248</name></wpt>
  <wpt lat="37.442" lon="-121.59400000000001"><name>Location 249</name></wpt>
</gpx>
