<?xml version="1.0" encoding="UTF-8"?>
<gpx version="1.1" creator="GetSampleData.com" xmlns="http://www.topografix.com/GPX/1/1">
  <wpt lat="37.422" lon="-122.084"><name>Location 0</name></wpt>
  <wpt lat="37.422" lon="-122.074"><name>Location 1</name></wpt>
  <wpt lat="37.422" lon="-122.06400000000001"><name>Location 2</name></wpt>
  <wpt lat="37.422" lon="-122.054"><name>Location 3</name></wpt>
  <wpt lat="37.422" lon="-122.044"><name>Location 4</name></wpt>
  <wpt lat="37.422" lon="-122.034"><name>Location 5</name></wpt>
  <wpt lat="37.422" lon="-122.024"><name>Location 6</name></wpt>
  <wpt lat="37.422" lon="-122.01400000000001"><name>Location 7</name></wpt>
  <wpt lat="37.422" lon="-122.004"><name>Location 8</name></wpt>
  <wpt lat="37.422" lon="-121.994"><name>Location 9</name></wpt>
  <wpt lat="37.422" lon="-121.98400000000001"><name>Location 10</name></wpt>
  <wpt lat="37.422" lon="-121.974"><name>Location 11</name></wpt>
  <wpt lat="37.422" lon="-121.964"><name>Location 12</name></wpt>
  <wpt lat="37.422" lon="-121.95400000000001"><name>Location 13</name></wpt>
  <wpt lat="37.422" lon="-121.944"><name>Location 14</name></wpt>
  <wpt lat="37.422" lon="-121.934"><name>Location 15</name></wpt>
  <wpt lat="37.422" lon="-121.924"><name>Location 16</name></wpt>
  <wpt lat="37.422" lon="-121.914"><name>Location 17</name></wpt>
  <wpt lat="37.422" lon="-121.904"><name>Location 18</name></wpt>
  <wpt lat="37.422" lon="-121.894"><name>Location 19</name></wpt>
  <wpt lat="37.422" lon="-121.884"><name>Location 20</name></wpt>
  <wpt lat="37.422" lon="-121.87400000000001"><name>Location 21</name></wpt>
  <wpt lat="37.422" lon="-121.864"><name>Location 22</name></wpt>
  <wpt lat="37.422" lon="-121.854"><name>Location 23</name></wpt>
  <wpt lat="37.422" lon="-121.84400000000001"><name>Location 24</name></wpt>
  <wpt lat="37.422" lon="-121.834"><name>Location 25</name></wpt>
  <wpt lat="37.422" lon="-121.824"><name>Location 26</name></wpt>
  <wpt lat="37.422" lon="-121.81400000000001"><name>Location 27</name></wpt>
  <wpt lat="37.422" lon="-121.804"><name>Location 28</name></wpt>
  <wpt lat="37.422" lon="-121.794"><name>Location 29</name></wpt>
  <wpt lat="37.422" lon="-121.784"><name>Location 30</name></wpt>
  <wpt lat="37.422" lon="-121.774"><name>Location 31</name></wpt>
  <wpt lat="37.422" lon="-121.76400000000001"><name>Location 32</name></wpt>
  <wpt lat="37.422" lon="-121.754"><name>Location 33</name></wpt>
  <wpt lat="37.422" lon="-121.744"><name>Location 34</name></wpt>
  <wpt lat="37.422" lon="-121.73400000000001"><name>Location 35</name></wpt>
  <wpt lat="37.422" lon="-121.724"><name>Location 36</name></wpt>
  <wpt lat="37.422" lon="-121.714"><name>Location 37</name></wpt>
  <wpt lat="37.422" lon="-121.70400000000001"><name>Location 38</name></wpt>
  <wpt lat="37.422" lon="-121.694"><name>Location 39</name></wpt>
  <wpt lat="37.422" lon="-121.684"><name>Location 40</name></wpt>
  <wpt lat="37.422" lon="-121.674"><name>Location 41</name></wpt>
  <wpt lat="37.422" lon="-121.664"><name>Location 42</name></wpt>
  <wpt lat="37.422" lon="-121.654"><name>Location 43</name></wpt>
  <wpt lat="37.422" lon="-121.644"><name>Location 44</name></wpt>
  <wpt lat="37.422" lon="-121.634"><name>Location 45</name></wpt>
  <wpt lat="37.422" lon="-121.62400000000001"><name>Location 46</name></wpt>
  <wpt lat="37.422" lon="-121.614"><name>Location 47</name></wpt>
  <wpt lat="37.422" lon="-121.604"><name>Location 48</name></wpt>
  <wpt lat="37.422" lon="-121.59400000000001"><name>Location 49</name></wpt>
  <wpt lat="37.422" lon="-121.584"><name>Location 50</name></wpt>
  <wpt lat="37.422" lon="-121.574"><name>Location 51</name></wpt>
  <wpt lat="37.422" lon="-121.56400000000001"><name>Location 52</name></wpt>
  <wpt lat="37.422" lon="-121.554"><name>Location 53</name></wpt>
  <wpt lat="37.422" lon="-121.544"><name>Location 54</name></wpt>
  <wpt lat="37.422" lon="-121.534"><name>Location 55</name></wpt>
  <wpt lat="37.422" lon="-121.524"><name>Location 56</name></wpt>
  <wpt lat="37.422" lon="-121.51400000000001"><name>Location 57</name></wpt>
  <wpt lat="37.422" lon="-121.504"><name>Location 58</name></wpt>
  <wpt lat="37.422" lon="-121.494"><name>Location 59</name></wpt>
  <wpt lat="37.422" lon="-121.48400000000001"><name>Location 60</name></wpt>
  <wpt lat="37.422" lon="-121.474"><name>Location 61</name></wpt>
  <wpt lat="37.422" lon="-121.464"><name>Location 62</name></wpt>
  <wpt lat="37.422" lon="-121.45400000000001"><name>Location 63</name></wpt>
  <wpt lat="37.422" lon="-121.444"><name>Location 64</name></wpt>
  <wpt lat="37.422" lon="-121.434"><name>Location 65</name></wpt>
  <wpt lat="37.422" lon="-121.424"><name>Location 66</name></wpt>
  <wpt lat="37.422" lon="-121.414"><name>Location 67</name></wpt>
  <wpt lat="37.422" lon="-121.404"><name>Location 68</name></wpt>
  <wpt lat="37.422" lon="-121.394"><name>Location 69</name></wpt>
  <wpt lat="37.422" lon="-121.384"><name>Location 70</name></wpt>
  <wpt lat="37.422" lon="-121.37400000000001"><name>Location 71</name></wpt>
  <wpt lat="37.422" lon="-121.364"><name>Location 72</name></wpt>
  <wpt lat="37.422" lon="-121.354"><name>Location 73</name></wpt>
  <wpt lat="37.422" lon="-121.34400000000001"><name>Location 74</name></wpt>
  <wpt lat="37.422" lon="-121.334"><name>Location 75</name></wpt>
  <wpt lat="37.422" lon="-121.324"><name>Location 76</name></wpt>
  <wpt lat="37.422" lon="-121.31400000000001"><name>Location 77</name></wpt>
  <wpt lat="37.422" lon="-121.304"><name>Location 78</name></wpt>
  <wpt lat="37.422" lon="-121.294"><name>Location 79</name></wpt>
  <wpt lat="37.422" lon="-121.284"><name>Location 80</name></wpt>
  <wpt lat="37.422" lon="-121.274"><name>Location 81</name></wpt>
  <wpt lat="37.422" lon="-121.26400000000001"><name>Location 82</name></wpt>
  <wpt lat="37.422" lon="-121.254"><name>Location 83</name></wpt>
  <wpt lat="37.422" lon="-121.244"><name>Location 84</name></wpt>
  <wpt lat="37.422" lon="-121.23400000000001"><name>Location 85</name></wpt>
  <wpt lat="37.422" lon="-121.224"><name>Location 86</name></wpt>
  <wpt lat="37.422" lon="-121.214"><name>Location 87</name></wpt>
  <wpt lat="37.422" lon="-121.20400000000001"><name>Location 88</name></wpt>
  <wpt lat="37.422" lon="-121.194"><name>Location 89</name></wpt>
  <wpt lat="37.422" lon="-121.184"><name>Location 90</name></wpt>
  <wpt lat="37.422" lon="-121.174"><name>Location 91</name></wpt>
  <wpt lat="37.422" lon="-121.164"><name>Location 92</name></wpt>
  <wpt lat="37.422" lon="-121.154"><name>Location 93</name></wpt>
  <wpt lat="37.422" lon="-121.144"><name>Location 94</name></wpt>
  <wpt lat="37.422" lon="-121.134"><name>Location 95</name></wpt>
  <wpt lat="37.422" lon="-121.12400000000001"><name>Location 96</name></wpt>
  <wpt lat="37.422" lon="-121.114"><name>Location 97</name></wpt>
  <wpt lat="37.422" lon="-121.104"><name>Location 98</name></wpt>
  <wpt lat="37.422" lon="-121.09400000000001"><name>Location 99</name></wpt>
  <wpt lat="37.431999999999995" lon="-122.084"><name>Location 100</name></wpt>
  <wpt lat="37.431999999999995" lon="-122.074"><name>Location 101</name></wpt>
  <wpt lat="37.431999999999995" lon="-122.06400000000001"><name>Location 102</name></wpt>
  <wpt lat="37.431999999999995" lon="-122.054"><name>Location 103</name></wpt>
  <wpt lat="37.431999999999995" lon="-122.044"><name>Location 104</name></wpt>
  <wpt lat="37.431999999999995" lon="-122.034"><name>Location 105</name></wpt>
  <wpt lat="37.431999999999995" lon="-122.024"><name>Location 106</name></wpt>
  <wpt lat="37.431999999999995" lon="-122.01400000000001"><name>Location 107</name></wpt>
  <wpt lat="37.431999999999995" lon="-122.004"><name>Location 108</name></wpt>
  <wpt lat="37.431999999999995" lon="-121.994"><name>Location 109</name></wpt>
  <wpt lat="37.431999999999995" lon="-121.98400000000001"><name>Location 110</name></wpt>
  <wpt lat="37.431999999999995" lon="-121.974"><name>Location 111</name></wpt>
  <wpt lat="37.431999999999995" lon="-121.964"><name>Location 112</name></wpt>
  <wpt lat="37.431999999999995" lon="-121.95400000000001"><name>Location 113</name></wpt>
  <wpt lat="37.431999999999995" lon="-121.944"><name>Location 114</name></wpt>
  <wpt lat="37.431999999999995" lon="-121.934"><name>Location 115</name></wpt>
  <wpt lat="37.431999999999995" lon="-121.924"><name>Location 116</name></wpt>
  <wpt lat="37.431999999999995" lon="-121.914"><name>Location 117</name></wpt>
  <wpt lat="37.431999999999995" lon="-121.904"><name>Location 118</name></wpt>
  <wpt lat="37.431999999999995" lon="-121.894"><name>Location 119</name></wpt>
  <wpt lat="37.431999999999995" lon="-121.884"><name>Location 120</name></wpt>
  <wpt lat="37.431999999999995" lon="-121.87400000000001"><name>Location 121</name></wpt>
  <wpt lat="37.431999999999995" lon="-121.864"><name>Location 122</name></wpt>
  <wpt lat="37.431999999999995" lon="-121.854"><name>Location 123</name></wpt>
  <wpt lat="37.431999999999995" lon="-121.84400000000001"><name>Location 124</name></wpt>
  <wpt lat="37.431999999999995" lon="-121.834"><name>Location 125</name></wpt>
  <wpt lat="37.431999999999995" lon="-121.824"><name>Location 126</name></wpt>
  <wpt lat="37.431999999999995" lon="-121.81400000000001"><name>Location 127</name></wpt>
  <wpt lat="37.431999999999995" lon="-121.804"><name>Location 128</name></wpt>
  <wpt lat="37.431999999999995" lon="-121.794"><name>Location 129</name></wpt>
  <wpt lat="37.431999999999995" lon="-121.784"><name>Location 130</name></wpt>
  <wpt lat="37.431999999999995" lon="-121.774"><name>Location 131</name></wpt>
  <wpt lat="37.431999999999995" lon="-121.76400000000001"><name>Location 132</name></wpt>
  <wpt lat="37.431999999999995" lon="-121.754"><name>Location 133</name></wpt>
  <wpt lat="37.431999999999995" lon="-121.744"><name>Location 134</name></wpt>
  <wpt lat="37.431999999999995" lon="-121.73400000000001"><name>Location 135</name></wpt>
  <wpt lat="37.431999999999995" lon="-121.724"><name>Location 136</name></wpt>
  <wpt lat="37.431999999999995" lon="-121.714"><name>Location 137</name></wpt>
  <wpt lat="37.431999999999995" lon="-121.70400000000001"><name>Location 138</name></wpt>
  <wpt lat="37.431999999999995" lon="-121.694"><name>Location 139</name></wpt>
  <wpt lat="37.431999999999995" lon="-121.684"><name>Location 140</name></wpt>
  <wpt lat="37.431999999999995" lon="-121.674"><name>Location 141</name></wpt>
  <wpt lat="37.431999999999995" lon="-121.664"><name>Location 142</name></wpt>
  <wpt lat="37.431999999999995" lon="-121.654"><name>Location 143</name></wpt>
  <wpt lat="37.431999999999995" lon="-121.644"><name>Location 144</name></wpt>
  <wpt lat="37.431999999999995" lon="-121.634"><name>Location 145</name></wpt>
  <wpt lat="37.431999999999995" lon="-121.62400000000001"><name>Location 146</name></wpt>
  <wpt lat="37.431999999999995" lon="-121.614"><name>Location 147</name></wpt>
  <wpt lat="37.431999999999995" lon="-121.604"><name>Location 148</name></wpt>
  <wpt lat="37.431999999999995" lon="-121.59400000000001"><name>Location 149</name></wpt>
  <wpt lat="37.431999999999995" lon="-121.584"><name>Location 150</name></wpt>
  <wpt lat="37.431999999999995" lon="-121.574"><name>Location 151</name></wpt>
  <wpt lat="37.431999999999995" lon="-121.56400000000001"><name>Location 152</name></wpt>
  <wpt lat="37.431999999999995" lon="-121.554"><name>Location 153</name></wpt>
  <wpt lat="37.431999999999995" lon="-121.544"><name>Location 154</name></wpt>
  <wpt lat="37.431999999999995" lon="-121.534"><name>Location 155</name></wpt>
  <wpt lat="37.431999999999995" lon="-121.524"><name>Location 156</name></wpt>
  <wpt lat="37.431999999999995" lon="-121.51400000000001"><name>Location 157</name></wpt>
  <wpt lat="37.431999999999995" lon="-121.504"><name>Location 158</name></wpt>
  <wpt lat="37.431999999999995" lon="-121.494"><name>Location 159</name></wpt>
  <wpt lat="37.431999999999995" lon="-121.48400000000001"><name>Location 160</name></wpt>
  <wpt lat="37.431999999999995" lon="-121.474"><name>Location 161</name></wpt>
  <wpt lat="37.431999999999995" lon="-121.464"><name>Location 162</name></wpt>
  <wpt lat="37.431999999999995" lon="-121.45400000000001"><name>Location 163</name></wpt>
  <wpt lat="37.431999999999995" lon="-121.444"><name>Location 164</name></wpt>
  <wpt lat="37.431999999999995" lon="-121.434"><name>Location 165</name></wpt>
  <wpt lat="37.431999999999995" lon="-121.424"><name>Location 166</name></wpt>
  <wpt lat="37.431999999999995" lon="-121.414"><name>Location 167</name></wpt>
  <wpt lat="37.431999999999995" lon="-121.404"><name>Location 168</name></wpt>
  <wpt lat="37.431999999999995" lon="-121.394"><name>Location 169</name></wpt>
  <wpt lat="37.431999999999995" lon="-121.384"><name>Location 170</name></wpt>
  <wpt lat="37.431999999999995" lon="-121.37400000000001"><name>Location 171</name></wpt>
  <wpt lat="37.431999999999995" lon="-121.364"><name>Location 172</name></wpt>
  <wpt lat="37.431999999999995" lon="-121.354"><name>Location 173</name></wpt>
  <wpt lat="37.431999999999995" lon="-121.34400000000001"><name>Location 174</name></wpt>
  <wpt lat="37.431999999999995" lon="-121.334"><name>Location 175</name></wpt>
  <wpt lat="37.431999999999995" lon="-121.324"><name>Location 176</name></wpt>
  <wpt lat="37.431999999999995" lon="-121.31400000000001"><name>Location 177</name></wpt>
  <wpt lat="37.431999999999995" lon="-121.304"><name>Location 178</name></wpt>
  <wpt lat="37.431999999999995" lon="-121.294"><name>Location 179</name></wpt>
  <wpt lat="37.431999999999995" lon="-121.284"><name>Location 180</name></wpt>
  <wpt lat="37.431999999999995" lon="-121.274"><name>Location 181</name></wpt>
  <wpt lat="37.431999999999995" lon="-121.26400000000001"><name>Location 182</name></wpt>
  <wpt lat="37.431999999999995" lon="-121.254"><name>Location 183</name></wpt>
  <wpt lat="37.431999999999995" lon="-121.244"><name>Location 184</name></wpt>
  <wpt lat="37.431999999999995" lon="-121.23400000000001"><name>Location 185</name></wpt>
  <wpt lat="37.431999999999995" lon="-121.224"><name>Location 186</name></wpt>
  <wpt lat="37.431999999999995" lon="-121.214"><name>Location 187</name></wpt>
  <wpt lat="37.431999999999995" lon="-121.20400000000001"><name>Location 188</name></wpt>
  <wpt lat="37.431999999999995" lon="-121.194"><name>Location 189</name></wpt>
  <wpt lat="37.431999999999995" lon="-121.184"><name>Location 190</name></wpt>
  <wpt lat="37.431999999999995" lon="-121.174"><name>Location 191</name></wpt>
  <wpt lat="37.431999999999995" lon="-121.164"><name>Location 192</name></wpt>
  <wpt lat="37.431999999999995" lon="-121.154"><name>Location 193</name></wpt>
  <wpt lat="37.431999999999995" lon="-121.144"><name>Location 194</name></wpt>
  <wpt lat="37.431999999999995" lon="-121.134"><name>Location 195</name></wpt>
  <wpt lat="37.431999999999995" lon="-121.12400000000001"><name>Location 196</name></wpt>
  <wpt lat="37.431999999999995" lon="-121.114"><name>Location 197</name></wpt>
  <wpt lat="37.431999999999995" lon="-121.104"><name>Location 198</name></wpt>
  <wpt lat="37.431999999999995" lon="-121.09400000000001"><name>Location 199</name></wpt>
  <wpt lat="37.442" lon="-122.084"><name>Location 200</name></wpt>
  <wpt lat="37.442" lon="-122.074"><name>Location 201</name></wpt>
  <wpt lat="37.442" lon="-122.06400000000001"><name>Location 202</name></wpt>
  <wpt lat="37.442" lon="-122.054"><name>Location 203</name></wpt>
  <wpt lat="37.442" lon="-122.044"><name>Location 204</name></wpt>
  <wpt lat="37.442" lon="-122.034"><name>Location 205</name></wpt>
  <wpt lat="37.442" lon="-122.024"><name>Location 206</name></wpt>
  <wpt lat="37.442" lon="-122.01400000000001"><name>Location 207</name></wpt>
  <wpt lat="37.442" lon="-122.004"><name>Location 208</name></wpt>
  <wpt lat="37.442" lon="-121.994"><name>Location 209</name></wpt>
  <wpt lat="37.442" lon="-121.98400000000001"><name>Location 210</name></wpt>
  <wpt lat="37.442" lon="-121.974"><name>Location 211</name></wpt>
  <wpt lat="37.442" lon="-121.964"><name>Location 212</name></wpt>
  <wpt lat="37.442" lon="-121.95400000000001"><name>Location 213</name></wpt>
  <wpt lat="37.442" lon="-121.944"><name>Location 214</name></wpt>
  <wpt lat="37.442" lon="-121.934"><name>Location 215</name></wpt>
  <wpt lat="37.442" lon="-121.924"><name>Location 216</name></wpt>
  <wpt lat="37.442" lon="-121.914"><name>Location 217</name></wpt>
  <wpt lat="37.442" lon="-121.904"><name>Location 218</name></wpt>
  <wpt lat="37.442" lon="-121.894"><name>Location 219</name></wpt>
  <wpt lat="37.442" lon="-121.884"><name>Location 220</name></wpt>
  <wpt lat="37.442" lon="-121.87400000000001"><name>Location 221</name></wpt>
  <wpt lat="37.442" lon="-121.864"><name>Location 222</name></wpt>
  <wpt lat="37.442" lon="-121.854"><name>Location 223</name></wpt>
  <wpt lat="37.442" lon="-121.84400000000001"><name>Location 224</name></wpt>
  <wpt lat="37.442" lon="-121.834"><name>Location 225</name></wpt>
  <wpt lat="37.442" lon="-121.824"><name>Location 226</name></wpt>
  <wpt lat="37.442" lon="-121.81400000000001"><name>Location 227</name></wpt>
  <wpt lat="37.442" lon="-121.804"><name>Location 228</name></wpt>
  <wpt lat="37.442" lon="-121.794"><name>Location 229</name></wpt>
  <wpt lat="37.442" lon="-121.784"><name>Location 230</name></wpt>
  <wpt lat="37.442" lon="-121.774"><name>Location 231</name></wpt>
  <wpt lat="37.442" lon="-121.76400000000001"><name>Location 232</name></wpt>
  <wpt lat="37.442" lon="-121.754"><name>Location 233</name></wpt>
  <wpt lat="37.442" lon="-121.744"><name>Location 234</name></wpt>
  <wpt lat="37.442" lon="-121.73400000000001"><name>Location 235</name></wpt>
  <wpt lat="37.442" lon="-121.724"><name>Location 236</name></wpt>
  <wpt lat="37.442" lon="-121.714"><name>Location 237</name></wpt>
  <wpt lat="37.442" lon="-121.70400000000001"><name>Location 238</name></wpt>
  <wpt lat="37.442" lon="-121.694"><name>Location 239</name></wpt>
  <wpt lat="37.442" lon="-121.684"><name>Location 240</name></wpt>
  <wpt lat="37.442" lon="-121.674"><name>Location 241</name></wpt>
  <wpt lat="37.442" lon="-121.664"><name>Location 242</name></wpt>
  <wpt lat="37.442" lon="-121.654"><name>Location 243</name></wpt>
  <wpt lat="37.442" lon="-121.644"><name>Location 244</name></wpt>
  <wpt lat="37.442" lon="-121.634"><name>Location 245</name></wpt>
  <wpt lat="37.442" lon="-121.62400000000001"><name>Location 246</name></wpt>
  <wpt lat="37.442" lon="-121.614"><name>Location 247</name></wpt>
  <wpt lat="37.442" lon="-121.604"><name>Location 248</name></wpt>
  <wpt lat="37.442" lon="-121.59400000000001"><name>Location 249</name></wpt>
  <wpt lat="37.442" lon="-121.584"><name>Location 250</name></wpt>
  <wpt lat="37.442" lon="-121.574"><name>Location 251</name></wpt>
  <wpt lat="37.442" lon="-121.56400000000001"><name>Location 252</name></wpt>
  <wpt lat="37.442" lon="-121.554"><name>Location 253</name></wpt>
  <wpt lat="37.442" lon="-121.544"><name>Location 254</name></wpt>
  <wpt lat="37.442" lon="-121.534"><name>Location 255</name></wpt>
  <wpt lat="37.442" lon="-121.524"><name>Location 256</name></wpt>
  <wpt lat="37.442" lon="-121.51400000000001"><name>Location 257</name></wpt>
  <wpt lat="37.442" lon="-121.504"><name>Location 258</name></wpt>
  <wpt lat="37.442" lon="-121.494"><name>Location 259</name></wpt>
  <wpt lat="37.442" lon="-121.48400000000001"><name>Location 260</name></wpt>
  <wpt lat="37.442" lon="-121.474"><name>Location 261</name></wpt>
  <wpt lat="37.442" lon="-121.464"><name>Location 262</name></wpt>
  <wpt lat="37.442" lon="-121.45400000000001"><name>Location 263</name></wpt>
  <wpt lat="37.442" lon="-121.444"><name>Location 264</name></wpt>
  <wpt lat="37.442" lon="-121.434"><name>Location 265</name></wpt>
  <wpt lat="37.442" lon="-121.424"><name>Location 266</name></wpt>
  <wpt lat="37.442" lon="-121.414"><name>Location 267</name></wpt>
  <wpt lat="37.442" lon="-121.404"><name>Location 268</name></wpt>
  <wpt lat="37.442" lon="-121.394"><name>Location 269</name></wpt>
  <wpt lat="37.442" lon="-121.384"><name>Location 270</name></wpt>
  <wpt lat="37.442" lon="-121.37400000000001"><name>Location 271</name></wpt>
  <wpt lat="37.442" lon="-121.364"><name>Location 272</name></wpt>
  <wpt lat="37.442" lon="-121.354"><name>Location 273</name></wpt>
  <wpt lat="37.442" lon="-121.34400000000001"><name>Location 274</name></wpt>
  <wpt lat="37.442" lon="-121.334"><name>Location 275</name></wpt>
  <wpt lat="37.442" lon="-121.324"><name>Location 276</name></wpt>
  <wpt lat="37.442" lon="-121.31400000000001"><name>Location 277</name></wpt>
  <wpt lat="37.442" lon="-121.304"><name>Location 278</name></wpt>
  <wpt lat="37.442" lon="-121.294"><name>Location 279</name></wpt>
  <wpt lat="37.442" lon="-121.284"><name>Location 280</name></wpt>
  <wpt lat="37.442" lon="-121.274"><name>Location 281</name></wpt>
  <wpt lat="37.442" lon="-121.26400000000001"><name>Location 282</name></wpt>
  <wpt lat="37.442" lon="-121.254"><name>Location 283</name></wpt>
  <wpt lat="37.442" lon="-121.244"><name>Location 284</name></wpt>
  <wpt lat="37.442" lon="-121.23400000000001"><name>Location 285</name></wpt>
  <wpt lat="37.442" lon="-121.224"><name>Location 286</name></wpt>
  <wpt lat="37.442" lon="-121.214"><name>Location 287</name></wpt>
  <wpt lat="37.442" lon="-121.20400000000001"><name>Location 288</name></wpt>
  <wpt lat="37.442" lon="-121.194"><name>Location 289</name></wpt>
  <wpt lat="37.442" lon="-121.184"><name>Location 290</name></wpt>
  <wpt lat="37.442" lon="-121.174"><name>Location 291</name></wpt>
  <wpt lat="37.442" lon="-121.164"><name>Location 292</name></wpt>
  <wpt lat="37.442" lon="-121.154"><name>Location 293</name></wpt>
  <wpt lat="37.442" lon="-121.144"><name>Location 294</name></wpt>
  <wpt lat="37.442" lon="-121.134"><name>Location 295</name></wpt>
  <wpt lat="37.442" lon="-121.12400000000001"><name>Location 296</name></wpt>
  <wpt lat="37.442" lon="-121.114"><name>Location 297</name></wpt>
  <wpt lat="37.442" lon="-121.104"><name>Location 298</name></wpt>
  <wpt lat="37.442" lon="-121.09400000000001"><name>Location 299</name></wpt>
  <wpt lat="37.452" lon="-122.084"><name>Location 300</name></wpt>
  <wpt lat="37.452" lon="-122.074"><name>Location 301</name></wpt>
  <wpt lat="37.452" lon="-122.06400000000001"><name>Location 302</name></wpt>
  <wpt lat="37.452" lon="-122.054"><name>Location 303</name></wpt>
  <wpt lat="37.452" lon="-122.044"><name>Location 304</name></wpt>
  <wpt lat="37.452" lon="-122.034"><name>Location 305</name></wpt>
  <wpt lat="37.452" lon="-122.024"><name>Location 306</name></wpt>
  <wpt lat="37.452" lon="-122.01400000000001"><name>Location 307</name></wpt>
  <wpt lat="37.452" lon="-122.004"><name>Location 308</name></wpt>
  <wpt lat="37.452" lon="-121.994"><name>Location 309</name></wpt>
  <wpt lat="37.452" lon="-121.98400000000001"><name>Location 310</name></wpt>
  <wpt lat="37.452" lon="-121.974"><name>Location 311</name></wpt>
  <wpt lat="37.452" lon="-121.964"><name>Location 312</name></wpt>
  <wpt lat="37.452" lon="-121.95400000000001"><name>Location 313</name></wpt>
  <wpt lat="37.452" lon="-121.944"><name>Location 314</name></wpt>
  <wpt lat="37.452" lon="-121.934"><name>Location 315</name></wpt>
  <wpt lat="37.452" lon="-121.924"><name>Location 316</name></wpt>
  <wpt lat="37.452" lon="-121.914"><name>Location 317</name></wpt>
  <wpt lat="37.452" lon="-121.904"><name>Location 318</name></wpt>
  <wpt lat="37.452" lon="-121.894"><name>Location 319</name></wpt>
  <wpt lat="37.452" lon="-121.884"><name>Location 320</name></wpt>
  <wpt lat="37.452" lon="-121.87400000000001"><name>Location 321</name></wpt>
  <wpt lat="37.452" lon="-121.864"><name>Location 322</name></wpt>
  <wpt lat="37.452" lon="-121.854"><name>Location 323</name></wpt>
  <wpt lat="37.452" lon="-121.84400000000001"><name>Location 324</name></wpt>
  <wpt lat="37.452" lon="-121.834"><name>Location 325</name></wpt>
  <wpt lat="37.452" lon="-121.824"><name>Location 326</name></wpt>
  <wpt lat="37.452" lon="-121.81400000000001"><name>Location 327</name></wpt>
  <wpt lat="37.452" lon="-121.804"><name>Location 328</name></wpt>
  <wpt lat="37.452" lon="-121.794"><name>Location 329</name></wpt>
  <wpt lat="37.452" lon="-121.784"><name>Location 330</name></wpt>
  <wpt lat="37.452" lon="-121.774"><name>Location 331</name></wpt>
  <wpt lat="37.452" lon="-121.76400000000001"><name>Location 332</name></wpt>
  <wpt lat="37.452" lon="-121.754"><name>Location 333</name></wpt>
  <wpt lat="37.452" lon="-121.744"><name>Location 334</name></wpt>
  <wpt lat="37.452" lon="-121.73400000000001"><name>Location 335</name></wpt>
  <wpt lat="37.452" lon="-121.724"><name>Location 336</name></wpt>
  <wpt lat="37.452" lon="-121.714"><name>Location 337</name></wpt>
  <wpt lat="37.452" lon="-121.70400000000001"><name>Location 338</name></wpt>
  <wpt lat="37.452" lon="-121.694"><name>Location 339</name></wpt>
  <wpt lat="37.452" lon="-121.684"><name>Location 340</name></wpt>
  <wpt lat="37.452" lon="-121.674"><name>Location 341</name></wpt>
  <wpt lat="37.452" lon="-121.664"><name>Location 342</name></wpt>
  <wpt lat="37.452" lon="-121.654"><name>Location 343</name></wpt>
  <wpt lat="37.452" lon="-121.644"><name>Location 344</name></wpt>
  <wpt lat="37.452" lon="-121.634"><name>Location 345</name></wpt>
  <wpt lat="37.452" lon="-121.62400000000001"><name>Location 346</name></wpt>
  <wpt lat="37.452" lon="-121.614"><name>Location 347</name></wpt>
  <wpt lat="37.452" lon="-121.604"><name>Location 348</name></wpt>
  <wpt lat="37.452" lon="-121.59400000000001"><name>Location 349</name></wpt>
  <wpt lat="37.452" lon="-121.584"><name>Location 350</name></wpt>
  <wpt lat="37.452" lon="-121.574"><name>Location 351</name></wpt>
  <wpt lat="37.452" lon="-121.56400000000001"><name>Location 352</name></wpt>
  <wpt lat="37.452" lon="-121.554"><name>Location 353</name></wpt>
  <wpt lat="37.452" lon="-121.544"><name>Location 354</name></wpt>
  <wpt lat="37.452" lon="-121.534"><name>Location 355</name></wpt>
  <wpt lat="37.452" lon="-121.524"><name>Location 356</name></wpt>
  <wpt lat="37.452" lon="-121.51400000000001"><name>Location 357</name></wpt>
  <wpt lat="37.452" lon="-121.504"><name>Location 358</name></wpt>
  <wpt lat="37.452" lon="-121.494"><name>Location 359</name></wpt>
  <wpt lat="37.452" lon="-121.48400000000001"><name>Location 360</name></wpt>
  <wpt lat="37.452" lon="-121.474"><name>Location 361</name></wpt>
  <wpt lat="37.452" lon="-121.464"><name>Location 362</name></wpt>
  <wpt lat="37.452" lon="-121.45400000000001"><name>Location 363</name></wpt>
  <wpt lat="37.452" lon="-121.444"><name>Location 364</name></wpt>
  <wpt lat="37.452" lon="-121.434"><name>Location 365</name></wpt>
  <wpt lat="37.452" lon="-121.424"><name>Location 366</name></wpt>
  <wpt lat="37.452" lon="-121.414"><name>Location 367</name></wpt>
  <wpt lat="37.452" lon="-121.404"><name>Location 368</name></wpt>
  <wpt lat="37.452" lon="-121.394"><name>Location 369</name></wpt>
  <wpt lat="37.452" lon="-121.384"><name>Location 370</name></wpt>
  <wpt lat="37.452" lon="-121.37400000000001"><name>Location 371</name></wpt>
  <wpt lat="37.452" lon="-121.364"><name>Location 372</name></wpt>
  <wpt lat="37.452" lon="-121.354"><name>Location 373</name></wpt>
  <wpt lat="37.452" lon="-121.34400000000001"><name>Location 374</name></wpt>
  <wpt lat="37.452" lon="-121.334"><name>Location 375</name></wpt>
  <wpt lat="37.452" lon="-121.324"><name>Location 376</name></wpt>
  <wpt lat="37.452" lon="-121.31400000000001"><name>Location 377</name></wpt>
  <wpt lat="37.452" lon="-121.304"><name>Location 378</name></wpt>
  <wpt lat="37.452" lon="-121.294"><name>Location 379</name></wpt>
  <wpt lat="37.452" lon="-121.284"><name>Location 380</name></wpt>
  <wpt lat="37.452" lon="-121.274"><name>Location 381</name></wpt>
  <wpt lat="37.452" lon="-121.26400000000001"><name>Location 382</name></wpt>
  <wpt lat="37.452" lon="-121.254"><name>Location 383</name></wpt>
  <wpt lat="37.452" lon="-121.244"><name>Location 384</name></wpt>
  <wpt lat="37.452" lon="-121.23400000000001"><name>Location 385</name></wpt>
  <wpt lat="37.452" lon="-121.224"><name>Location 386</name></wpt>
  <wpt lat="37.452" lon="-121.214"><name>Location 387</name></wpt>
  <wpt lat="37.452" lon="-121.20400000000001"><name>Location 388</name></wpt>
  <wpt lat="37.452" lon="-121.194"><name>Location 389</name></wpt>
  <wpt lat="37.452" lon="-121.184"><name>Location 390</name></wpt>
  <wpt lat="37.452" lon="-121.174"><name>Location 391</name></wpt>
  <wpt lat="37.452" lon="-121.164"><name>Location 392</name></wpt>
  <wpt lat="37.452" lon="-121.154"><name>Location 393</name></wpt>
  <wpt lat="37.452" lon="-121.144"><name>Location 394</name></wpt>
  <wpt lat="37.452" lon="-121.134"><name>Location 395</name></wpt>
  <wpt lat="37.452" lon="-121.12400000000001"><name>Location 396</name></wpt>
  <wpt lat="37.452" lon="-121.114"><name>Location 397</name></wpt>
  <wpt lat="37.452" lon="-121.104"><name>Location 398</name></wpt>
  <wpt lat="37.452" lon="-121.09400000000001"><name>Location 399</name></wpt>
  <wpt lat="37.461999999999996" lon="-122.084"><name>Location 400</name></wpt>
  <wpt lat="37.461999999999996" lon="-122.074"><name>Location 401</name></wpt>
  <wpt lat="37.461999999999996" lon="-122.06400000000001"><name>Location 402</name></wpt>
  <wpt lat="37.461999999999996" lon="-122.054"><name>Location 403</name></wpt>
  <wpt lat="37.461999999999996" lon="-122.044"><name>Location 404</name></wpt>
  <wpt lat="37.461999999999996" lon="-122.034"><name>Location 405</name></wpt>
  <wpt lat="37.461999999999996" lon="-122.024"><name>Location 406</name></wpt>
  <wpt lat="37.461999999999996" lon="-122.01400000000001"><name>Location 407</name></wpt>
  <wpt lat="37.461999999999996" lon="-122.004"><name>Location 408</name></wpt>
  <wpt lat="37.461999999999996" lon="-121.994"><name>Location 409</name></wpt>
  <wpt lat="37.461999999999996" lon="-121.98400000000001"><name>Location 410</name></wpt>
  <wpt lat="37.461999999999996" lon="-121.974"><name>Location 411</name></wpt>
  <wpt lat="37.461999999999996" lon="-121.964"><name>Location 412</name></wpt>
  <wpt lat="37.461999999999996" lon="-121.95400000000001"><name>Location 413</name></wpt>
  <wpt lat="37.461999999999996" lon="-121.944"><name>Location 414</name></wpt>
  <wpt lat="37.461999999999996" lon="-121.934"><name>Location 415</name></wpt>
  <wpt lat="37.461999999999996" lon="-121.924"><name>Location 416</name></wpt>
  <wpt lat="37.461999999999996" lon="-121.914"><name>Location 417</name></wpt>
  <wpt lat="37.461999999999996" lon="-121.904"><name>Location 418</name></wpt>
  <wpt lat="37.461999999999996" lon="-121.894"><name>Location 419</name></wpt>
  <wpt lat="37.461999999999996" lon="-121.884"><name>Location 420</name></wpt>
  <wpt lat="37.461999999999996" lon="-121.87400000000001"><name>Location 421</name></wpt>
  <wpt lat="37.461999999999996" lon="-121.864"><name>Location 422</name></wpt>
  <wpt lat="37.461999999999996" lon="-121.854"><name>Location 423</name></wpt>
  <wpt lat="37.461999999999996" lon="-121.84400000000001"><name>Location 424</name></wpt>
  <wpt lat="37.461999999999996" lon="-121.834"><name>Location 425</name></wpt>
  <wpt lat="37.461999999999996" lon="-121.824"><name>Location 426</name></wpt>
  <wpt lat="37.461999999999996" lon="-121.81400000000001"><name>Location 427</name></wpt>
  <wpt lat="37.461999999999996" lon="-121.804"><name>Location 428</name></wpt>
  <wpt lat="37.461999999999996" lon="-121.794"><name>Location 429</name></wpt>
  <wpt lat="37.461999999999996" lon="-121.784"><name>Location 430</name></wpt>
  <wpt lat="37.461999999999996" lon="-121.774"><name>Location 431</name></wpt>
  <wpt lat="37.461999999999996" lon="-121.76400000000001"><name>Location 432</name></wpt>
  <wpt lat="37.461999999999996" lon="-121.754"><name>Location 433</name></wpt>
  <wpt lat="37.461999999999996" lon="-121.744"><name>Location 434</name></wpt>
  <wpt lat="37.461999999999996" lon="-121.73400000000001"><name>Location 435</name></wpt>
  <wpt lat="37.461999999999996" lon="-121.724"><name>Location 436</name></wpt>
  <wpt lat="37.461999999999996" lon="-121.714"><name>Location 437</name></wpt>
  <wpt lat="37.461999999999996" lon="-121.70400000000001"><name>Location 438</name></wpt>
  <wpt lat="37.461999999999996" lon="-121.694"><name>Location 439</name></wpt>
  <wpt lat="37.461999999999996" lon="-121.684"><name>Location 440</name></wpt>
  <wpt lat="37.461999999999996" lon="-121.674"><name>Location 441</name></wpt>
  <wpt lat="37.461999999999996" lon="-121.664"><name>Location 442</name></wpt>
  <wpt lat="37.461999999999996" lon="-121.654"><name>Location 443</name></wpt>
  <wpt lat="37.461999999999996" lon="-121.644"><name>Location 444</name></wpt>
  <wpt lat="37.461999999999996" lon="-121.634"><name>Location 445</name></wpt>
  <wpt lat="37.461999999999996" lon="-121.62400000000001"><name>Location 446</name></wpt>
  <wpt lat="37.461999999999996" lon="-121.614"><name>Location 447</name></wpt>
  <wpt lat="37.461999999999996" lon="-121.604"><name>Location 448</name></wpt>
  <wpt lat="37.461999999999996" lon="-121.59400000000001"><name>Location 449</name></wpt>
  <wpt lat="37.461999999999996" lon="-121.584"><name>Location 450</name></wpt>
  <wpt lat="37.461999999999996" lon="-121.574"><name>Location 451</name></wpt>
  <wpt lat="37.461999999999996" lon="-121.56400000000001"><name>Location 452</name></wpt>
  <wpt lat="37.461999999999996" lon="-121.554"><name>Location 453</name></wpt>
  <wpt lat="37.461999999999996" lon="-121.544"><name>Location 454</name></wpt>
  <wpt lat="37.461999999999996" lon="-121.534"><name>Location 455</name></wpt>
  <wpt lat="37.461999999999996" lon="-121.524"><name>Location 456</name></wpt>
  <wpt lat="37.461999999999996" lon="-121.51400000000001"><name>Location 457</name></wpt>
  <wpt lat="37.461999999999996" lon="-121.504"><name>Location 458</name></wpt>
  <wpt lat="37.461999999999996" lon="-121.494"><name>Location 459</name></wpt>
  <wpt lat="37.461999999999996" lon="-121.48400000000001"><name>Location 460</name></wpt>
  <wpt lat="37.461999999999996" lon="-121.474"><name>Location 461</name></wpt>
  <wpt lat="37.461999999999996" lon="-121.464"><name>Location 462</name></wpt>
  <wpt lat="37.461999999999996" lon="-121.45400000000001"><name>Location 463</name></wpt>
  <wpt lat="37.461999999999996" lon="-121.444"><name>Location 464</name></wpt>
  <wpt lat="37.461999999999996" lon="-121.434"><name>Location 465</name></wpt>
  <wpt lat="37.461999999999996" lon="-121.424"><name>Location 466</name></wpt>
  <wpt lat="37.461999999999996" lon="-121.414"><name>Location 467</name></wpt>
  <wpt lat="37.461999999999996" lon="-121.404"><name>Location 468</name></wpt>
  <wpt lat="37.461999999999996" lon="-121.394"><name>Location 469</name></wpt>
  <wpt lat="37.461999999999996" lon="-121.384"><name>Location 470</name></wpt>
  <wpt lat="37.461999999999996" lon="-121.37400000000001"><name>Location 471</name></wpt>
  <wpt lat="37.461999999999996" lon="-121.364"><name>Location 472</name></wpt>
  <wpt lat="37.461999999999996" lon="-121.354"><name>Location 473</name></wpt>
  <wpt lat="37.461999999999996" lon="-121.34400000000001"><name>Location 474</name></wpt>
  <wpt lat="37.461999999999996" lon="-121.334"><name>Location 475</name></wpt>
  <wpt lat="37.461999999999996" lon="-121.324"><name>Location 476</name></wpt>
  <wpt lat="37.461999999999996" lon="-121.31400000000001"><name>Location 477</name></wpt>
  <wpt lat="37.461999999999996" lon="-121.304"><name>Location 478</name></wpt>
  <wpt lat="37.461999999999996" lon="-121.294"><name>Location 479</name></wpt>
  <wpt lat="37.461999999999996" lon="-121.284"><name>Location 480</name></wpt>
  <wpt lat="37.461999999999996" lon="-121.274"><name>Location 481</name></wpt>
  <wpt lat="37.461999999999996" lon="-121.26400000000001"><name>Location 482</name></wpt>
  <wpt lat="37.461999999999996" lon="-121.254"><name>Location 483</name></wpt>
  <wpt lat="37.461999999999996" lon="-121.244"><name>Location 484</name></wpt>
  <wpt lat="37.461999999999996" lon="-121.23400000000001"><name>Location 485</name></wpt>
  <wpt lat="37.461999999999996" lon="-121.224"><name>Location 486</name></wpt>
  <wpt lat="37.461999999999996" lon="-121.214"><name>Location 487</name></wpt>
  <wpt lat="37.461999999999996" lon="-121.20400000000001"><name>Location 488</name></wpt>
  <wpt lat="37.461999999999996" lon="-121.194"><name>Location 489</name></wpt>
  <wpt lat="37.461999999999996" lon="-121.184"><name>Location 490</name></wpt>
  <wpt lat="37.461999999999996" lon="-121.174"><name>Location 491</name></wpt>
  <wpt lat="37.461999999999996" lon="-121.164"><name>Location 492</name></wpt>
  <wpt lat="37.461999999999996" lon="-121.154"><name>Location 493</name></wpt>
  <wpt lat="37.461999999999996" lon="-121.144"><name>Location 494</name></wpt>
  <wpt lat="37.461999999999996" lon="-121.134"><name>Location 495</name></wpt>
  <wpt lat="37.461999999999996" lon="-121.12400000000001"><name>Location 496</name></wpt>
  <wpt lat="37.461999999999996" lon="-121.114"><name>Location 497</name></wpt>
  <wpt lat="37.461999999999996" lon="-121.104"><name>Location 498</name></wpt>
  <wpt lat="37.461999999999996" lon="-121.09400000000001"><name>Location 499</name></wpt>
  <wpt lat="37.471999999999994" lon="-122.084"><name>Location 500</name></wpt>
  <wpt lat="37.471999999999994" lon="-122.074"><name>Location 501</name></wpt>
  <wpt lat="37.471999999999994" lon="-122.06400000000001"><name>Location 502</name></wpt>
  <wpt lat="37.471999999999994" lon="-122.054"><name>Location 503</name></wpt>
  <wpt lat="37.471999999999994" lon="-122.044"><name>Location 504</name></wpt>
  <wpt lat="37.471999999999994" lon="-122.034"><name>Location 505</name></wpt>
  <wpt lat="37.471999999999994" lon="-122.024"><name>Location 506</name></wpt>
  <wpt lat="37.471999999999994" lon="-122.01400000000001"><name>Location 507</name></wpt>
  <wpt lat="37.471999999999994" lon="-122.004"><name>Location 508</name></wpt>
  <wpt lat="37.471999999999994" lon="-121.994"><name>Location 509</name></wpt>
  <wpt lat="37.471999999999994" lon="-121.98400000000001"><name>Location 510</name></wpt>
  <wpt lat="37.471999999999994" lon="-121.974"><name>Location 511</name></wpt>
  <wpt lat="37.471999999999994" lon="-121.964"><name>Location 512</name></wpt>
  <wpt lat="37.471999999999994" lon="-121.95400000000001"><name>Location 513</name></wpt>
  <wpt lat="37.471999999999994" lon="-121.944"><name>Location 514</name></wpt>
  <wpt lat="37.471999999999994" lon="-121.934"><name>Location 515</name></wpt>
  <wpt lat="37.471999999999994" lon="-121.924"><name>Location 516</name></wpt>
  <wpt lat="37.471999999999994" lon="-121.914"><name>Location 517</name></wpt>
  <wpt lat="37.471999999999994" lon="-121.904"><name>Location 518</name></wpt>
  <wpt lat="37.471999999999994" lon="-121.894"><name>Location 519</name></wpt>
  <wpt lat="37.471999999999994" lon="-121.884"><name>Location 520</name></wpt>
  <wpt lat="37.471999999999994" lon="-121.87400000000001"><name>Location 521</name></wpt>
  <wpt lat="37.471999999999994" lon="-121.864"><name>Location 522</name></wpt>
  <wpt lat="37.471999999999994" lon="-121.854"><name>Location 523</name></wpt>
  <wpt lat="37.471999999999994" lon="-121.84400000000001"><name>Location 524</name></wpt>
  <wpt lat="37.471999999999994" lon="-121.834"><name>Location 525</name></wpt>
  <wpt lat="37.471999999999994" lon="-121.824"><name>Location 526</name></wpt>
  <wpt lat="37.471999999999994" lon="-121.81400000000001"><name>Location 527</name></wpt>
  <wpt lat="37.471999999999994" lon="-121.804"><name>Location 528</name></wpt>
  <wpt lat="37.471999999999994" lon="-121.794"><name>Location 529</name></wpt>
  <wpt lat="37.471999999999994" lon="-121.784"><name>Location 530</name></wpt>
  <wpt lat="37.471999999999994" lon="-121.774"><name>Location 531</name></wpt>
  <wpt lat="37.471999999999994" lon="-121.76400000000001"><name>Location 532</name></wpt>
  <wpt lat="37.471999999999994" lon="-121.754"><name>Location 533</name></wpt>
  <wpt lat="37.471999999999994" lon="-121.744"><name>Location 534</name></wpt>
  <wpt lat="37.471999999999994" lon="-121.73400000000001"><name>Location 535</name></wpt>
  <wpt lat="37.471999999999994" lon="-121.724"><name>Location 536</name></wpt>
  <wpt lat="37.471999999999994" lon="-121.714"><name>Location 537</name></wpt>
  <wpt lat="37.471999999999994" lon="-121.70400000000001"><name>Location 538</name></wpt>
  <wpt lat="37.471999999999994" lon="-121.694"><name>Location 539</name></wpt>
  <wpt lat="37.471999999999994" lon="-121.684"><name>Location 540</name></wpt>
  <wpt lat="37.471999999999994" lon="-121.674"><name>Location 541</name></wpt>
  <wpt lat="37.471999999999994" lon="-121.664"><name>Location 542</name></wpt>
  <wpt lat="37.471999999999994" lon="-121.654"><name>Location 543</name></wpt>
  <wpt lat="37.471999999999994" lon="-121.644"><name>Location 544</name></wpt>
  <wpt lat="37.471999999999994" lon="-121.634"><name>Location 545</name></wpt>
  <wpt lat="37.471999999999994" lon="-121.62400000000001"><name>Location 546</name></wpt>
  <wpt lat="37.471999999999994" lon="-121.614"><name>Location 547</name></wpt>
  <wpt lat="37.471999999999994" lon="-121.604"><name>Location 548</name></wpt>
  <wpt lat="37.471999999999994" lon="-121.59400000000001"><name>Location 549</name></wpt>
  <wpt lat="37.471999999999994" lon="-121.584"><name>Location 550</name></wpt>
  <wpt lat="37.471999999999994" lon="-121.574"><name>Location 551</name></wpt>
  <wpt lat="37.471999999999994" lon="-121.56400000000001"><name>Location 552</name></wpt>
  <wpt lat="37.471999999999994" lon="-121.554"><name>Location 553</name></wpt>
  <wpt lat="37.471999999999994" lon="-121.544"><name>Location 554</name></wpt>
  <wpt lat="37.471999999999994" lon="-121.534"><name>Location 555</name></wpt>
  <wpt lat="37.471999999999994" lon="-121.524"><name>Location 556</name></wpt>
  <wpt lat="37.471999999999994" lon="-121.51400000000001"><name>Location 557</name></wpt>
  <wpt lat="37.471999999999994" lon="-121.504"><name>Location 558</name></wpt>
  <wpt lat="37.471999999999994" lon="-121.494"><name>Location 559</name></wpt>
  <wpt lat="37.471999999999994" lon="-121.48400000000001"><name>Location 560</name></wpt>
  <wpt lat="37.471999999999994" lon="-121.474"><name>Location 561</name></wpt>
  <wpt lat="37.471999999999994" lon="-121.464"><name>Location 562</name></wpt>
  <wpt lat="37.471999999999994" lon="-121.45400000000001"><name>Location 563</name></wpt>
  <wpt lat="37.471999999999994" lon="-121.444"><name>Location 564</name></wpt>
  <wpt lat="37.471999999999994" lon="-121.434"><name>Location 565</name></wpt>
  <wpt lat="37.471999999999994" lon="-121.424"><name>Location 566</name></wpt>
  <wpt lat="37.471999999999994" lon="-121.414"><name>Location 567</name></wpt>
  <wpt lat="37.471999999999994" lon="-121.404"><name>Location 568</name></wpt>
  <wpt lat="37.471999999999994" lon="-121.394"><name>Location 569</name></wpt>
  <wpt lat="37.471999999999994" lon="-121.384"><name>Location 570</name></wpt>
  <wpt lat="37.471999999999994" lon="-121.37400000000001"><name>Location 571</name></wpt>
  <wpt lat="37.471999999999994" lon="-121.364"><name>Location 572</name></wpt>
  <wpt lat="37.471999999999994" lon="-121.354"><name>Location 573</name></wpt>
  <wpt lat="37.471999999999994" lon="-121.34400000000001"><name>Location 574</name></wpt>
  <wpt lat="37.471999999999994" lon="-121.334"><name>Location 575</name></wpt>
  <wpt lat="37.471999999999994" lon="-121.324"><name>Location 576</name></wpt>
  <wpt lat="37.471999999999994" lon="-121.31400000000001"><name>Location 577</name></wpt>
  <wpt lat="37.471999999999994" lon="-121.304"><name>Location 578</name></wpt>
  <wpt lat="37.471999999999994" lon="-121.294"><name>Location 579</name></wpt>
  <wpt lat="37.471999999999994" lon="-121.284"><name>Location 580</name></wpt>
  <wpt lat="37.471999999999994" lon="-121.274"><name>Location 581</name></wpt>
  <wpt lat="37.471999999999994" lon="-121.26400000000001"><name>Location 582</name></wpt>
  <wpt lat="37.471999999999994" lon="-121.254"><name>Location 583</name></wpt>
  <wpt lat="37.471999999999994" lon="-121.244"><name>Location 584</name></wpt>
  <wpt lat="37.471999999999994" lon="-121.23400000000001"><name>Location 585</name></wpt>
  <wpt lat="37.471999999999994" lon="-121.224"><name>Location 586</name></wpt>
  <wpt lat="37.471999999999994" lon="-121.214"><name>Location 587</name></wpt>
  <wpt lat="37.471999999999994" lon="-121.20400000000001"><name>Location 588</name></wpt>
  <wpt lat="37.471999999999994" lon="-121.194"><name>Location 589</name></wpt>
  <wpt lat="37.471999999999994" lon="-121.184"><name>Location 590</name></wpt>
  <wpt lat="37.471999999999994" lon="-121.174"><name>Location 591</name></wpt>
  <wpt lat="37.471999999999994" lon="-121.164"><name>Location 592</name></wpt>
  <wpt lat="37.471999999999994" lon="-121.154"><name>Location 593</name></wpt>
  <wpt lat="37.471999999999994" lon="-121.144"><name>Location 594</name></wpt>
  <wpt lat="37.471999999999994" lon="-121.134"><name>Location 595</name></wpt>
  <wpt lat="37.471999999999994" lon="-121.12400000000001"><name>Location 596</name></wpt>
  <wpt lat="37.471999999999994" lon="-121.114"><name>Location 597</name></wpt>
  <wpt lat="37.471999999999994" lon="-121.104"><name>Location 598</name></wpt>
  <wpt lat="37.471999999999994" lon="-121.09400000000001"><name>Location 599</name></wpt>
</gpx>
