<?xml version="1.0" encoding="UTF-8"?>
<kml xmlns="http://www.opengis.net/kml/2.2">
  <Document>
    <name>Sample Placemarks</name>
    <Placemark><name>Location 0</name><Point><coordinates>-122.084,37.422,0</coordinates></Point></Placemark>
    <Placemark><name>Location 1</name><Point><coordinates>-122.074,37.422,0</coordinates></Point></Placemark>
    <Placemark><name>Location 2</name><Point><coordinates>-122.06400000000001,37.422,0</coordinates></Point></Placemark>
    <Placemark><name>Location 3</name><Point><coordinates>-122.054,37.422,0</coordinates></Point></Placemark>
    <Placemark><name>Location 4</name><Point><coordinates>-122.044,37.422,0</coordinates></Point></Placemark>
    <Placemark><name>Location 5</name><Point><coordinates>-122.034,37.422,0</coordinates></Point></Placemark>
    <Placemark><name>Location 6</name><Point><coordinates>-122.024,37.422,0</coordinates></Point></Placemark>
    <Placemark><name>Location 7</name><Point><coordinates>-122.01400000000001,37.422,0</coordinates></Point></Placemark>
    <Placemark><name>Location 8</name><Point><coordinates>-122.004,37.422,0</coordinates></Point></Placemark>
    <Placemark><name>Location 9</name><Point><coordinates>-121.994,37.422,0</coordinates></Point></Placemark>
    <Placemark><name>Location 10</name><Point><coordinates>-121.98400000000001,37.422,0</coordinates></Point></Placemark>
    <Placemark><name>Location 11</name><Point><coordinates>-121.974,37.422,0</coordinates></Point></Placemark>
    <Placemark><name>Location 12</name><Point><coordinates>-121.964,37.422,0</coordinates></Point></Placemark>
    <Placemark><name>Location 13</name><Point><coordinates>-121.95400000000001,37.422,0</coordinates></Point></Placemark>
    <Placemark><name>Location 14</name><Point><coordinates>-121.944,37.422,0</coordinates></Point></Placemark>
  </Document>
</kml>
