<?xml version="1.0" encoding="UTF-8"?>
<kml xmlns="http://www.opengis.net/kml/2.2">
  <Document>
    <name>Sample Placemarks</name>
    <Placemark><name>Location 0</name><Point><coordinates>-122.084,37.422,0</coordinates></Point></Placemark>
    <Placemark><name>Location 1</name><Point><coordinates>-122.074,37.422,0</coordinates></Point></Placemark>
    <Placemark><name>Location 2</name><Point><coordinates>-122.06400000000001,37.422,0</coordinates></Point></Placemark>
    <Placemark><name>Location 3</name><Point><coordinates>-122.054,37.422,0</coordinates></Point></Placemark>
    <Placemark><name>Location 4</name><Point><coordinates>-122.044,37.422,0</coordinates></Point></Placemark>
    <Placemark><name>Location 5</name><Point><coordinates>-122.034,37.422,0</coordinates></Point></Placemark>
    <Placemark><name>Location 6</name><Point><coordinates>-122.024,37.422,0</coordinates></Point></Placemark>
    <Placemark><name>Location 7</name><Point><coordinates>-122.01400000000001,37.422,0</coordinates></Point></Placemark>
    <Placemark><name>Location 8</name><Point><coordinates>-122.004,37.422,0</coordinates></Point></Placemark>
    <Placemark><name>Location 9</name><Point><coordinates>-121.994,37.422,0</coordinates></Point></Placemark>
    <Placemark><name>Location 10</name><Point><coordinates>-121.98400000000001,37.422,0</coordinates></Point></Placemark>
    <Placemark><name>Location 11</name><Point><coordinates>-121.974,37.422,0</coordinates></Point></Placemark>
    <Placemark><name>Location 12</name><Point><coordinates>-121.964,37.422,0</coordinates></Point></Placemark>
    <Placemark><name>Location 13</name><Point><coordinates>-121.95400000000001,37.422,0</coordinates></Point></Placemark>
    <Placemark><name>Location 14</name><Point><coordinates>-121.944,37.422,0</coordinates></Point></Placemark>
    <Placemark><name>Location 15</name><Point><coordinates>-121.934,37.422,0</coordinates></Point></Placemark>
    <Placemark><name>Location 16</name><Point><coordinates>-121.924,37.422,0</coordinates></Point></Placemark>
    <Placemark><name>Location 17</name><Point><coordinates>-121.914,37.422,0</coordinates></Point></Placemark>
    <Placemark><name>Location 18</name><Point><coordinates>-121.904,37.422,0</coordinates></Point></Placemark>
    <Placemark><name>Location 19</name><Point><coordinates>-121.894,37.422,0</coordinates></Point></Placemark>
    <Placemark><name>Location 20</name><Point><coordinates>-121.884,37.422,0</coordinates></Point></Placemark>
    <Placemark><name>Location 21</name><Point><coordinates>-121.87400000000001,37.422,0</coordinates></Point></Placemark>
    <Placemark><name>Location 22</name><Point><coordinates>-121.864,37.422,0</coordinates></Point></Placemark>
    <Placemark><name>Location 23</name><Point><coordinates>-121.854,37.422,0</coordinates></Point></Placemark>
    <Placemark><name>Location 24</name><Point><coordinates>-121.84400000000001,37.422,0</coordinates></Point></Placemark>
    <Placemark><name>Location 25</name><Point><coordinates>-121.834,37.422,0</coordinates></Point></Placemark>
    <Placemark><name>Location 26</name><Point><coordinates>-121.824,37.422,0</coordinates></Point></Placemark>
    <Placemark><name>Location 27</name><Point><coordinates>-121.81400000000001,37.422,0</coordinates></Point></Placemark>
    <Placemark><name>Location 28</name><Point><coordinates>-121.804,37.422,0</coordinates></Point></Placemark>
    <Placemark><name>Location 29</name><Point><coordinates>-121.794,37.422,0</coordinates></Point></Placemark>
    <Placemark><name>Location 30</name><Point><coordinates>-121.784,37.422,0</coordinates></Point></Placemark>
    <Placemark><name>Location 31</name><Point><coordinates>-121.774,37.422,0</coordinates></Point></Placemark>
    <Placemark><name>Location 32</name><Point><coordinates>-121.76400000000001,37.422,0</coordinates></Point></Placemark>
    <Placemark><name>Location 33</name><Point><coordinates>-121.754,37.422,0</coordinates></Point></Placemark>
    <Placemark><name>Location 34</name><Point><coordinates>-121.744,37.422,0</coordinates></Point></Placemark>
    <Placemark><name>Location 35</name><Point><coordinates>-121.73400000000001,37.422,0</coordinates></Point></Placemark>
    <Placemark><name>Location 36</name><Point><coordinates>-121.724,37.422,0</coordinates></Point></Placemark>
    <Placemark><name>Location 37</name><Point><coordinates>-121.714,37.422,0</coordinates></Point></Placemark>
    <Placemark><name>Location 38</name><Point><coordinates>-121.70400000000001,37.422,0</coordinates></Point></Placemark>
    <Placemark><name>Location 39</name><Point><coordinates>-121.694,37.422,0</coordinates></Point></Placemark>
    <Placemark><name>Location 40</name><Point><coordinates>-121.684,37.422,0</coordinates></Point></Placemark>
    <Placemark><name>Location 41</name><Point><coordinates>-121.674,37.422,0</coordinates></Point></Placemark>
    <Placemark><name>Location 42</name><Point><coordinates>-121.664,37.422,0</coordinates></Point></Placemark>
    <Placemark><name>Location 43</name><Point><coordinates>-121.654,37.422,0</coordinates></Point></Placemark>
    <Placemark><name>Location 44</name><Point><coordinates>-121.644,37.422,0</coordinates></Point></Placemark>
    <Placemark><name>Location 45</name><Point><coordinates>-121.634,37.422,0</coordinates></Point></Placemark>
    <Placemark><name>Location 46</name><Point><coordinates>-121.62400000000001,37.422,0</coordinates></Point></Placemark>
    <Placemark><name>Location 47</name><Point><coordinates>-121.614,37.422,0</coordinates></Point></Placemark>
    <Placemark><name>Location 48</name><Point><coordinates>-121.604,37.422,0</coordinates></Point></Placemark>
    <Placemark><name>Location 49</name><Point><coordinates>-121.59400000000001,37.422,0</coordinates></Point></Placemark>
    <Placemark><name>Location 50</name><Point><coordinates>-121.584,37.422,0</coordinates></Point></Placemark>
    <Placemark><name>Location 51</name><Point><coordinates>-121.574,37.422,0</coordinates></Point></Placemark>
    <Placemark><name>Location 52</name><Point><coordinates>-121.56400000000001,37.422,0</coordinates></Point></Placemark>
    <Placemark><name>Location 53</name><Point><coordinates>-121.554,37.422,0</coordinates></Point></Placemark>
    <Placemark><name>Location 54</name><Point><coordinates>-121.544,37.422,0</coordinates></Point></Placemark>
    <Placemark><name>Location 55</name><Point><coordinates>-121.534,37.422,0</coordinates></Point></Placemark>
    <Placemark><name>Location 56</name><Point><coordinates>-121.524,37.422,0</coordinates></Point></Placemark>
    <Placemark><name>Location 57</name><Point><coordinates>-121.51400000000001,37.422,0</coordinates></Point></Placemark>
    <Placemark><name>Location 58</name><Point><coordinates>-121.504,37.422,0</coordinates></Point></Placemark>
    <Placemark><name>Location 59</name><Point><coordinates>-121.494,37.422,0</coordinates></Point></Placemark>
    <Placemark><name>Location 60</name><Point><coordinates>-121.48400000000001,37.422,0</coordinates></Point></Placemark>
    <Placemark><name>Location 61</name><Point><coordinates>-121.474,37.422,0</coordinates></Point></Placemark>
    <Placemark><name>Location 62</name><Point><coordinates>-121.464,37.422,0</coordinates></Point></Placemark>
    <Placemark><name>Location 63</name><Point><coordinates>-121.45400000000001,37.422,0</coordinates></Point></Placemark>
    <Placemark><name>Location 64</name><Point><coordinates>-121.444,37.422,0</coordinates></Point></Placemark>
    <Placemark><name>Location 65</name><Point><coordinates>-121.434,37.422,0</coordinates></Point></Placemark>
    <Placemark><name>Location 66</name><Point><coordinates>-121.424,37.422,0</coordinates></Point></Placemark>
    <Placemark><name>Location 67</name><Point><coordinates>-121.414,37.422,0</coordinates></Point></Placemark>
    <Placemark><name>Location 68</name><Point><coordinates>-121.404,37.422,0</coordinates></Point></Placemark>
    <Placemark><name>Location 69</name><Point><coordinates>-121.394,37.422,0</coordinates></Point></Placemark>
    <Placemark><name>Location 70</name><Point><coordinates>-121.384,37.422,0</coordinates></Point></Placemark>
    <Placemark><name>Location 71</name><Point><coordinates>-121.37400000000001,37.422,0</coordinates></Point></Placemark>
    <Placemark><name>Location 72</name><Point><coordinates>-121.364,37.422,0</coordinates></Point></Placemark>
    <Placemark><name>Location 73</name><Point><coordinates>-121.354,37.422,0</coordinates></Point></Placemark>
    <Placemark><name>Location 74</name><Point><coordinates>-121.34400000000001,37.422,0</coordinates></Point></Placemark>
    <Placemark><name>Location 75</name><Point><coordinates>-121.334,37.422,0</coordinates></Point></Placemark>
    <Placemark><name>Location 76</name><Point><coordinates>-121.324,37.422,0</coordinates></Point></Placemark>
    <Placemark><name>Location 77</name><Point><coordinates>-121.31400000000001,37.422,0</coordinates></Point></Placemark>
    <Placemark><name>Location 78</name><Point><coordinates>-121.304,37.422,0</coordinates></Point></Placemark>
    <Placemark><name>Location 79</name><Point><coordinates>-121.294,37.422,0</coordinates></Point></Placemark>
    <Placemark><name>Location 80</name><Point><coordinates>-121.284,37.422,0</coordinates></Point></Placemark>
    <Placemark><name>Location 81</name><Point><coordinates>-121.274,37.422,0</coordinates></Point></Placemark>
    <Placemark><name>Location 82</name><Point><coordinates>-121.26400000000001,37.422,0</coordinates></Point></Placemark>
    <Placemark><name>Location 83</name><Point><coordinates>-121.254,37.422,0</coordinates></Point></Placemark>
    <Placemark><name>Location 84</name><Point><coordinates>-121.244,37.422,0</coordinates></Point></Placemark>
    <Placemark><name>Location 85</name><Point><coordinates>-121.23400000000001,37.422,0</coordinates></Point></Placemark>
    <Placemark><name>Location 86</name><Point><coordinates>-121.224,37.422,0</coordinates></Point></Placemark>
    <Placemark><name>Location 87</name><Point><coordinates>-121.214,37.422,0</coordinates></Point></Placemark>
    <Placemark><name>Location 88</name><Point><coordinates>-121.20400000000001,37.422,0</coordinates></Point></Placemark>
    <Placemark><name>Location 89</name><Point><coordinates>-121.194,37.422,0</coordinates></Point></Placemark>
    <Placemark><name>Location 90</name><Point><coordinates>-121.184,37.422,0</coordinates></Point></Placemark>
    <Placemark><name>Location 91</name><Point><coordinates>-121.174,37.422,0</coordinates></Point></Placemark>
    <Placemark><name>Location 92</name><Point><coordinates>-121.164,37.422,0</coordinates></Point></Placemark>
    <Placemark><name>Location 93</name><Point><coordinates>-121.154,37.422,0</coordinates></Point></Placemark>
    <Placemark><name>Location 94</name><Point><coordinates>-121.144,37.422,0</coordinates></Point></Placemark>
    <Placemark><name>Location 95</name><Point><coordinates>-121.134,37.422,0</coordinates></Point></Placemark>
    <Placemark><name>Location 96</name><Point><coordinates>-121.12400000000001,37.422,0</coordinates></Point></Placemark>
    <Placemark><name>Location 97</name><Point><coordinates>-121.114,37.422,0</coordinates></Point></Placemark>
    <Placemark><name>Location 98</name><Point><coordinates>-121.104,37.422,0</coordinates></Point></Placemark>
    <Placemark><name>Location 99</name><Point><coordinates>-121.09400000000001,37.422,0</coordinates></Point></Placemark>
  </Document>
</kml>
