<?xml version="1.0" encoding="UTF-8"?>
<kml xmlns="http://www.opengis.net/kml/2.2">
  <Document>
    <name>Sample Placemarks</name>
    <Placemark><name>Location 0</name><Point><coordinates>-122.084,37.422,0</coordinates></Point></Placemark>
    <Placemark><name>Location 1</name><Point><coordinates>-122.074,37.422,0</coordinates></Point></Placemark>
    <Placemark><name>Location 2</name><Point><coordinates>-122.06400000000001,37.422,0</coordinates></Point></Placemark>
    <Placemark><name>Location 3</name><Point><coordinates>-122.054,37.422,0</coordinates></Point></Placemark>
    <Placemark><name>Location 4</name><Point><coordinates>-122.044,37.422,0</coordinates></Point></Placemark>
    <Placemark><name>Location 5</name><Point><coordinates>-122.034,37.422,0</coordinates></Point></Placemark>
    <Placemark><name>Location 6</name><Point><coordinates>-122.024,37.422,0</coordinates></Point></Placemark>
    <Placemark><name>Location 7</name><Point><coordinates>-122.01400000000001,37.422,0</coordinates></Point></Placemark>
    <Placemark><name>Location 8</name><Point><coordinates>-122.004,37.422,0</coordinates></Point></Placemark>
    <Placemark><name>Location 9</name><Point><coordinates>-121.994,37.422,0</coordinates></Point></Placemark>
    <Placemark><name>Location 10</name><Point><coordinates>-121.98400000000001,37.422,0</coordinates></Point></Placemark>
    <Placemark><name>Location 11</name><Point><coordinates>-121.974,37.422,0</coordinates></Point></Placemark>
    <Placemark><name>Location 12</name><Point><coordinates>-121.964,37.422,0</coordinates></Point></Placemark>
    <Placemark><name>Location 13</name><Point><coordinates>-121.95400000000001,37.422,0</coordinates></Point></Placemark>
    <Placemark><name>Location 14</name><Point><coordinates>-121.944,37.422,0</coordinates></Point></Placemark>
    <Placemark><name>Location 15</name><Point><coordinates>-121.934,37.422,0</coordinates></Point></Placemark>
    <Placemark><name>Location 16</name><Point><coordinates>-121.924,37.422,0</coordinates></Point></Placemark>
    <Placemark><name>Location 17</name><Point><coordinates>-121.914,37.422,0</coordinates></Point></Placemark>
    <Placemark><name>Location 18</name><Point><coordinates>-121.904,37.422,0</coordinates></Point></Placemark>
    <Placemark><name>Location 19</name><Point><coordinates>-121.894,37.422,0</coordinates></Point></Placemark>
    <Placemark><name>Location 20</name><Point><coordinates>-121.884,37.422,0</coordinates></Point></Placemark>
    <Placemark><name>Location 21</name><Point><coordinates>-121.87400000000001,37.422,0</coordinates></Point></Placemark>
    <Placemark><name>Location 22</name><Point><coordinates>-121.864,37.422,0</coordinates></Point></Placemark>
    <Placemark><name>Location 23</name><Point><coordinates>-121.854,37.422,0</coordinates></Point></Placemark>
    <Placemark><name>Location 24</name><Point><coordinates>-121.84400000000001,37.422,0</coordinates></Point></Placemark>
    <Placemark><name>Location 25</name><Point><coordinates>-121.834,37.422,0</coordinates></Point></Placemark>
    <Placemark><name>Location 26</name><Point><coordinates>-121.824,37.422,0</coordinates></Point></Placemark>
    <Placemark><name>Location 27</name><Point><coordinates>-121.81400000000001,37.422,0</coordinates></Point></Placemark>
    <Placemark><name>Location 28</name><Point><coordinates>-121.804,37.422,0</coordinates></Point></Placemark>
    <Placemark><name>Location 29</name><Point><coordinates>-121.794,37.422,0</coordinates></Point></Placemark>
    <Placemark><name>Location 30</name><Point><coordinates>-121.784,37.422,0</coordinates></Point></Placemark>
    <Placemark><name>Location 31</name><Point><coordinates>-121.774,37.422,0</coordinates></Point></Placemark>
    <Placemark><name>Location 32</name><Point><coordinates>-121.76400000000001,37.422,0</coordinates></Point></Placemark>
    <Placemark><name>Location 33</name><Point><coordinates>-121.754,37.422,0</coordinates></Point></Placemark>
    <Placemark><name>Location 34</name><Point><coordinates>-121.744,37.422,0</coordinates></Point></Placemark>
    <Placemark><name>Location 35</name><Point><coordinates>-121.73400000000001,37.422,0</coordinates></Point></Placemark>
    <Placemark><name>Location 36</name><Point><coordinates>-121.724,37.422,0</coordinates></Point></Placemark>
    <Placemark><name>Location 37</name><Point><coordinates>-121.714,37.422,0</coordinates></Point></Placemark>
    <Placemark><name>Location 38</name><Point><coordinates>-121.70400000000001,37.422,0</coordinates></Point></Placemark>
    <Placemark><name>Location 39</name><Point><coordinates>-121.694,37.422,0</coordinates></Point></Placemark>
    <Placemark><name>Location 40</name><Point><coordinates>-121.684,37.422,0</coordinates></Point></Placemark>
    <Placemark><name>Location 41</name><Point><coordinates>-121.674,37.422,0</coordinates></Point></Placemark>
    <Placemark><name>Location 42</name><Point><coordinates>-121.664,37.422,0</coordinates></Point></Placemark>
    <Placemark><name>Location 43</name><Point><coordinates>-121.654,37.422,0</coordinates></Point></Placemark>
    <Placemark><name>Location 44</name><Point><coordinates>-121.644,37.422,0</coordinates></Point></Placemark>
    <Placemark><name>Location 45</name><Point><coordinates>-121.634,37.422,0</coordinates></Point></Placemark>
    <Placemark><name>Location 46</name><Point><coordinates>-121.62400000000001,37.422,0</coordinates></Point></Placemark>
    <Placemark><name>Location 47</name><Point><coordinates>-121.614,37.422,0</coordinates></Point></Placemark>
    <Placemark><name>Location 48</name><Point><coordinates>-121.604,37.422,0</coordinates></Point></Placemark>
    <Placemark><name>Location 49</name><Point><coordinates>-121.59400000000001,37.422,0</coordinates></Point></Placemark>
    <Placemark><name>Location 50</name><Point><coordinates>-121.584,37.422,0</coordinates></Point></Placemark>
    <Placemark><name>Location 51</name><Point><coordinates>-121.574,37.422,0</coordinates></Point></Placemark>
    <Placemark><name>Location 52</name><Point><coordinates>-121.56400000000001,37.422,0</coordinates></Point></Placemark>
    <Placemark><name>Location 53</name><Point><coordinates>-121.554,37.422,0</coordinates></Point></Placemark>
    <Placemark><name>Location 54</name><Point><coordinates>-121.544,37.422,0</coordinates></Point></Placemark>
    <Placemark><name>Location 55</name><Point><coordinates>-121.534,37.422,0</coordinates></Point></Placemark>
    <Placemark><name>Location 56</name><Point><coordinates>-121.524,37.422,0</coordinates></Point></Placemark>
    <Placemark><name>Location 57</name><Point><coordinates>-121.51400000000001,37.422,0</coordinates></Point></Placemark>
    <Placemark><name>Location 58</name><Point><coordinates>-121.504,37.422,0</coordinates></Point></Placemark>
    <Placemark><name>Location 59</name><Point><coordinates>-121.494,37.422,0</coordinates></Point></Placemark>
    <Placemark><name>Location 60</name><Point><coordinates>-121.48400000000001,37.422,0</coordinates></Point></Placemark>
    <Placemark><name>Location 61</name><Point><coordinates>-121.474,37.422,0</coordinates></Point></Placemark>
    <Placemark><name>Location 62</name><Point><coordinates>-121.464,37.422,0</coordinates></Point></Placemark>
    <Placemark><name>Location 63</name><Point><coordinates>-121.45400000000001,37.422,0</coordinates></Point></Placemark>
    <Placemark><name>Location 64</name><Point><coordinates>-121.444,37.422,0</coordinates></Point></Placemark>
    <Placemark><name>Location 65</name><Point><coordinates>-121.434,37.422,0</coordinates></Point></Placemark>
    <Placemark><name>Location 66</name><Point><coordinates>-121.424,37.422,0</coordinates></Point></Placemark>
    <Placemark><name>Location 67</name><Point><coordinates>-121.414,37.422,0</coordinates></Point></Placemark>
    <Placemark><name>Location 68</name><Point><coordinates>-121.404,37.422,0</coordinates></Point></Placemark>
    <Placemark><name>Location 69</name><Point><coordinates>-121.394,37.422,0</coordinates></Point></Placemark>
    <Placemark><name>Location 70</name><Point><coordinates>-121.384,37.422,0</coordinates></Point></Placemark>
    <Placemark><name>Location 71</name><Point><coordinates>-121.37400000000001,37.422,0</coordinates></Point></Placemark>
    <Placemark><name>Location 72</name><Point><coordinates>-121.364,37.422,0</coordinates></Point></Placemark>
    <Placemark><name>Location 73</name><Point><coordinates>-121.354,37.422,0</coordinates></Point></Placemark>
    <Placemark><name>Location 74</name><Point><coordinates>-121.34400000000001,37.422,0</coordinates></Point></Placemark>
    <Placemark><name>Location 75</name><Point><coordinates>-121.334,37.422,0</coordinates></Point></Placemark>
    <Placemark><name>Location 76</name><Point><coordinates>-121.324,37.422,0</coordinates></Point></Placemark>
    <Placemark><name>Location 77</name><Point><coordinates>-121.31400000000001,37.422,0</coordinates></Point></Placemark>
    <Placemark><name>Location 78</name><Point><coordinates>-121.304,37.422,0</coordinates></Point></Placemark>
    <Placemark><name>Location 79</name><Point><coordinates>-121.294,37.422,0</coordinates></Point></Placemark>
    <Placemark><name>Location 80</name><Point><coordinates>-121.284,37.422,0</coordinates></Point></Placemark>
    <Placemark><name>Location 81</name><Point><coordinates>-121.274,37.422,0</coordinates></Point></Placemark>
    <Placemark><name>Location 82</name><Point><coordinates>-121.26400000000001,37.422,0</coordinates></Point></Placemark>
    <Placemark><name>Location 83</name><Point><coordinates>-121.254,37.422,0</coordinates></Point></Placemark>
    <Placemark><name>Location 84</name><Point><coordinates>-121.244,37.422,0</coordinates></Point></Placemark>
    <Placemark><name>Location 85</name><Point><coordinates>-121.23400000000001,37.422,0</coordinates></Point></Placemark>
    <Placemark><name>Location 86</name><Point><coordinates>-121.224,37.422,0</coordinates></Point></Placemark>
    <Placemark><name>Location 87</name><Point><coordinates>-121.214,37.422,0</coordinates></Point></Placemark>
    <Placemark><name>Location 88</name><Point><coordinates>-121.20400000000001,37.422,0</coordinates></Point></Placemark>
    <Placemark><name>Location 89</name><Point><coordinates>-121.194,37.422,0</coordinates></Point></Placemark>
    <Placemark><name>Location 90</name><Point><coordinates>-121.184,37.422,0</coordinates></Point></Placemark>
    <Placemark><name>Location 91</name><Point><coordinates>-121.174,37.422,0</coordinates></Point></Placemark>
    <Placemark><name>Location 92</name><Point><coordinates>-121.164,37.422,0</coordinates></Point></Placemark>
    <Placemark><name>Location 93</name><Point><coordinates>-121.154,37.422,0</coordinates></Point></Placemark>
    <Placemark><name>Location 94</name><Point><coordinates>-121.144,37.422,0</coordinates></Point></Placemark>
    <Placemark><name>Location 95</name><Point><coordinates>-121.134,37.422,0</coordinates></Point></Placemark>
    <Placemark><name>Location 96</name><Point><coordinates>-121.12400000000001,37.422,0</coordinates></Point></Placemark>
    <Placemark><name>Location 97</name><Point><coordinates>-121.114,37.422,0</coordinates></Point></Placemark>
    <Placemark><name>Location 98</name><Point><coordinates>-121.104,37.422,0</coordinates></Point></Placemark>
    <Placemark><name>Location 99</name><Point><coordinates>-121.09400000000001,37.422,0</coordinates></Point></Placemark>
    <Placemark><name>Location 100</name><Point><coordinates>-122.084,37.431999999999995,0</coordinates></Point></Placemark>
    <Placemark><name>Location 101</name><Point><coordinates>-122.074,37.431999999999995,0</coordinates></Point></Placemark>
    <Placemark><name>Location 102</name><Point><coordinates>-122.06400000000001,37.431999999999995,0</coordinates></Point></Placemark>
    <Placemark><name>Location 103</name><Point><coordinates>-122.054,37.431999999999995,0</coordinates></Point></Placemark>
    <Placemark><name>Location 104</name><Point><coordinates>-122.044,37.431999999999995,0</coordinates></Point></Placemark>
    <Placemark><name>Location 105</name><Point><coordinates>-122.034,37.431999999999995,0</coordinates></Point></Placemark>
    <Placemark><name>Location 106</name><Point><coordinates>-122.024,37.431999999999995,0</coordinates></Point></Placemark>
    <Placemark><name>Location 107</name><Point><coordinates>-122.01400000000001,37.431999999999995,0</coordinates></Point></Placemark>
    <Placemark><name>Location 108</name><Point><coordinates>-122.004,37.431999999999995,0</coordinates></Point></Placemark>
    <Placemark><name>Location 109</name><Point><coordinates>-121.994,37.431999999999995,0</coordinates></Point></Placemark>
    <Placemark><name>Location 110</name><Point><coordinates>-121.98400000000001,37.431999999999995,0</coordinates></Point></Placemark>
    <Placemark><name>Location 111</name><Point><coordinates>-121.974,37.431999999999995,0</coordinates></Point></Placemark>
    <Placemark><name>Location 112</name><Point><coordinates>-121.964,37.431999999999995,0</coordinates></Point></Placemark>
    <Placemark><name>Location 113</name><Point><coordinates>-121.95400000000001,37.431999999999995,0</coordinates></Point></Placemark>
    <Placemark><name>Location 114</name><Point><coordinates>-121.944,37.431999999999995,0</coordinates></Point></Placemark>
    <Placemark><name>Location 115</name><Point><coordinates>-121.934,37.431999999999995,0</coordinates></Point></Placemark>
    <Placemark><name>Location 116</name><Point><coordinates>-121.924,37.431999999999995,0</coordinates></Point></Placemark>
    <Placemark><name>Location 117</name><Point><coordinates>-121.914,37.431999999999995,0</coordinates></Point></Placemark>
    <Placemark><name>Location 118</name><Point><coordinates>-121.904,37.431999999999995,0</coordinates></Point></Placemark>
    <Placemark><name>Location 119</name><Point><coordinates>-121.894,37.431999999999995,0</coordinates></Point></Placemark>
    <Placemark><name>Location 120</name><Point><coordinates>-121.884,37.431999999999995,0</coordinates></Point></Placemark>
    <Placemark><name>Location 121</name><Point><coordinates>-121.87400000000001,37.431999999999995,0</coordinates></Point></Placemark>
    <Placemark><name>Location 122</name><Point><coordinates>-121.864,37.431999999999995,0</coordinates></Point></Placemark>
    <Placemark><name>Location 123</name><Point><coordinates>-121.854,37.431999999999995,0</coordinates></Point></Placemark>
    <Placemark><name>Location 124</name><Point><coordinates>-121.84400000000001,37.431999999999995,0</coordinates></Point></Placemark>
    <Placemark><name>Location 125</name><Point><coordinates>-121.834,37.431999999999995,0</coordinates></Point></Placemark>
    <Placemark><name>Location 126</name><Point><coordinates>-121.824,37.431999999999995,0</coordinates></Point></Placemark>
    <Placemark><name>Location 127</name><Point><coordinates>-121.81400000000001,37.431999999999995,0</coordinates></Point></Placemark>
    <Placemark><name>Location 128</name><Point><coordinates>-121.804,37.431999999999995,0</coordinates></Point></Placemark>
    <Placemark><name>Location 129</name><Point><coordinates>-121.794,37.431999999999995,0</coordinates></Point></Placemark>
    <Placemark><name>Location 130</name><Point><coordinates>-121.784,37.431999999999995,0</coordinates></Point></Placemark>
    <Placemark><name>Location 131</name><Point><coordinates>-121.774,37.431999999999995,0</coordinates></Point></Placemark>
    <Placemark><name>Location 132</name><Point><coordinates>-121.76400000000001,37.431999999999995,0</coordinates></Point></Placemark>
    <Placemark><name>Location 133</name><Point><coordinates>-121.754,37.431999999999995,0</coordinates></Point></Placemark>
    <Placemark><name>Location 134</name><Point><coordinates>-121.744,37.431999999999995,0</coordinates></Point></Placemark>
    <Placemark><name>Location 135</name><Point><coordinates>-121.73400000000001,37.431999999999995,0</coordinates></Point></Placemark>
    <Placemark><name>Location 136</name><Point><coordinates>-121.724,37.431999999999995,0</coordinates></Point></Placemark>
    <Placemark><name>Location 137</name><Point><coordinates>-121.714,37.431999999999995,0</coordinates></Point></Placemark>
    <Placemark><name>Location 138</name><Point><coordinates>-121.70400000000001,37.431999999999995,0</coordinates></Point></Placemark>
    <Placemark><name>Location 139</name><Point><coordinates>-121.694,37.431999999999995,0</coordinates></Point></Placemark>
    <Placemark><name>Location 140</name><Point><coordinates>-121.684,37.431999999999995,0</coordinates></Point></Placemark>
    <Placemark><name>Location 141</name><Point><coordinates>-121.674,37.431999999999995,0</coordinates></Point></Placemark>
    <Placemark><name>Location 142</name><Point><coordinates>-121.664,37.431999999999995,0</coordinates></Point></Placemark>
    <Placemark><name>Location 143</name><Point><coordinates>-121.654,37.431999999999995,0</coordinates></Point></Placemark>
    <Placemark><name>Location 144</name><Point><coordinates>-121.644,37.431999999999995,0</coordinates></Point></Placemark>
    <Placemark><name>Location 145</name><Point><coordinates>-121.634,37.431999999999995,0</coordinates></Point></Placemark>
    <Placemark><name>Location 146</name><Point><coordinates>-121.62400000000001,37.431999999999995,0</coordinates></Point></Placemark>
    <Placemark><name>Location 147</name><Point><coordinates>-121.614,37.431999999999995,0</coordinates></Point></Placemark>
    <Placemark><name>Location 148</name><Point><coordinates>-121.604,37.431999999999995,0</coordinates></Point></Placemark>
    <Placemark><name>Location 149</name><Point><coordinates>-121.59400000000001,37.431999999999995,0</coordinates></Point></Placemark>
    <Placemark><name>Location 150</name><Point><coordinates>-121.584,37.431999999999995,0</coordinates></Point></Placemark>
    <Placemark><name>Location 151</name><Point><coordinates>-121.574,37.431999999999995,0</coordinates></Point></Placemark>
    <Placemark><name>Location 152</name><Point><coordinates>-121.56400000000001,37.431999999999995,0</coordinates></Point></Placemark>
    <Placemark><name>Location 153</name><Point><coordinates>-121.554,37.431999999999995,0</coordinates></Point></Placemark>
    <Placemark><name>Location 154</name><Point><coordinates>-121.544,37.431999999999995,0</coordinates></Point></Placemark>
    <Placemark><name>Location 155</name><Point><coordinates>-121.534,37.431999999999995,0</coordinates></Point></Placemark>
    <Placemark><name>Location 156</name><Point><coordinates>-121.524,37.431999999999995,0</coordinates></Point></Placemark>
    <Placemark><name>Location 157</name><Point><coordinates>-121.51400000000001,37.431999999999995,0</coordinates></Point></Placemark>
    <Placemark><name>Location 158</name><Point><coordinates>-121.504,37.431999999999995,0</coordinates></Point></Placemark>
    <Placemark><name>Location 159</name><Point><coordinates>-121.494,37.431999999999995,0</coordinates></Point></Placemark>
    <Placemark><name>Location 160</name><Point><coordinates>-121.48400000000001,37.431999999999995,0</coordinates></Point></Placemark>
    <Placemark><name>Location 161</name><Point><coordinates>-121.474,37.431999999999995,0</coordinates></Point></Placemark>
    <Placemark><name>Location 162</name><Point><coordinates>-121.464,37.431999999999995,0</coordinates></Point></Placemark>
    <Placemark><name>Location 163</name><Point><coordinates>-121.45400000000001,37.431999999999995,0</coordinates></Point></Placemark>
    <Placemark><name>Location 164</name><Point><coordinates>-121.444,37.431999999999995,0</coordinates></Point></Placemark>
    <Placemark><name>Location 165</name><Point><coordinates>-121.434,37.431999999999995,0</coordinates></Point></Placemark>
    <Placemark><name>Location 166</name><Point><coordinates>-121.424,37.431999999999995,0</coordinates></Point></Placemark>
    <Placemark><name>Location 167</name><Point><coordinates>-121.414,37.431999999999995,0</coordinates></Point></Placemark>
    <Placemark><name>Location 168</name><Point><coordinates>-121.404,37.431999999999995,0</coordinates></Point></Placemark>
    <Placemark><name>Location 169</name><Point><coordinates>-121.394,37.431999999999995,0</coordinates></Point></Placemark>
    <Placemark><name>Location 170</name><Point><coordinates>-121.384,37.431999999999995,0</coordinates></Point></Placemark>
    <Placemark><name>Location 171</name><Point><coordinates>-121.37400000000001,37.431999999999995,0</coordinates></Point></Placemark>
    <Placemark><name>Location 172</name><Point><coordinates>-121.364,37.431999999999995,0</coordinates></Point></Placemark>
    <Placemark><name>Location 173</name><Point><coordinates>-121.354,37.431999999999995,0</coordinates></Point></Placemark>
    <Placemark><name>Location 174</name><Point><coordinates>-121.34400000000001,37.431999999999995,0</coordinates></Point></Placemark>
    <Placemark><name>Location 175</name><Point><coordinates>-121.334,37.431999999999995,0</coordinates></Point></Placemark>
    <Placemark><name>Location 176</name><Point><coordinates>-121.324,37.431999999999995,0</coordinates></Point></Placemark>
    <Placemark><name>Location 177</name><Point><coordinates>-121.31400000000001,37.431999999999995,0</coordinates></Point></Placemark>
    <Placemark><name>Location 178</name><Point><coordinates>-121.304,37.431999999999995,0</coordinates></Point></Placemark>
    <Placemark><name>Location 179</name><Point><coordinates>-121.294,37.431999999999995,0</coordinates></Point></Placemark>
    <Placemark><name>Location 180</name><Point><coordinates>-121.284,37.431999999999995,0</coordinates></Point></Placemark>
    <Placemark><name>Location 181</name><Point><coordinates>-121.274,37.431999999999995,0</coordinates></Point></Placemark>
    <Placemark><name>Location 182</name><Point><coordinates>-121.26400000000001,37.431999999999995,0</coordinates></Point></Placemark>
    <Placemark><name>Location 183</name><Point><coordinates>-121.254,37.431999999999995,0</coordinates></Point></Placemark>
    <Placemark><name>Location 184</name><Point><coordinates>-121.244,37.431999999999995,0</coordinates></Point></Placemark>
    <Placemark><name>Location 185</name><Point><coordinates>-121.23400000000001,37.431999999999995,0</coordinates></Point></Placemark>
    <Placemark><name>Location 186</name><Point><coordinates>-121.224,37.431999999999995,0</coordinates></Point></Placemark>
    <Placemark><name>Location 187</name><Point><coordinates>-121.214,37.431999999999995,0</coordinates></Point></Placemark>
    <Placemark><name>Location 188</name><Point><coordinates>-121.20400000000001,37.431999999999995,0</coordinates></Point></Placemark>
    <Placemark><name>Location 189</name><Point><coordinates>-121.194,37.431999999999995,0</coordinates></Point></Placemark>
    <Placemark><name>Location 190</name><Point><coordinates>-121.184,37.431999999999995,0</coordinates></Point></Placemark>
    <Placemark><name>Location 191</name><Point><coordinates>-121.174,37.431999999999995,0</coordinates></Point></Placemark>
    <Placemark><name>Location 192</name><Point><coordinates>-121.164,37.431999999999995,0</coordinates></Point></Placemark>
    <Placemark><name>Location 193</name><Point><coordinates>-121.154,37.431999999999995,0</coordinates></Point></Placemark>
    <Placemark><name>Location 194</name><Point><coordinates>-121.144,37.431999999999995,0</coordinates></Point></Placemark>
    <Placemark><name>Location 195</name><Point><coordinates>-121.134,37.431999999999995,0</coordinates></Point></Placemark>
    <Placemark><name>Location 196</name><Point><coordinates>-121.12400000000001,37.431999999999995,0</coordinates></Point></Placemark>
    <Placemark><name>Location 197</name><Point><coordinates>-121.114,37.431999999999995,0</coordinates></Point></Placemark>
    <Placemark><name>Location 198</name><Point><coordinates>-121.104,37.431999999999995,0</coordinates></Point></Placemark>
    <Placemark><name>Location 199</name><Point><coordinates>-121.09400000000001,37.431999999999995,0</coordinates></Point></Placemark>
    <Placemark><name>Location 200</name><Point><coordinates>-122.084,37.442,0</coordinates></Point></Placemark>
    <Placemark><name>Location 201</name><Point><coordinates>-122.074,37.442,0</coordinates></Point></Placemark>
    <Placemark><name>Location 202</name><Point><coordinates>-122.06400000000001,37.442,0</coordinates></Point></Placemark>
    <Placemark><name>Location 203</name><Point><coordinates>-122.054,37.442,0</coordinates></Point></Placemark>
    <Placemark><name>Location 204</name><Point><coordinates>-122.044,37.442,0</coordinates></Point></Placemark>
    <Placemark><name>Location 205</name><Point><coordinates>-122.034,37.442,0</coordinates></Point></Placemark>
    <Placemark><name>Location 206</name><Point><coordinates>-122.024,37.442,0</coordinates></Point></Placemark>
    <Placemark><name>Location 207</name><Point><coordinates>-122.01400000000001,37.442,0</coordinates></Point></Placemark>
    <Placemark><name>Location 208</name><Point><coordinates>-122.004,37.442,0</coordinates></Point></Placemark>
    <Placemark><name>Location 209</name><Point><coordinates>-121.994,37.442,0</coordinates></Point></Placemark>
    <Placemark><name>Location 210</name><Point><coordinates>-121.98400000000001,37.442,0</coordinates></Point></Placemark>
    <Placemark><name>Location 211</name><Point><coordinates>-121.974,37.442,0</coordinates></Point></Placemark>
    <Placemark><name>Location 212</name><Point><coordinates>-121.964,37.442,0</coordinates></Point></Placemark>
    <Placemark><name>Location 213</name><Point><coordinates>-121.95400000000001,37.442,0</coordinates></Point></Placemark>
    <Placemark><name>Location 214</name><Point><coordinates>-121.944,37.442,0</coordinates></Point></Placemark>
    <Placemark><name>Location 215</name><Point><coordinates>-121.934,37.442,0</coordinates></Point></Placemark>
    <Placemark><name>Location 216</name><Point><coordinates>-121.924,37.442,0</coordinates></Point></Placemark>
    <Placemark><name>Location 217</name><Point><coordinates>-121.914,37.442,0</coordinates></Point></Placemark>
    <Placemark><name>Location 218</name><Point><coordinates>-121.904,37.442,0</coordinates></Point></Placemark>
    <Placemark><name>Location 219</name><Point><coordinates>-121.894,37.442,0</coordinates></Point></Placemark>
    <Placemark><name>Location 220</name><Point><coordinates>-121.884,37.442,0</coordinates></Point></Placemark>
    <Placemark><name>Location 221</name><Point><coordinates>-121.87400000000001,37.442,0</coordinates></Point></Placemark>
    <Placemark><name>Location 222</name><Point><coordinates>-121.864,37.442,0</coordinates></Point></Placemark>
    <Placemark><name>Location 223</name><Point><coordinates>-121.854,37.442,0</coordinates></Point></Placemark>
    <Placemark><name>Location 224</name><Point><coordinates>-121.84400000000001,37.442,0</coordinates></Point></Placemark>
    <Placemark><name>Location 225</name><Point><coordinates>-121.834,37.442,0</coordinates></Point></Placemark>
    <Placemark><name>Location 226</name><Point><coordinates>-121.824,37.442,0</coordinates></Point></Placemark>
    <Placemark><name>Location 227</name><Point><coordinates>-121.81400000000001,37.442,0</coordinates></Point></Placemark>
    <Placemark><name>Location 228</name><Point><coordinates>-121.804,37.442,0</coordinates></Point></Placemark>
    <Placemark><name>Location 229</name><Point><coordinates>-121.794,37.442,0</coordinates></Point></Placemark>
    <Placemark><name>Location 230</name><Point><coordinates>-121.784,37.442,0</coordinates></Point></Placemark>
    <Placemark><name>Location 231</name><Point><coordinates>-121.774,37.442,0</coordinates></Point></Placemark>
    <Placemark><name>Location 232</name><Point><coordinates>-121.76400000000001,37.442,0</coordinates></Point></Placemark>
    <Placemark><name>Location 233</name><Point><coordinates>-121.754,37.442,0</coordinates></Point></Placemark>
    <Placemark><name>Location 234</name><Point><coordinates>-121.744,37.442,0</coordinates></Point></Placemark>
    <Placemark><name>Location 235</name><Point><coordinates>-121.73400000000001,37.442,0</coordinates></Point></Placemark>
    <Placemark><name>Location 236</name><Point><coordinates>-121.724,37.442,0</coordinates></Point></Placemark>
    <Placemark><name>Location 237</name><Point><coordinates>-121.714,37.442,0</coordinates></Point></Placemark>
    <Placemark><name>Location 238</name><Point><coordinates>-121.70400000000001,37.442,0</coordinates></Point></Placemark>
    <Placemark><name>Location 239</name><Point><coordinates>-121.694,37.442,0</coordinates></Point></Placemark>
    <Placemark><name>Location 240</name><Point><coordinates>-121.684,37.442,0</coordinates></Point></Placemark>
    <Placemark><name>Location 241</name><Point><coordinates>-121.674,37.442,0</coordinates></Point></Placemark>
    <Placemark><name>Location 242</name><Point><coordinates>-121.664,37.442,0</coordinates></Point></Placemark>
    <Placemark><name>Location 243</name><Point><coordinates>-121.654,37.442,0</coordinates></Point></Placemark>
    <Placemark><name>Location 244</name><Point><coordinates>-121.644,37.442,0</coordinates></Point></Placemark>
    <Placemark><name>Location 245</name><Point><coordinates>-121.634,37.442,0</coordinates></Point></Placemark>
    <Placemark><name>Location 246</name><Point><coordinates>-121.62400000000001,37.442,0</coordinates></Point></Placemark>
    <Placemark><name>Location 247</name><Point><coordinates>-121.614,37.442,0</coordinates></Point></Placemark>
    <Placemark><name>Location 248</name><Point><coordinates>-121.604,37.442,0</coordinates></Point></Placemark>
    <Placemark><name>Location 249</name><Point><coordinates>-121.59400000000001,37.442,0</coordinates></Point></Placemark>
  </Document>
</kml>
