<?xml version="1.0" encoding="UTF-8"?>
<kml xmlns="http://www.opengis.net/kml/2.2">
  <Document>
    <name>Sample Placemarks</name>
    <Placemark><name>Location 0</name><Point><coordinates>-122.084,37.422,0</coordinates></Point></Placemark>
    <Placemark><name>Location 1</name><Point><coordinates>-122.074,37.422,0</coordinates></Point></Placemark>
    <Placemark><name>Location 2</name><Point><coordinates>-122.06400000000001,37.422,0</coordinates></Point></Placemark>
    <Placemark><name>Location 3</name><Point><coordinates>-122.054,37.422,0</coordinates></Point></Placemark>
    <Placemark><name>Location 4</name><Point><coordinates>-122.044,37.422,0</coordinates></Point></Placemark>
    <Placemark><name>Location 5</name><Point><coordinates>-122.034,37.422,0</coordinates></Point></Placemark>
    <Placemark><name>Location 6</name><Point><coordinates>-122.024,37.422,0</coordinates></Point></Placemark>
    <Placemark><name>Location 7</name><Point><coordinates>-122.01400000000001,37.422,0</coordinates></Point></Placemark>
    <Placemark><name>Location 8</name><Point><coordinates>-122.004,37.422,0</coordinates></Point></Placemark>
    <Placemark><name>Location 9</name><Point><coordinates>-121.994,37.422,0</coordinates></Point></Placemark>
    <Placemark><name>Location 10</name><Point><coordinates>-121.98400000000001,37.422,0</coordinates></Point></Placemark>
    <Placemark><name>Location 11</name><Point><coordinates>-121.974,37.422,0</coordinates></Point></Placemark>
    <Placemark><name>Location 12</name><Point><coordinates>-121.964,37.422,0</coordinates></Point></Placemark>
    <Placemark><name>Location 13</name><Point><coordinates>-121.95400000000001,37.422,0</coordinates></Point></Placemark>
    <Placemark><name>Location 14</name><Point><coordinates>-121.944,37.422,0</coordinates></Point></Placemark>
    <Placemark><name>Location 15</name><Point><coordinates>-121.934,37.422,0</coordinates></Point></Placemark>
    <Placemark><name>Location 16</name><Point><coordinates>-121.924,37.422,0</coordinates></Point></Placemark>
    <Placemark><name>Location 17</name><Point><coordinates>-121.914,37.422,0</coordinates></Point></Placemark>
    <Placemark><name>Location 18</name><Point><coordinates>-121.904,37.422,0</coordinates></Point></Placemark>
    <Placemark><name>Location 19</name><Point><coordinates>-121.894,37.422,0</coordinates></Point></Placemark>
    <Placemark><name>Location 20</name><Point><coordinates>-121.884,37.422,0</coordinates></Point></Placemark>
    <Placemark><name>Location 21</name><Point><coordinates>-121.87400000000001,37.422,0</coordinates></Point></Placemark>
    <Placemark><name>Location 22</name><Point><coordinates>-121.864,37.422,0</coordinates></Point></Placemark>
    <Placemark><name>Location 23</name><Point><coordinates>-121.854,37.422,0</coordinates></Point></Placemark>
    <Placemark><name>Location 24</name><Point><coordinates>-121.84400000000001,37.422,0</coordinates></Point></Placemark>
    <Placemark><name>Location 25</name><Point><coordinates>-121.834,37.422,0</coordinates></Point></Placemark>
    <Placemark><name>Location 26</name><Point><coordinates>-121.824,37.422,0</coordinates></Point></Placemark>
    <Placemark><name>Location 27</name><Point><coordinates>-121.81400000000001,37.422,0</coordinates></Point></Placemark>
    <Placemark><name>Location 28</name><Point><coordinates>-121.804,37.422,0</coordinates></Point></Placemark>
    <Placemark><name>Location 29</name><Point><coordinates>-121.794,37.422,0</coordinates></Point></Placemark>
    <Placemark><name>Location 30</name><Point><coordinates>-121.784,37.422,0</coordinates></Point></Placemark>
    <Placemark><name>Location 31</name><Point><coordinates>-121.774,37.422,0</coordinates></Point></Placemark>
    <Placemark><name>Location 32</name><Point><coordinates>-121.76400000000001,37.422,0</coordinates></Point></Placemark>
    <Placemark><name>Location 33</name><Point><coordinates>-121.754,37.422,0</coordinates></Point></Placemark>
    <Placemark><name>Location 34</name><Point><coordinates>-121.744,37.422,0</coordinates></Point></Placemark>
    <Placemark><name>Location 35</name><Point><coordinates>-121.73400000000001,37.422,0</coordinates></Point></Placemark>
    <Placemark><name>Location 36</name><Point><coordinates>-121.724,37.422,0</coordinates></Point></Placemark>
    <Placemark><name>Location 37</name><Point><coordinates>-121.714,37.422,0</coordinates></Point></Placemark>
    <Placemark><name>Location 38</name><Point><coordinates>-121.70400000000001,37.422,0</coordinates></Point></Placemark>
    <Placemark><name>Location 39</name><Point><coordinates>-121.694,37.422,0</coordinates></Point></Placemark>
    <Placemark><name>Location 40</name><Point><coordinates>-121.684,37.422,0</coordinates></Point></Placemark>
    <Placemark><name>Location 41</name><Point><coordinates>-121.674,37.422,0</coordinates></Point></Placemark>
    <Placemark><name>Location 42</name><Point><coordinates>-121.664,37.422,0</coordinates></Point></Placemark>
    <Placemark><name>Location 43</name><Point><coordinates>-121.654,37.422,0</coordinates></Point></Placemark>
    <Placemark><name>Location 44</name><Point><coordinates>-121.644,37.422,0</coordinates></Point></Placemark>
    <Placemark><name>Location 45</name><Point><coordinates>-121.634,37.422,0</coordinates></Point></Placemark>
    <Placemark><name>Location 46</name><Point><coordinates>-121.62400000000001,37.422,0</coordinates></Point></Placemark>
    <Placemark><name>Location 47</name><Point><coordinates>-121.614,37.422,0</coordinates></Point></Placemark>
    <Placemark><name>Location 48</name><Point><coordinates>-121.604,37.422,0</coordinates></Point></Placemark>
    <Placemark><name>Location 49</name><Point><coordinates>-121.59400000000001,37.422,0</coordinates></Point></Placemark>
    <Placemark><name>Location 50</name><Point><coordinates>-121.584,37.422,0</coordinates></Point></Placemark>
    <Placemark><name>Location 51</name><Point><coordinates>-121.574,37.422,0</coordinates></Point></Placemark>
    <Placemark><name>Location 52</name><Point><coordinates>-121.56400000000001,37.422,0</coordinates></Point></Placemark>
    <Placemark><name>Location 53</name><Point><coordinates>-121.554,37.422,0</coordinates></Point></Placemark>
    <Placemark><name>Location 54</name><Point><coordinates>-121.544,37.422,0</coordinates></Point></Placemark>
    <Placemark><name>Location 55</name><Point><coordinates>-121.534,37.422,0</coordinates></Point></Placemark>
    <Placemark><name>Location 56</name><Point><coordinates>-121.524,37.422,0</coordinates></Point></Placemark>
    <Placemark><name>Location 57</name><Point><coordinates>-121.51400000000001,37.422,0</coordinates></Point></Placemark>
    <Placemark><name>Location 58</name><Point><coordinates>-121.504,37.422,0</coordinates></Point></Placemark>
    <Placemark><name>Location 59</name><Point><coordinates>-121.494,37.422,0</coordinates></Point></Placemark>
    <Placemark><name>Location 60</name><Point><coordinates>-121.48400000000001,37.422,0</coordinates></Point></Placemark>
    <Placemark><name>Location 61</name><Point><coordinates>-121.474,37.422,0</coordinates></Point></Placemark>
    <Placemark><name>Location 62</name><Point><coordinates>-121.464,37.422,0</coordinates></Point></Placemark>
    <Placemark><name>Location 63</name><Point><coordinates>-121.45400000000001,37.422,0</coordinates></Point></Placemark>
    <Placemark><name>Location 64</name><Point><coordinates>-121.444,37.422,0</coordinates></Point></Placemark>
    <Placemark><name>Location 65</name><Point><coordinates>-121.434,37.422,0</coordinates></Point></Placemark>
    <Placemark><name>Location 66</name><Point><coordinates>-121.424,37.422,0</coordinates></Point></Placemark>
    <Placemark><name>Location 67</name><Point><coordinates>-121.414,37.422,0</coordinates></Point></Placemark>
    <Placemark><name>Location 68</name><Point><coordinates>-121.404,37.422,0</coordinates></Point></Placemark>
    <Placemark><name>Location 69</name><Point><coordinates>-121.394,37.422,0</coordinates></Point></Placemark>
    <Placemark><name>Location 70</name><Point><coordinates>-121.384,37.422,0</coordinates></Point></Placemark>
    <Placemark><name>Location 71</name><Point><coordinates>-121.37400000000001,37.422,0</coordinates></Point></Placemark>
    <Placemark><name>Location 72</name><Point><coordinates>-121.364,37.422,0</coordinates></Point></Placemark>
    <Placemark><name>Location 73</name><Point><coordinates>-121.354,37.422,0</coordinates></Point></Placemark>
    <Placemark><name>Location 74</name><Point><coordinates>-121.34400000000001,37.422,0</coordinates></Point></Placemark>
    <Placemark><name>Location 75</name><Point><coordinates>-121.334,37.422,0</coordinates></Point></Placemark>
    <Placemark><name>Location 76</name><Point><coordinates>-121.324,37.422,0</coordinates></Point></Placemark>
    <Placemark><name>Location 77</name><Point><coordinates>-121.31400000000001,37.422,0</coordinates></Point></Placemark>
    <Placemark><name>Location 78</name><Point><coordinates>-121.304,37.422,0</coordinates></Point></Placemark>
    <Placemark><name>Location 79</name><Point><coordinates>-121.294,37.422,0</coordinates></Point></Placemark>
    <Placemark><name>Location 80</name><Point><coordinates>-121.284,37.422,0</coordinates></Point></Placemark>
    <Placemark><name>Location 81</name><Point><coordinates>-121.274,37.422,0</coordinates></Point></Placemark>
    <Placemark><name>Location 82</name><Point><coordinates>-121.26400000000001,37.422,0</coordinates></Point></Placemark>
    <Placemark><name>Location 83</name><Point><coordinates>-121.254,37.422,0</coordinates></Point></Placemark>
    <Placemark><name>Location 84</name><Point><coordinates>-121.244,37.422,0</coordinates></Point></Placemark>
    <Placemark><name>Location 85</name><Point><coordinates>-121.23400000000001,37.422,0</coordinates></Point></Placemark>
    <Placemark><name>Location 86</name><Point><coordinates>-121.224,37.422,0</coordinates></Point></Placemark>
    <Placemark><name>Location 87</name><Point><coordinates>-121.214,37.422,0</coordinates></Point></Placemark>
    <Placemark><name>Location 88</name><Point><coordinates>-121.20400000000001,37.422,0</coordinates></Point></Placemark>
    <Placemark><name>Location 89</name><Point><coordinates>-121.194,37.422,0</coordinates></Point></Placemark>
    <Placemark><name>Location 90</name><Point><coordinates>-121.184,37.422,0</coordinates></Point></Placemark>
    <Placemark><name>Location 91</name><Point><coordinates>-121.174,37.422,0</coordinates></Point></Placemark>
    <Placemark><name>Location 92</name><Point><coordinates>-121.164,37.422,0</coordinates></Point></Placemark>
    <Placemark><name>Location 93</name><Point><coordinates>-121.154,37.422,0</coordinates></Point></Placemark>
    <Placemark><name>Location 94</name><Point><coordinates>-121.144,37.422,0</coordinates></Point></Placemark>
    <Placemark><name>Location 95</name><Point><coordinates>-121.134,37.422,0</coordinates></Point></Placemark>
    <Placemark><name>Location 96</name><Point><coordinates>-121.12400000000001,37.422,0</coordinates></Point></Placemark>
    <Placemark><name>Location 97</name><Point><coordinates>-121.114,37.422,0</coordinates></Point></Placemark>
    <Placemark><name>Location 98</name><Point><coordinates>-121.104,37.422,0</coordinates></Point></Placemark>
    <Placemark><name>Location 99</name><Point><coordinates>-121.09400000000001,37.422,0</coordinates></Point></Placemark>
    <Placemark><name>Location 100</name><Point><coordinates>-122.084,37.431999999999995,0</coordinates></Point></Placemark>
    <Placemark><name>Location 101</name><Point><coordinates>-122.074,37.431999999999995,0</coordinates></Point></Placemark>
    <Placemark><name>Location 102</name><Point><coordinates>-122.06400000000001,37.431999999999995,0</coordinates></Point></Placemark>
    <Placemark><name>Location 103</name><Point><coordinates>-122.054,37.431999999999995,0</coordinates></Point></Placemark>
    <Placemark><name>Location 104</name><Point><coordinates>-122.044,37.431999999999995,0</coordinates></Point></Placemark>
    <Placemark><name>Location 105</name><Point><coordinates>-122.034,37.431999999999995,0</coordinates></Point></Placemark>
    <Placemark><name>Location 106</name><Point><coordinates>-122.024,37.431999999999995,0</coordinates></Point></Placemark>
    <Placemark><name>Location 107</name><Point><coordinates>-122.01400000000001,37.431999999999995,0</coordinates></Point></Placemark>
    <Placemark><name>Location 108</name><Point><coordinates>-122.004,37.431999999999995,0</coordinates></Point></Placemark>
    <Placemark><name>Location 109</name><Point><coordinates>-121.994,37.431999999999995,0</coordinates></Point></Placemark>
    <Placemark><name>Location 110</name><Point><coordinates>-121.98400000000001,37.431999999999995,0</coordinates></Point></Placemark>
    <Placemark><name>Location 111</name><Point><coordinates>-121.974,37.431999999999995,0</coordinates></Point></Placemark>
    <Placemark><name>Location 112</name><Point><coordinates>-121.964,37.431999999999995,0</coordinates></Point></Placemark>
    <Placemark><name>Location 113</name><Point><coordinates>-121.95400000000001,37.431999999999995,0</coordinates></Point></Placemark>
    <Placemark><name>Location 114</name><Point><coordinates>-121.944,37.431999999999995,0</coordinates></Point></Placemark>
    <Placemark><name>Location 115</name><Point><coordinates>-121.934,37.431999999999995,0</coordinates></Point></Placemark>
    <Placemark><name>Location 116</name><Point><coordinates>-121.924,37.431999999999995,0</coordinates></Point></Placemark>
    <Placemark><name>Location 117</name><Point><coordinates>-121.914,37.431999999999995,0</coordinates></Point></Placemark>
    <Placemark><name>Location 118</name><Point><coordinates>-121.904,37.431999999999995,0</coordinates></Point></Placemark>
    <Placemark><name>Location 119</name><Point><coordinates>-121.894,37.431999999999995,0</coordinates></Point></Placemark>
    <Placemark><name>Location 120</name><Point><coordinates>-121.884,37.431999999999995,0</coordinates></Point></Placemark>
    <Placemark><name>Location 121</name><Point><coordinates>-121.87400000000001,37.431999999999995,0</coordinates></Point></Placemark>
    <Placemark><name>Location 122</name><Point><coordinates>-121.864,37.431999999999995,0</coordinates></Point></Placemark>
    <Placemark><name>Location 123</name><Point><coordinates>-121.854,37.431999999999995,0</coordinates></Point></Placemark>
    <Placemark><name>Location 124</name><Point><coordinates>-121.84400000000001,37.431999999999995,0</coordinates></Point></Placemark>
    <Placemark><name>Location 125</name><Point><coordinates>-121.834,37.431999999999995,0</coordinates></Point></Placemark>
    <Placemark><name>Location 126</name><Point><coordinates>-121.824,37.431999999999995,0</coordinates></Point></Placemark>
    <Placemark><name>Location 127</name><Point><coordinates>-121.81400000000001,37.431999999999995,0</coordinates></Point></Placemark>
    <Placemark><name>Location 128</name><Point><coordinates>-121.804,37.431999999999995,0</coordinates></Point></Placemark>
    <Placemark><name>Location 129</name><Point><coordinates>-121.794,37.431999999999995,0</coordinates></Point></Placemark>
    <Placemark><name>Location 130</name><Point><coordinates>-121.784,37.431999999999995,0</coordinates></Point></Placemark>
    <Placemark><name>Location 131</name><Point><coordinates>-121.774,37.431999999999995,0</coordinates></Point></Placemark>
    <Placemark><name>Location 132</name><Point><coordinates>-121.76400000000001,37.431999999999995,0</coordinates></Point></Placemark>
    <Placemark><name>Location 133</name><Point><coordinates>-121.754,37.431999999999995,0</coordinates></Point></Placemark>
    <Placemark><name>Location 134</name><Point><coordinates>-121.744,37.431999999999995,0</coordinates></Point></Placemark>
    <Placemark><name>Location 135</name><Point><coordinates>-121.73400000000001,37.431999999999995,0</coordinates></Point></Placemark>
    <Placemark><name>Location 136</name><Point><coordinates>-121.724,37.431999999999995,0</coordinates></Point></Placemark>
    <Placemark><name>Location 137</name><Point><coordinates>-121.714,37.431999999999995,0</coordinates></Point></Placemark>
    <Placemark><name>Location 138</name><Point><coordinates>-121.70400000000001,37.431999999999995,0</coordinates></Point></Placemark>
    <Placemark><name>Location 139</name><Point><coordinates>-121.694,37.431999999999995,0</coordinates></Point></Placemark>
    <Placemark><name>Location 140</name><Point><coordinates>-121.684,37.431999999999995,0</coordinates></Point></Placemark>
    <Placemark><name>Location 141</name><Point><coordinates>-121.674,37.431999999999995,0</coordinates></Point></Placemark>
    <Placemark><name>Location 142</name><Point><coordinates>-121.664,37.431999999999995,0</coordinates></Point></Placemark>
    <Placemark><name>Location 143</name><Point><coordinates>-121.654,37.431999999999995,0</coordinates></Point></Placemark>
    <Placemark><name>Location 144</name><Point><coordinates>-121.644,37.431999999999995,0</coordinates></Point></Placemark>
    <Placemark><name>Location 145</name><Point><coordinates>-121.634,37.431999999999995,0</coordinates></Point></Placemark>
    <Placemark><name>Location 146</name><Point><coordinates>-121.62400000000001,37.431999999999995,0</coordinates></Point></Placemark>
    <Placemark><name>Location 147</name><Point><coordinates>-121.614,37.431999999999995,0</coordinates></Point></Placemark>
    <Placemark><name>Location 148</name><Point><coordinates>-121.604,37.431999999999995,0</coordinates></Point></Placemark>
    <Placemark><name>Location 149</name><Point><coordinates>-121.59400000000001,37.431999999999995,0</coordinates></Point></Placemark>
    <Placemark><name>Location 150</name><Point><coordinates>-121.584,37.431999999999995,0</coordinates></Point></Placemark>
    <Placemark><name>Location 151</name><Point><coordinates>-121.574,37.431999999999995,0</coordinates></Point></Placemark>
    <Placemark><name>Location 152</name><Point><coordinates>-121.56400000000001,37.431999999999995,0</coordinates></Point></Placemark>
    <Placemark><name>Location 153</name><Point><coordinates>-121.554,37.431999999999995,0</coordinates></Point></Placemark>
    <Placemark><name>Location 154</name><Point><coordinates>-121.544,37.431999999999995,0</coordinates></Point></Placemark>
    <Placemark><name>Location 155</name><Point><coordinates>-121.534,37.431999999999995,0</coordinates></Point></Placemark>
    <Placemark><name>Location 156</name><Point><coordinates>-121.524,37.431999999999995,0</coordinates></Point></Placemark>
    <Placemark><name>Location 157</name><Point><coordinates>-121.51400000000001,37.431999999999995,0</coordinates></Point></Placemark>
    <Placemark><name>Location 158</name><Point><coordinates>-121.504,37.431999999999995,0</coordinates></Point></Placemark>
    <Placemark><name>Location 159</name><Point><coordinates>-121.494,37.431999999999995,0</coordinates></Point></Placemark>
    <Placemark><name>Location 160</name><Point><coordinates>-121.48400000000001,37.431999999999995,0</coordinates></Point></Placemark>
    <Placemark><name>Location 161</name><Point><coordinates>-121.474,37.431999999999995,0</coordinates></Point></Placemark>
    <Placemark><name>Location 162</name><Point><coordinates>-121.464,37.431999999999995,0</coordinates></Point></Placemark>
    <Placemark><name>Location 163</name><Point><coordinates>-121.45400000000001,37.431999999999995,0</coordinates></Point></Placemark>
    <Placemark><name>Location 164</name><Point><coordinates>-121.444,37.431999999999995,0</coordinates></Point></Placemark>
    <Placemark><name>Location 165</name><Point><coordinates>-121.434,37.431999999999995,0</coordinates></Point></Placemark>
    <Placemark><name>Location 166</name><Point><coordinates>-121.424,37.431999999999995,0</coordinates></Point></Placemark>
    <Placemark><name>Location 167</name><Point><coordinates>-121.414,37.431999999999995,0</coordinates></Point></Placemark>
    <Placemark><name>Location 168</name><Point><coordinates>-121.404,37.431999999999995,0</coordinates></Point></Placemark>
    <Placemark><name>Location 169</name><Point><coordinates>-121.394,37.431999999999995,0</coordinates></Point></Placemark>
    <Placemark><name>Location 170</name><Point><coordinates>-121.384,37.431999999999995,0</coordinates></Point></Placemark>
    <Placemark><name>Location 171</name><Point><coordinates>-121.37400000000001,37.431999999999995,0</coordinates></Point></Placemark>
    <Placemark><name>Location 172</name><Point><coordinates>-121.364,37.431999999999995,0</coordinates></Point></Placemark>
    <Placemark><name>Location 173</name><Point><coordinates>-121.354,37.431999999999995,0</coordinates></Point></Placemark>
    <Placemark><name>Location 174</name><Point><coordinates>-121.34400000000001,37.431999999999995,0</coordinates></Point></Placemark>
    <Placemark><name>Location 175</name><Point><coordinates>-121.334,37.431999999999995,0</coordinates></Point></Placemark>
    <Placemark><name>Location 176</name><Point><coordinates>-121.324,37.431999999999995,0</coordinates></Point></Placemark>
    <Placemark><name>Location 177</name><Point><coordinates>-121.31400000000001,37.431999999999995,0</coordinates></Point></Placemark>
    <Placemark><name>Location 178</name><Point><coordinates>-121.304,37.431999999999995,0</coordinates></Point></Placemark>
    <Placemark><name>Location 179</name><Point><coordinates>-121.294,37.431999999999995,0</coordinates></Point></Placemark>
    <Placemark><name>Location 180</name><Point><coordinates>-121.284,37.431999999999995,0</coordinates></Point></Placemark>
    <Placemark><name>Location 181</name><Point><coordinates>-121.274,37.431999999999995,0</coordinates></Point></Placemark>
    <Placemark><name>Location 182</name><Point><coordinates>-121.26400000000001,37.431999999999995,0</coordinates></Point></Placemark>
    <Placemark><name>Location 183</name><Point><coordinates>-121.254,37.431999999999995,0</coordinates></Point></Placemark>
    <Placemark><name>Location 184</name><Point><coordinates>-121.244,37.431999999999995,0</coordinates></Point></Placemark>
    <Placemark><name>Location 185</name><Point><coordinates>-121.23400000000001,37.431999999999995,0</coordinates></Point></Placemark>
    <Placemark><name>Location 186</name><Point><coordinates>-121.224,37.431999999999995,0</coordinates></Point></Placemark>
    <Placemark><name>Location 187</name><Point><coordinates>-121.214,37.431999999999995,0</coordinates></Point></Placemark>
    <Placemark><name>Location 188</name><Point><coordinates>-121.20400000000001,37.431999999999995,0</coordinates></Point></Placemark>
    <Placemark><name>Location 189</name><Point><coordinates>-121.194,37.431999999999995,0</coordinates></Point></Placemark>
    <Placemark><name>Location 190</name><Point><coordinates>-121.184,37.431999999999995,0</coordinates></Point></Placemark>
    <Placemark><name>Location 191</name><Point><coordinates>-121.174,37.431999999999995,0</coordinates></Point></Placemark>
    <Placemark><name>Location 192</name><Point><coordinates>-121.164,37.431999999999995,0</coordinates></Point></Placemark>
    <Placemark><name>Location 193</name><Point><coordinates>-121.154,37.431999999999995,0</coordinates></Point></Placemark>
    <Placemark><name>Location 194</name><Point><coordinates>-121.144,37.431999999999995,0</coordinates></Point></Placemark>
    <Placemark><name>Location 195</name><Point><coordinates>-121.134,37.431999999999995,0</coordinates></Point></Placemark>
    <Placemark><name>Location 196</name><Point><coordinates>-121.12400000000001,37.431999999999995,0</coordinates></Point></Placemark>
    <Placemark><name>Location 197</name><Point><coordinates>-121.114,37.431999999999995,0</coordinates></Point></Placemark>
    <Placemark><name>Location 198</name><Point><coordinates>-121.104,37.431999999999995,0</coordinates></Point></Placemark>
    <Placemark><name>Location 199</name><Point><coordinates>-121.09400000000001,37.431999999999995,0</coordinates></Point></Placemark>
    <Placemark><name>Location 200</name><Point><coordinates>-122.084,37.442,0</coordinates></Point></Placemark>
    <Placemark><name>Location 201</name><Point><coordinates>-122.074,37.442,0</coordinates></Point></Placemark>
    <Placemark><name>Location 202</name><Point><coordinates>-122.06400000000001,37.442,0</coordinates></Point></Placemark>
    <Placemark><name>Location 203</name><Point><coordinates>-122.054,37.442,0</coordinates></Point></Placemark>
    <Placemark><name>Location 204</name><Point><coordinates>-122.044,37.442,0</coordinates></Point></Placemark>
    <Placemark><name>Location 205</name><Point><coordinates>-122.034,37.442,0</coordinates></Point></Placemark>
    <Placemark><name>Location 206</name><Point><coordinates>-122.024,37.442,0</coordinates></Point></Placemark>
    <Placemark><name>Location 207</name><Point><coordinates>-122.01400000000001,37.442,0</coordinates></Point></Placemark>
    <Placemark><name>Location 208</name><Point><coordinates>-122.004,37.442,0</coordinates></Point></Placemark>
    <Placemark><name>Location 209</name><Point><coordinates>-121.994,37.442,0</coordinates></Point></Placemark>
    <Placemark><name>Location 210</name><Point><coordinates>-121.98400000000001,37.442,0</coordinates></Point></Placemark>
    <Placemark><name>Location 211</name><Point><coordinates>-121.974,37.442,0</coordinates></Point></Placemark>
    <Placemark><name>Location 212</name><Point><coordinates>-121.964,37.442,0</coordinates></Point></Placemark>
    <Placemark><name>Location 213</name><Point><coordinates>-121.95400000000001,37.442,0</coordinates></Point></Placemark>
    <Placemark><name>Location 214</name><Point><coordinates>-121.944,37.442,0</coordinates></Point></Placemark>
    <Placemark><name>Location 215</name><Point><coordinates>-121.934,37.442,0</coordinates></Point></Placemark>
    <Placemark><name>Location 216</name><Point><coordinates>-121.924,37.442,0</coordinates></Point></Placemark>
    <Placemark><name>Location 217</name><Point><coordinates>-121.914,37.442,0</coordinates></Point></Placemark>
    <Placemark><name>Location 218</name><Point><coordinates>-121.904,37.442,0</coordinates></Point></Placemark>
    <Placemark><name>Location 219</name><Point><coordinates>-121.894,37.442,0</coordinates></Point></Placemark>
    <Placemark><name>Location 220</name><Point><coordinates>-121.884,37.442,0</coordinates></Point></Placemark>
    <Placemark><name>Location 221</name><Point><coordinates>-121.87400000000001,37.442,0</coordinates></Point></Placemark>
    <Placemark><name>Location 222</name><Point><coordinates>-121.864,37.442,0</coordinates></Point></Placemark>
    <Placemark><name>Location 223</name><Point><coordinates>-121.854,37.442,0</coordinates></Point></Placemark>
    <Placemark><name>Location 224</name><Point><coordinates>-121.84400000000001,37.442,0</coordinates></Point></Placemark>
    <Placemark><name>Location 225</name><Point><coordinates>-121.834,37.442,0</coordinates></Point></Placemark>
    <Placemark><name>Location 226</name><Point><coordinates>-121.824,37.442,0</coordinates></Point></Placemark>
    <Placemark><name>Location 227</name><Point><coordinates>-121.81400000000001,37.442,0</coordinates></Point></Placemark>
    <Placemark><name>Location 228</name><Point><coordinates>-121.804,37.442,0</coordinates></Point></Placemark>
    <Placemark><name>Location 229</name><Point><coordinates>-121.794,37.442,0</coordinates></Point></Placemark>
    <Placemark><name>Location 230</name><Point><coordinates>-121.784,37.442,0</coordinates></Point></Placemark>
    <Placemark><name>Location 231</name><Point><coordinates>-121.774,37.442,0</coordinates></Point></Placemark>
    <Placemark><name>Location 232</name><Point><coordinates>-121.76400000000001,37.442,0</coordinates></Point></Placemark>
    <Placemark><name>Location 233</name><Point><coordinates>-121.754,37.442,0</coordinates></Point></Placemark>
    <Placemark><name>Location 234</name><Point><coordinates>-121.744,37.442,0</coordinates></Point></Placemark>
    <Placemark><name>Location 235</name><Point><coordinates>-121.73400000000001,37.442,0</coordinates></Point></Placemark>
    <Placemark><name>Location 236</name><Point><coordinates>-121.724,37.442,0</coordinates></Point></Placemark>
    <Placemark><name>Location 237</name><Point><coordinates>-121.714,37.442,0</coordinates></Point></Placemark>
    <Placemark><name>Location 238</name><Point><coordinates>-121.70400000000001,37.442,0</coordinates></Point></Placemark>
    <Placemark><name>Location 239</name><Point><coordinates>-121.694,37.442,0</coordinates></Point></Placemark>
    <Placemark><name>Location 240</name><Point><coordinates>-121.684,37.442,0</coordinates></Point></Placemark>
    <Placemark><name>Location 241</name><Point><coordinates>-121.674,37.442,0</coordinates></Point></Placemark>
    <Placemark><name>Location 242</name><Point><coordinates>-121.664,37.442,0</coordinates></Point></Placemark>
    <Placemark><name>Location 243</name><Point><coordinates>-121.654,37.442,0</coordinates></Point></Placemark>
    <Placemark><name>Location 244</name><Point><coordinates>-121.644,37.442,0</coordinates></Point></Placemark>
    <Placemark><name>Location 245</name><Point><coordinates>-121.634,37.442,0</coordinates></Point></Placemark>
    <Placemark><name>Location 246</name><Point><coordinates>-121.62400000000001,37.442,0</coordinates></Point></Placemark>
    <Placemark><name>Location 247</name><Point><coordinates>-121.614,37.442,0</coordinates></Point></Placemark>
    <Placemark><name>Location 248</name><Point><coordinates>-121.604,37.442,0</coordinates></Point></Placemark>
    <Placemark><name>Location 249</name><Point><coordinates>-121.59400000000001,37.442,0</coordinates></Point></Placemark>
    <Placemark><name>Location 250</name><Point><coordinates>-121.584,37.442,0</coordinates></Point></Placemark>
    <Placemark><name>Location 251</name><Point><coordinates>-121.574,37.442,0</coordinates></Point></Placemark>
    <Placemark><name>Location 252</name><Point><coordinates>-121.56400000000001,37.442,0</coordinates></Point></Placemark>
    <Placemark><name>Location 253</name><Point><coordinates>-121.554,37.442,0</coordinates></Point></Placemark>
    <Placemark><name>Location 254</name><Point><coordinates>-121.544,37.442,0</coordinates></Point></Placemark>
    <Placemark><name>Location 255</name><Point><coordinates>-121.534,37.442,0</coordinates></Point></Placemark>
    <Placemark><name>Location 256</name><Point><coordinates>-121.524,37.442,0</coordinates></Point></Placemark>
    <Placemark><name>Location 257</name><Point><coordinates>-121.51400000000001,37.442,0</coordinates></Point></Placemark>
    <Placemark><name>Location 258</name><Point><coordinates>-121.504,37.442,0</coordinates></Point></Placemark>
    <Placemark><name>Location 259</name><Point><coordinates>-121.494,37.442,0</coordinates></Point></Placemark>
    <Placemark><name>Location 260</name><Point><coordinates>-121.48400000000001,37.442,0</coordinates></Point></Placemark>
    <Placemark><name>Location 261</name><Point><coordinates>-121.474,37.442,0</coordinates></Point></Placemark>
    <Placemark><name>Location 262</name><Point><coordinates>-121.464,37.442,0</coordinates></Point></Placemark>
    <Placemark><name>Location 263</name><Point><coordinates>-121.45400000000001,37.442,0</coordinates></Point></Placemark>
    <Placemark><name>Location 264</name><Point><coordinates>-121.444,37.442,0</coordinates></Point></Placemark>
    <Placemark><name>Location 265</name><Point><coordinates>-121.434,37.442,0</coordinates></Point></Placemark>
    <Placemark><name>Location 266</name><Point><coordinates>-121.424,37.442,0</coordinates></Point></Placemark>
    <Placemark><name>Location 267</name><Point><coordinates>-121.414,37.442,0</coordinates></Point></Placemark>
    <Placemark><name>Location 268</name><Point><coordinates>-121.404,37.442,0</coordinates></Point></Placemark>
    <Placemark><name>Location 269</name><Point><coordinates>-121.394,37.442,0</coordinates></Point></Placemark>
    <Placemark><name>Location 270</name><Point><coordinates>-121.384,37.442,0</coordinates></Point></Placemark>
    <Placemark><name>Location 271</name><Point><coordinates>-121.37400000000001,37.442,0</coordinates></Point></Placemark>
    <Placemark><name>Location 272</name><Point><coordinates>-121.364,37.442,0</coordinates></Point></Placemark>
    <Placemark><name>Location 273</name><Point><coordinates>-121.354,37.442,0</coordinates></Point></Placemark>
    <Placemark><name>Location 274</name><Point><coordinates>-121.34400000000001,37.442,0</coordinates></Point></Placemark>
    <Placemark><name>Location 275</name><Point><coordinates>-121.334,37.442,0</coordinates></Point></Placemark>
    <Placemark><name>Location 276</name><Point><coordinates>-121.324,37.442,0</coordinates></Point></Placemark>
    <Placemark><name>Location 277</name><Point><coordinates>-121.31400000000001,37.442,0</coordinates></Point></Placemark>
    <Placemark><name>Location 278</name><Point><coordinates>-121.304,37.442,0</coordinates></Point></Placemark>
    <Placemark><name>Location 279</name><Point><coordinates>-121.294,37.442,0</coordinates></Point></Placemark>
    <Placemark><name>Location 280</name><Point><coordinates>-121.284,37.442,0</coordinates></Point></Placemark>
    <Placemark><name>Location 281</name><Point><coordinates>-121.274,37.442,0</coordinates></Point></Placemark>
    <Placemark><name>Location 282</name><Point><coordinates>-121.26400000000001,37.442,0</coordinates></Point></Placemark>
    <Placemark><name>Location 283</name><Point><coordinates>-121.254,37.442,0</coordinates></Point></Placemark>
    <Placemark><name>Location 284</name><Point><coordinates>-121.244,37.442,0</coordinates></Point></Placemark>
    <Placemark><name>Location 285</name><Point><coordinates>-121.23400000000001,37.442,0</coordinates></Point></Placemark>
    <Placemark><name>Location 286</name><Point><coordinates>-121.224,37.442,0</coordinates></Point></Placemark>
    <Placemark><name>Location 287</name><Point><coordinates>-121.214,37.442,0</coordinates></Point></Placemark>
    <Placemark><name>Location 288</name><Point><coordinates>-121.20400000000001,37.442,0</coordinates></Point></Placemark>
    <Placemark><name>Location 289</name><Point><coordinates>-121.194,37.442,0</coordinates></Point></Placemark>
    <Placemark><name>Location 290</name><Point><coordinates>-121.184,37.442,0</coordinates></Point></Placemark>
    <Placemark><name>Location 291</name><Point><coordinates>-121.174,37.442,0</coordinates></Point></Placemark>
    <Placemark><name>Location 292</name><Point><coordinates>-121.164,37.442,0</coordinates></Point></Placemark>
    <Placemark><name>Location 293</name><Point><coordinates>-121.154,37.442,0</coordinates></Point></Placemark>
    <Placemark><name>Location 294</name><Point><coordinates>-121.144,37.442,0</coordinates></Point></Placemark>
    <Placemark><name>Location 295</name><Point><coordinates>-121.134,37.442,0</coordinates></Point></Placemark>
    <Placemark><name>Location 296</name><Point><coordinates>-121.12400000000001,37.442,0</coordinates></Point></Placemark>
    <Placemark><name>Location 297</name><Point><coordinates>-121.114,37.442,0</coordinates></Point></Placemark>
    <Placemark><name>Location 298</name><Point><coordinates>-121.104,37.442,0</coordinates></Point></Placemark>
    <Placemark><name>Location 299</name><Point><coordinates>-121.09400000000001,37.442,0</coordinates></Point></Placemark>
    <Placemark><name>Location 300</name><Point><coordinates>-122.084,37.452,0</coordinates></Point></Placemark>
    <Placemark><name>Location 301</name><Point><coordinates>-122.074,37.452,0</coordinates></Point></Placemark>
    <Placemark><name>Location 302</name><Point><coordinates>-122.06400000000001,37.452,0</coordinates></Point></Placemark>
    <Placemark><name>Location 303</name><Point><coordinates>-122.054,37.452,0</coordinates></Point></Placemark>
    <Placemark><name>Location 304</name><Point><coordinates>-122.044,37.452,0</coordinates></Point></Placemark>
    <Placemark><name>Location 305</name><Point><coordinates>-122.034,37.452,0</coordinates></Point></Placemark>
    <Placemark><name>Location 306</name><Point><coordinates>-122.024,37.452,0</coordinates></Point></Placemark>
    <Placemark><name>Location 307</name><Point><coordinates>-122.01400000000001,37.452,0</coordinates></Point></Placemark>
    <Placemark><name>Location 308</name><Point><coordinates>-122.004,37.452,0</coordinates></Point></Placemark>
    <Placemark><name>Location 309</name><Point><coordinates>-121.994,37.452,0</coordinates></Point></Placemark>
    <Placemark><name>Location 310</name><Point><coordinates>-121.98400000000001,37.452,0</coordinates></Point></Placemark>
    <Placemark><name>Location 311</name><Point><coordinates>-121.974,37.452,0</coordinates></Point></Placemark>
    <Placemark><name>Location 312</name><Point><coordinates>-121.964,37.452,0</coordinates></Point></Placemark>
    <Placemark><name>Location 313</name><Point><coordinates>-121.95400000000001,37.452,0</coordinates></Point></Placemark>
    <Placemark><name>Location 314</name><Point><coordinates>-121.944,37.452,0</coordinates></Point></Placemark>
    <Placemark><name>Location 315</name><Point><coordinates>-121.934,37.452,0</coordinates></Point></Placemark>
    <Placemark><name>Location 316</name><Point><coordinates>-121.924,37.452,0</coordinates></Point></Placemark>
    <Placemark><name>Location 317</name><Point><coordinates>-121.914,37.452,0</coordinates></Point></Placemark>
    <Placemark><name>Location 318</name><Point><coordinates>-121.904,37.452,0</coordinates></Point></Placemark>
    <Placemark><name>Location 319</name><Point><coordinates>-121.894,37.452,0</coordinates></Point></Placemark>
    <Placemark><name>Location 320</name><Point><coordinates>-121.884,37.452,0</coordinates></Point></Placemark>
    <Placemark><name>Location 321</name><Point><coordinates>-121.87400000000001,37.452,0</coordinates></Point></Placemark>
    <Placemark><name>Location 322</name><Point><coordinates>-121.864,37.452,0</coordinates></Point></Placemark>
    <Placemark><name>Location 323</name><Point><coordinates>-121.854,37.452,0</coordinates></Point></Placemark>
    <Placemark><name>Location 324</name><Point><coordinates>-121.84400000000001,37.452,0</coordinates></Point></Placemark>
    <Placemark><name>Location 325</name><Point><coordinates>-121.834,37.452,0</coordinates></Point></Placemark>
    <Placemark><name>Location 326</name><Point><coordinates>-121.824,37.452,0</coordinates></Point></Placemark>
    <Placemark><name>Location 327</name><Point><coordinates>-121.81400000000001,37.452,0</coordinates></Point></Placemark>
    <Placemark><name>Location 328</name><Point><coordinates>-121.804,37.452,0</coordinates></Point></Placemark>
    <Placemark><name>Location 329</name><Point><coordinates>-121.794,37.452,0</coordinates></Point></Placemark>
    <Placemark><name>Location 330</name><Point><coordinates>-121.784,37.452,0</coordinates></Point></Placemark>
    <Placemark><name>Location 331</name><Point><coordinates>-121.774,37.452,0</coordinates></Point></Placemark>
    <Placemark><name>Location 332</name><Point><coordinates>-121.76400000000001,37.452,0</coordinates></Point></Placemark>
    <Placemark><name>Location 333</name><Point><coordinates>-121.754,37.452,0</coordinates></Point></Placemark>
    <Placemark><name>Location 334</name><Point><coordinates>-121.744,37.452,0</coordinates></Point></Placemark>
    <Placemark><name>Location 335</name><Point><coordinates>-121.73400000000001,37.452,0</coordinates></Point></Placemark>
    <Placemark><name>Location 336</name><Point><coordinates>-121.724,37.452,0</coordinates></Point></Placemark>
    <Placemark><name>Location 337</name><Point><coordinates>-121.714,37.452,0</coordinates></Point></Placemark>
    <Placemark><name>Location 338</name><Point><coordinates>-121.70400000000001,37.452,0</coordinates></Point></Placemark>
    <Placemark><name>Location 339</name><Point><coordinates>-121.694,37.452,0</coordinates></Point></Placemark>
    <Placemark><name>Location 340</name><Point><coordinates>-121.684,37.452,0</coordinates></Point></Placemark>
    <Placemark><name>Location 341</name><Point><coordinates>-121.674,37.452,0</coordinates></Point></Placemark>
    <Placemark><name>Location 342</name><Point><coordinates>-121.664,37.452,0</coordinates></Point></Placemark>
    <Placemark><name>Location 343</name><Point><coordinates>-121.654,37.452,0</coordinates></Point></Placemark>
    <Placemark><name>Location 344</name><Point><coordinates>-121.644,37.452,0</coordinates></Point></Placemark>
    <Placemark><name>Location 345</name><Point><coordinates>-121.634,37.452,0</coordinates></Point></Placemark>
    <Placemark><name>Location 346</name><Point><coordinates>-121.62400000000001,37.452,0</coordinates></Point></Placemark>
    <Placemark><name>Location 347</name><Point><coordinates>-121.614,37.452,0</coordinates></Point></Placemark>
    <Placemark><name>Location 348</name><Point><coordinates>-121.604,37.452,0</coordinates></Point></Placemark>
    <Placemark><name>Location 349</name><Point><coordinates>-121.59400000000001,37.452,0</coordinates></Point></Placemark>
    <Placemark><name>Location 350</name><Point><coordinates>-121.584,37.452,0</coordinates></Point></Placemark>
    <Placemark><name>Location 351</name><Point><coordinates>-121.574,37.452,0</coordinates></Point></Placemark>
    <Placemark><name>Location 352</name><Point><coordinates>-121.56400000000001,37.452,0</coordinates></Point></Placemark>
    <Placemark><name>Location 353</name><Point><coordinates>-121.554,37.452,0</coordinates></Point></Placemark>
    <Placemark><name>Location 354</name><Point><coordinates>-121.544,37.452,0</coordinates></Point></Placemark>
    <Placemark><name>Location 355</name><Point><coordinates>-121.534,37.452,0</coordinates></Point></Placemark>
    <Placemark><name>Location 356</name><Point><coordinates>-121.524,37.452,0</coordinates></Point></Placemark>
    <Placemark><name>Location 357</name><Point><coordinates>-121.51400000000001,37.452,0</coordinates></Point></Placemark>
    <Placemark><name>Location 358</name><Point><coordinates>-121.504,37.452,0</coordinates></Point></Placemark>
    <Placemark><name>Location 359</name><Point><coordinates>-121.494,37.452,0</coordinates></Point></Placemark>
    <Placemark><name>Location 360</name><Point><coordinates>-121.48400000000001,37.452,0</coordinates></Point></Placemark>
    <Placemark><name>Location 361</name><Point><coordinates>-121.474,37.452,0</coordinates></Point></Placemark>
    <Placemark><name>Location 362</name><Point><coordinates>-121.464,37.452,0</coordinates></Point></Placemark>
    <Placemark><name>Location 363</name><Point><coordinates>-121.45400000000001,37.452,0</coordinates></Point></Placemark>
    <Placemark><name>Location 364</name><Point><coordinates>-121.444,37.452,0</coordinates></Point></Placemark>
    <Placemark><name>Location 365</name><Point><coordinates>-121.434,37.452,0</coordinates></Point></Placemark>
    <Placemark><name>Location 366</name><Point><coordinates>-121.424,37.452,0</coordinates></Point></Placemark>
    <Placemark><name>Location 367</name><Point><coordinates>-121.414,37.452,0</coordinates></Point></Placemark>
    <Placemark><name>Location 368</name><Point><coordinates>-121.404,37.452,0</coordinates></Point></Placemark>
    <Placemark><name>Location 369</name><Point><coordinates>-121.394,37.452,0</coordinates></Point></Placemark>
    <Placemark><name>Location 370</name><Point><coordinates>-121.384,37.452,0</coordinates></Point></Placemark>
    <Placemark><name>Location 371</name><Point><coordinates>-121.37400000000001,37.452,0</coordinates></Point></Placemark>
    <Placemark><name>Location 372</name><Point><coordinates>-121.364,37.452,0</coordinates></Point></Placemark>
    <Placemark><name>Location 373</name><Point><coordinates>-121.354,37.452,0</coordinates></Point></Placemark>
    <Placemark><name>Location 374</name><Point><coordinates>-121.34400000000001,37.452,0</coordinates></Point></Placemark>
    <Placemark><name>Location 375</name><Point><coordinates>-121.334,37.452,0</coordinates></Point></Placemark>
    <Placemark><name>Location 376</name><Point><coordinates>-121.324,37.452,0</coordinates></Point></Placemark>
    <Placemark><name>Location 377</name><Point><coordinates>-121.31400000000001,37.452,0</coordinates></Point></Placemark>
    <Placemark><name>Location 378</name><Point><coordinates>-121.304,37.452,0</coordinates></Point></Placemark>
    <Placemark><name>Location 379</name><Point><coordinates>-121.294,37.452,0</coordinates></Point></Placemark>
    <Placemark><name>Location 380</name><Point><coordinates>-121.284,37.452,0</coordinates></Point></Placemark>
    <Placemark><name>Location 381</name><Point><coordinates>-121.274,37.452,0</coordinates></Point></Placemark>
    <Placemark><name>Location 382</name><Point><coordinates>-121.26400000000001,37.452,0</coordinates></Point></Placemark>
    <Placemark><name>Location 383</name><Point><coordinates>-121.254,37.452,0</coordinates></Point></Placemark>
    <Placemark><name>Location 384</name><Point><coordinates>-121.244,37.452,0</coordinates></Point></Placemark>
    <Placemark><name>Location 385</name><Point><coordinates>-121.23400000000001,37.452,0</coordinates></Point></Placemark>
    <Placemark><name>Location 386</name><Point><coordinates>-121.224,37.452,0</coordinates></Point></Placemark>
    <Placemark><name>Location 387</name><Point><coordinates>-121.214,37.452,0</coordinates></Point></Placemark>
    <Placemark><name>Location 388</name><Point><coordinates>-121.20400000000001,37.452,0</coordinates></Point></Placemark>
    <Placemark><name>Location 389</name><Point><coordinates>-121.194,37.452,0</coordinates></Point></Placemark>
    <Placemark><name>Location 390</name><Point><coordinates>-121.184,37.452,0</coordinates></Point></Placemark>
    <Placemark><name>Location 391</name><Point><coordinates>-121.174,37.452,0</coordinates></Point></Placemark>
    <Placemark><name>Location 392</name><Point><coordinates>-121.164,37.452,0</coordinates></Point></Placemark>
    <Placemark><name>Location 393</name><Point><coordinates>-121.154,37.452,0</coordinates></Point></Placemark>
    <Placemark><name>Location 394</name><Point><coordinates>-121.144,37.452,0</coordinates></Point></Placemark>
    <Placemark><name>Location 395</name><Point><coordinates>-121.134,37.452,0</coordinates></Point></Placemark>
    <Placemark><name>Location 396</name><Point><coordinates>-121.12400000000001,37.452,0</coordinates></Point></Placemark>
    <Placemark><name>Location 397</name><Point><coordinates>-121.114,37.452,0</coordinates></Point></Placemark>
    <Placemark><name>Location 398</name><Point><coordinates>-121.104,37.452,0</coordinates></Point></Placemark>
    <Placemark><name>Location 399</name><Point><coordinates>-121.09400000000001,37.452,0</coordinates></Point></Placemark>
    <Placemark><name>Location 400</name><Point><coordinates>-122.084,37.461999999999996,0</coordinates></Point></Placemark>
    <Placemark><name>Location 401</name><Point><coordinates>-122.074,37.461999999999996,0</coordinates></Point></Placemark>
    <Placemark><name>Location 402</name><Point><coordinates>-122.06400000000001,37.461999999999996,0</coordinates></Point></Placemark>
    <Placemark><name>Location 403</name><Point><coordinates>-122.054,37.461999999999996,0</coordinates></Point></Placemark>
    <Placemark><name>Location 404</name><Point><coordinates>-122.044,37.461999999999996,0</coordinates></Point></Placemark>
    <Placemark><name>Location 405</name><Point><coordinates>-122.034,37.461999999999996,0</coordinates></Point></Placemark>
    <Placemark><name>Location 406</name><Point><coordinates>-122.024,37.461999999999996,0</coordinates></Point></Placemark>
    <Placemark><name>Location 407</name><Point><coordinates>-122.01400000000001,37.461999999999996,0</coordinates></Point></Placemark>
    <Placemark><name>Location 408</name><Point><coordinates>-122.004,37.461999999999996,0</coordinates></Point></Placemark>
    <Placemark><name>Location 409</name><Point><coordinates>-121.994,37.461999999999996,0</coordinates></Point></Placemark>
    <Placemark><name>Location 410</name><Point><coordinates>-121.98400000000001,37.461999999999996,0</coordinates></Point></Placemark>
    <Placemark><name>Location 411</name><Point><coordinates>-121.974,37.461999999999996,0</coordinates></Point></Placemark>
    <Placemark><name>Location 412</name><Point><coordinates>-121.964,37.461999999999996,0</coordinates></Point></Placemark>
    <Placemark><name>Location 413</name><Point><coordinates>-121.95400000000001,37.461999999999996,0</coordinates></Point></Placemark>
    <Placemark><name>Location 414</name><Point><coordinates>-121.944,37.461999999999996,0</coordinates></Point></Placemark>
    <Placemark><name>Location 415</name><Point><coordinates>-121.934,37.461999999999996,0</coordinates></Point></Placemark>
    <Placemark><name>Location 416</name><Point><coordinates>-121.924,37.461999999999996,0</coordinates></Point></Placemark>
    <Placemark><name>Location 417</name><Point><coordinates>-121.914,37.461999999999996,0</coordinates></Point></Placemark>
    <Placemark><name>Location 418</name><Point><coordinates>-121.904,37.461999999999996,0</coordinates></Point></Placemark>
    <Placemark><name>Location 419</name><Point><coordinates>-121.894,37.461999999999996,0</coordinates></Point></Placemark>
    <Placemark><name>Location 420</name><Point><coordinates>-121.884,37.461999999999996,0</coordinates></Point></Placemark>
    <Placemark><name>Location 421</name><Point><coordinates>-121.87400000000001,37.461999999999996,0</coordinates></Point></Placemark>
    <Placemark><name>Location 422</name><Point><coordinates>-121.864,37.461999999999996,0</coordinates></Point></Placemark>
    <Placemark><name>Location 423</name><Point><coordinates>-121.854,37.461999999999996,0</coordinates></Point></Placemark>
    <Placemark><name>Location 424</name><Point><coordinates>-121.84400000000001,37.461999999999996,0</coordinates></Point></Placemark>
    <Placemark><name>Location 425</name><Point><coordinates>-121.834,37.461999999999996,0</coordinates></Point></Placemark>
    <Placemark><name>Location 426</name><Point><coordinates>-121.824,37.461999999999996,0</coordinates></Point></Placemark>
    <Placemark><name>Location 427</name><Point><coordinates>-121.81400000000001,37.461999999999996,0</coordinates></Point></Placemark>
    <Placemark><name>Location 428</name><Point><coordinates>-121.804,37.461999999999996,0</coordinates></Point></Placemark>
    <Placemark><name>Location 429</name><Point><coordinates>-121.794,37.461999999999996,0</coordinates></Point></Placemark>
    <Placemark><name>Location 430</name><Point><coordinates>-121.784,37.461999999999996,0</coordinates></Point></Placemark>
    <Placemark><name>Location 431</name><Point><coordinates>-121.774,37.461999999999996,0</coordinates></Point></Placemark>
    <Placemark><name>Location 432</name><Point><coordinates>-121.76400000000001,37.461999999999996,0</coordinates></Point></Placemark>
    <Placemark><name>Location 433</name><Point><coordinates>-121.754,37.461999999999996,0</coordinates></Point></Placemark>
    <Placemark><name>Location 434</name><Point><coordinates>-121.744,37.461999999999996,0</coordinates></Point></Placemark>
    <Placemark><name>Location 435</name><Point><coordinates>-121.73400000000001,37.461999999999996,0</coordinates></Point></Placemark>
    <Placemark><name>Location 436</name><Point><coordinates>-121.724,37.461999999999996,0</coordinates></Point></Placemark>
    <Placemark><name>Location 437</name><Point><coordinates>-121.714,37.461999999999996,0</coordinates></Point></Placemark>
    <Placemark><name>Location 438</name><Point><coordinates>-121.70400000000001,37.461999999999996,0</coordinates></Point></Placemark>
    <Placemark><name>Location 439</name><Point><coordinates>-121.694,37.461999999999996,0</coordinates></Point></Placemark>
    <Placemark><name>Location 440</name><Point><coordinates>-121.684,37.461999999999996,0</coordinates></Point></Placemark>
    <Placemark><name>Location 441</name><Point><coordinates>-121.674,37.461999999999996,0</coordinates></Point></Placemark>
    <Placemark><name>Location 442</name><Point><coordinates>-121.664,37.461999999999996,0</coordinates></Point></Placemark>
    <Placemark><name>Location 443</name><Point><coordinates>-121.654,37.461999999999996,0</coordinates></Point></Placemark>
    <Placemark><name>Location 444</name><Point><coordinates>-121.644,37.461999999999996,0</coordinates></Point></Placemark>
    <Placemark><name>Location 445</name><Point><coordinates>-121.634,37.461999999999996,0</coordinates></Point></Placemark>
    <Placemark><name>Location 446</name><Point><coordinates>-121.62400000000001,37.461999999999996,0</coordinates></Point></Placemark>
    <Placemark><name>Location 447</name><Point><coordinates>-121.614,37.461999999999996,0</coordinates></Point></Placemark>
    <Placemark><name>Location 448</name><Point><coordinates>-121.604,37.461999999999996,0</coordinates></Point></Placemark>
    <Placemark><name>Location 449</name><Point><coordinates>-121.59400000000001,37.461999999999996,0</coordinates></Point></Placemark>
    <Placemark><name>Location 450</name><Point><coordinates>-121.584,37.461999999999996,0</coordinates></Point></Placemark>
    <Placemark><name>Location 451</name><Point><coordinates>-121.574,37.461999999999996,0</coordinates></Point></Placemark>
    <Placemark><name>Location 452</name><Point><coordinates>-121.56400000000001,37.461999999999996,0</coordinates></Point></Placemark>
    <Placemark><name>Location 453</name><Point><coordinates>-121.554,37.461999999999996,0</coordinates></Point></Placemark>
    <Placemark><name>Location 454</name><Point><coordinates>-121.544,37.461999999999996,0</coordinates></Point></Placemark>
    <Placemark><name>Location 455</name><Point><coordinates>-121.534,37.461999999999996,0</coordinates></Point></Placemark>
    <Placemark><name>Location 456</name><Point><coordinates>-121.524,37.461999999999996,0</coordinates></Point></Placemark>
    <Placemark><name>Location 457</name><Point><coordinates>-121.51400000000001,37.461999999999996,0</coordinates></Point></Placemark>
    <Placemark><name>Location 458</name><Point><coordinates>-121.504,37.461999999999996,0</coordinates></Point></Placemark>
    <Placemark><name>Location 459</name><Point><coordinates>-121.494,37.461999999999996,0</coordinates></Point></Placemark>
    <Placemark><name>Location 460</name><Point><coordinates>-121.48400000000001,37.461999999999996,0</coordinates></Point></Placemark>
    <Placemark><name>Location 461</name><Point><coordinates>-121.474,37.461999999999996,0</coordinates></Point></Placemark>
    <Placemark><name>Location 462</name><Point><coordinates>-121.464,37.461999999999996,0</coordinates></Point></Placemark>
    <Placemark><name>Location 463</name><Point><coordinates>-121.45400000000001,37.461999999999996,0</coordinates></Point></Placemark>
    <Placemark><name>Location 464</name><Point><coordinates>-121.444,37.461999999999996,0</coordinates></Point></Placemark>
    <Placemark><name>Location 465</name><Point><coordinates>-121.434,37.461999999999996,0</coordinates></Point></Placemark>
    <Placemark><name>Location 466</name><Point><coordinates>-121.424,37.461999999999996,0</coordinates></Point></Placemark>
    <Placemark><name>Location 467</name><Point><coordinates>-121.414,37.461999999999996,0</coordinates></Point></Placemark>
    <Placemark><name>Location 468</name><Point><coordinates>-121.404,37.461999999999996,0</coordinates></Point></Placemark>
    <Placemark><name>Location 469</name><Point><coordinates>-121.394,37.461999999999996,0</coordinates></Point></Placemark>
    <Placemark><name>Location 470</name><Point><coordinates>-121.384,37.461999999999996,0</coordinates></Point></Placemark>
    <Placemark><name>Location 471</name><Point><coordinates>-121.37400000000001,37.461999999999996,0</coordinates></Point></Placemark>
    <Placemark><name>Location 472</name><Point><coordinates>-121.364,37.461999999999996,0</coordinates></Point></Placemark>
    <Placemark><name>Location 473</name><Point><coordinates>-121.354,37.461999999999996,0</coordinates></Point></Placemark>
    <Placemark><name>Location 474</name><Point><coordinates>-121.34400000000001,37.461999999999996,0</coordinates></Point></Placemark>
    <Placemark><name>Location 475</name><Point><coordinates>-121.334,37.461999999999996,0</coordinates></Point></Placemark>
    <Placemark><name>Location 476</name><Point><coordinates>-121.324,37.461999999999996,0</coordinates></Point></Placemark>
    <Placemark><name>Location 477</name><Point><coordinates>-121.31400000000001,37.461999999999996,0</coordinates></Point></Placemark>
    <Placemark><name>Location 478</name><Point><coordinates>-121.304,37.461999999999996,0</coordinates></Point></Placemark>
    <Placemark><name>Location 479</name><Point><coordinates>-121.294,37.461999999999996,0</coordinates></Point></Placemark>
    <Placemark><name>Location 480</name><Point><coordinates>-121.284,37.461999999999996,0</coordinates></Point></Placemark>
    <Placemark><name>Location 481</name><Point><coordinates>-121.274,37.461999999999996,0</coordinates></Point></Placemark>
    <Placemark><name>Location 482</name><Point><coordinates>-121.26400000000001,37.461999999999996,0</coordinates></Point></Placemark>
    <Placemark><name>Location 483</name><Point><coordinates>-121.254,37.461999999999996,0</coordinates></Point></Placemark>
    <Placemark><name>Location 484</name><Point><coordinates>-121.244,37.461999999999996,0</coordinates></Point></Placemark>
    <Placemark><name>Location 485</name><Point><coordinates>-121.23400000000001,37.461999999999996,0</coordinates></Point></Placemark>
    <Placemark><name>Location 486</name><Point><coordinates>-121.224,37.461999999999996,0</coordinates></Point></Placemark>
    <Placemark><name>Location 487</name><Point><coordinates>-121.214,37.461999999999996,0</coordinates></Point></Placemark>
    <Placemark><name>Location 488</name><Point><coordinates>-121.20400000000001,37.461999999999996,0</coordinates></Point></Placemark>
    <Placemark><name>Location 489</name><Point><coordinates>-121.194,37.461999999999996,0</coordinates></Point></Placemark>
    <Placemark><name>Location 490</name><Point><coordinates>-121.184,37.461999999999996,0</coordinates></Point></Placemark>
    <Placemark><name>Location 491</name><Point><coordinates>-121.174,37.461999999999996,0</coordinates></Point></Placemark>
    <Placemark><name>Location 492</name><Point><coordinates>-121.164,37.461999999999996,0</coordinates></Point></Placemark>
    <Placemark><name>Location 493</name><Point><coordinates>-121.154,37.461999999999996,0</coordinates></Point></Placemark>
    <Placemark><name>Location 494</name><Point><coordinates>-121.144,37.461999999999996,0</coordinates></Point></Placemark>
    <Placemark><name>Location 495</name><Point><coordinates>-121.134,37.461999999999996,0</coordinates></Point></Placemark>
    <Placemark><name>Location 496</name><Point><coordinates>-121.12400000000001,37.461999999999996,0</coordinates></Point></Placemark>
    <Placemark><name>Location 497</name><Point><coordinates>-121.114,37.461999999999996,0</coordinates></Point></Placemark>
    <Placemark><name>Location 498</name><Point><coordinates>-121.104,37.461999999999996,0</coordinates></Point></Placemark>
    <Placemark><name>Location 499</name><Point><coordinates>-121.09400000000001,37.461999999999996,0</coordinates></Point></Placemark>
    <Placemark><name>Location 500</name><Point><coordinates>-122.084,37.471999999999994,0</coordinates></Point></Placemark>
    <Placemark><name>Location 501</name><Point><coordinates>-122.074,37.471999999999994,0</coordinates></Point></Placemark>
    <Placemark><name>Location 502</name><Point><coordinates>-122.06400000000001,37.471999999999994,0</coordinates></Point></Placemark>
    <Placemark><name>Location 503</name><Point><coordinates>-122.054,37.471999999999994,0</coordinates></Point></Placemark>
    <Placemark><name>Location 504</name><Point><coordinates>-122.044,37.471999999999994,0</coordinates></Point></Placemark>
    <Placemark><name>Location 505</name><Point><coordinates>-122.034,37.471999999999994,0</coordinates></Point></Placemark>
    <Placemark><name>Location 506</name><Point><coordinates>-122.024,37.471999999999994,0</coordinates></Point></Placemark>
    <Placemark><name>Location 507</name><Point><coordinates>-122.01400000000001,37.471999999999994,0</coordinates></Point></Placemark>
    <Placemark><name>Location 508</name><Point><coordinates>-122.004,37.471999999999994,0</coordinates></Point></Placemark>
    <Placemark><name>Location 509</name><Point><coordinates>-121.994,37.471999999999994,0</coordinates></Point></Placemark>
    <Placemark><name>Location 510</name><Point><coordinates>-121.98400000000001,37.471999999999994,0</coordinates></Point></Placemark>
    <Placemark><name>Location 511</name><Point><coordinates>-121.974,37.471999999999994,0</coordinates></Point></Placemark>
    <Placemark><name>Location 512</name><Point><coordinates>-121.964,37.471999999999994,0</coordinates></Point></Placemark>
    <Placemark><name>Location 513</name><Point><coordinates>-121.95400000000001,37.471999999999994,0</coordinates></Point></Placemark>
    <Placemark><name>Location 514</name><Point><coordinates>-121.944,37.471999999999994,0</coordinates></Point></Placemark>
    <Placemark><name>Location 515</name><Point><coordinates>-121.934,37.471999999999994,0</coordinates></Point></Placemark>
    <Placemark><name>Location 516</name><Point><coordinates>-121.924,37.471999999999994,0</coordinates></Point></Placemark>
    <Placemark><name>Location 517</name><Point><coordinates>-121.914,37.471999999999994,0</coordinates></Point></Placemark>
    <Placemark><name>Location 518</name><Point><coordinates>-121.904,37.471999999999994,0</coordinates></Point></Placemark>
    <Placemark><name>Location 519</name><Point><coordinates>-121.894,37.471999999999994,0</coordinates></Point></Placemark>
    <Placemark><name>Location 520</name><Point><coordinates>-121.884,37.471999999999994,0</coordinates></Point></Placemark>
    <Placemark><name>Location 521</name><Point><coordinates>-121.87400000000001,37.471999999999994,0</coordinates></Point></Placemark>
    <Placemark><name>Location 522</name><Point><coordinates>-121.864,37.471999999999994,0</coordinates></Point></Placemark>
    <Placemark><name>Location 523</name><Point><coordinates>-121.854,37.471999999999994,0</coordinates></Point></Placemark>
    <Placemark><name>Location 524</name><Point><coordinates>-121.84400000000001,37.471999999999994,0</coordinates></Point></Placemark>
    <Placemark><name>Location 525</name><Point><coordinates>-121.834,37.471999999999994,0</coordinates></Point></Placemark>
    <Placemark><name>Location 526</name><Point><coordinates>-121.824,37.471999999999994,0</coordinates></Point></Placemark>
    <Placemark><name>Location 527</name><Point><coordinates>-121.81400000000001,37.471999999999994,0</coordinates></Point></Placemark>
    <Placemark><name>Location 528</name><Point><coordinates>-121.804,37.471999999999994,0</coordinates></Point></Placemark>
    <Placemark><name>Location 529</name><Point><coordinates>-121.794,37.471999999999994,0</coordinates></Point></Placemark>
    <Placemark><name>Location 530</name><Point><coordinates>-121.784,37.471999999999994,0</coordinates></Point></Placemark>
    <Placemark><name>Location 531</name><Point><coordinates>-121.774,37.471999999999994,0</coordinates></Point></Placemark>
    <Placemark><name>Location 532</name><Point><coordinates>-121.76400000000001,37.471999999999994,0</coordinates></Point></Placemark>
    <Placemark><name>Location 533</name><Point><coordinates>-121.754,37.471999999999994,0</coordinates></Point></Placemark>
    <Placemark><name>Location 534</name><Point><coordinates>-121.744,37.471999999999994,0</coordinates></Point></Placemark>
    <Placemark><name>Location 535</name><Point><coordinates>-121.73400000000001,37.471999999999994,0</coordinates></Point></Placemark>
    <Placemark><name>Location 536</name><Point><coordinates>-121.724,37.471999999999994,0</coordinates></Point></Placemark>
    <Placemark><name>Location 537</name><Point><coordinates>-121.714,37.471999999999994,0</coordinates></Point></Placemark>
    <Placemark><name>Location 538</name><Point><coordinates>-121.70400000000001,37.471999999999994,0</coordinates></Point></Placemark>
    <Placemark><name>Location 539</name><Point><coordinates>-121.694,37.471999999999994,0</coordinates></Point></Placemark>
    <Placemark><name>Location 540</name><Point><coordinates>-121.684,37.471999999999994,0</coordinates></Point></Placemark>
    <Placemark><name>Location 541</name><Point><coordinates>-121.674,37.471999999999994,0</coordinates></Point></Placemark>
    <Placemark><name>Location 542</name><Point><coordinates>-121.664,37.471999999999994,0</coordinates></Point></Placemark>
    <Placemark><name>Location 543</name><Point><coordinates>-121.654,37.471999999999994,0</coordinates></Point></Placemark>
    <Placemark><name>Location 544</name><Point><coordinates>-121.644,37.471999999999994,0</coordinates></Point></Placemark>
    <Placemark><name>Location 545</name><Point><coordinates>-121.634,37.471999999999994,0</coordinates></Point></Placemark>
    <Placemark><name>Location 546</name><Point><coordinates>-121.62400000000001,37.471999999999994,0</coordinates></Point></Placemark>
    <Placemark><name>Location 547</name><Point><coordinates>-121.614,37.471999999999994,0</coordinates></Point></Placemark>
    <Placemark><name>Location 548</name><Point><coordinates>-121.604,37.471999999999994,0</coordinates></Point></Placemark>
    <Placemark><name>Location 549</name><Point><coordinates>-121.59400000000001,37.471999999999994,0</coordinates></Point></Placemark>
    <Placemark><name>Location 550</name><Point><coordinates>-121.584,37.471999999999994,0</coordinates></Point></Placemark>
    <Placemark><name>Location 551</name><Point><coordinates>-121.574,37.471999999999994,0</coordinates></Point></Placemark>
    <Placemark><name>Location 552</name><Point><coordinates>-121.56400000000001,37.471999999999994,0</coordinates></Point></Placemark>
    <Placemark><name>Location 553</name><Point><coordinates>-121.554,37.471999999999994,0</coordinates></Point></Placemark>
    <Placemark><name>Location 554</name><Point><coordinates>-121.544,37.471999999999994,0</coordinates></Point></Placemark>
    <Placemark><name>Location 555</name><Point><coordinates>-121.534,37.471999999999994,0</coordinates></Point></Placemark>
    <Placemark><name>Location 556</name><Point><coordinates>-121.524,37.471999999999994,0</coordinates></Point></Placemark>
    <Placemark><name>Location 557</name><Point><coordinates>-121.51400000000001,37.471999999999994,0</coordinates></Point></Placemark>
    <Placemark><name>Location 558</name><Point><coordinates>-121.504,37.471999999999994,0</coordinates></Point></Placemark>
    <Placemark><name>Location 559</name><Point><coordinates>-121.494,37.471999999999994,0</coordinates></Point></Placemark>
    <Placemark><name>Location 560</name><Point><coordinates>-121.48400000000001,37.471999999999994,0</coordinates></Point></Placemark>
    <Placemark><name>Location 561</name><Point><coordinates>-121.474,37.471999999999994,0</coordinates></Point></Placemark>
    <Placemark><name>Location 562</name><Point><coordinates>-121.464,37.471999999999994,0</coordinates></Point></Placemark>
    <Placemark><name>Location 563</name><Point><coordinates>-121.45400000000001,37.471999999999994,0</coordinates></Point></Placemark>
    <Placemark><name>Location 564</name><Point><coordinates>-121.444,37.471999999999994,0</coordinates></Point></Placemark>
    <Placemark><name>Location 565</name><Point><coordinates>-121.434,37.471999999999994,0</coordinates></Point></Placemark>
    <Placemark><name>Location 566</name><Point><coordinates>-121.424,37.471999999999994,0</coordinates></Point></Placemark>
    <Placemark><name>Location 567</name><Point><coordinates>-121.414,37.471999999999994,0</coordinates></Point></Placemark>
    <Placemark><name>Location 568</name><Point><coordinates>-121.404,37.471999999999994,0</coordinates></Point></Placemark>
    <Placemark><name>Location 569</name><Point><coordinates>-121.394,37.471999999999994,0</coordinates></Point></Placemark>
    <Placemark><name>Location 570</name><Point><coordinates>-121.384,37.471999999999994,0</coordinates></Point></Placemark>
    <Placemark><name>Location 571</name><Point><coordinates>-121.37400000000001,37.471999999999994,0</coordinates></Point></Placemark>
    <Placemark><name>Location 572</name><Point><coordinates>-121.364,37.471999999999994,0</coordinates></Point></Placemark>
    <Placemark><name>Location 573</name><Point><coordinates>-121.354,37.471999999999994,0</coordinates></Point></Placemark>
    <Placemark><name>Location 574</name><Point><coordinates>-121.34400000000001,37.471999999999994,0</coordinates></Point></Placemark>
    <Placemark><name>Location 575</name><Point><coordinates>-121.334,37.471999999999994,0</coordinates></Point></Placemark>
    <Placemark><name>Location 576</name><Point><coordinates>-121.324,37.471999999999994,0</coordinates></Point></Placemark>
    <Placemark><name>Location 577</name><Point><coordinates>-121.31400000000001,37.471999999999994,0</coordinates></Point></Placemark>
    <Placemark><name>Location 578</name><Point><coordinates>-121.304,37.471999999999994,0</coordinates></Point></Placemark>
    <Placemark><name>Location 579</name><Point><coordinates>-121.294,37.471999999999994,0</coordinates></Point></Placemark>
    <Placemark><name>Location 580</name><Point><coordinates>-121.284,37.471999999999994,0</coordinates></Point></Placemark>
    <Placemark><name>Location 581</name><Point><coordinates>-121.274,37.471999999999994,0</coordinates></Point></Placemark>
    <Placemark><name>Location 582</name><Point><coordinates>-121.26400000000001,37.471999999999994,0</coordinates></Point></Placemark>
    <Placemark><name>Location 583</name><Point><coordinates>-121.254,37.471999999999994,0</coordinates></Point></Placemark>
    <Placemark><name>Location 584</name><Point><coordinates>-121.244,37.471999999999994,0</coordinates></Point></Placemark>
    <Placemark><name>Location 585</name><Point><coordinates>-121.23400000000001,37.471999999999994,0</coordinates></Point></Placemark>
    <Placemark><name>Location 586</name><Point><coordinates>-121.224,37.471999999999994,0</coordinates></Point></Placemark>
    <Placemark><name>Location 587</name><Point><coordinates>-121.214,37.471999999999994,0</coordinates></Point></Placemark>
    <Placemark><name>Location 588</name><Point><coordinates>-121.20400000000001,37.471999999999994,0</coordinates></Point></Placemark>
    <Placemark><name>Location 589</name><Point><coordinates>-121.194,37.471999999999994,0</coordinates></Point></Placemark>
    <Placemark><name>Location 590</name><Point><coordinates>-121.184,37.471999999999994,0</coordinates></Point></Placemark>
    <Placemark><name>Location 591</name><Point><coordinates>-121.174,37.471999999999994,0</coordinates></Point></Placemark>
    <Placemark><name>Location 592</name><Point><coordinates>-121.164,37.471999999999994,0</coordinates></Point></Placemark>
    <Placemark><name>Location 593</name><Point><coordinates>-121.154,37.471999999999994,0</coordinates></Point></Placemark>
    <Placemark><name>Location 594</name><Point><coordinates>-121.144,37.471999999999994,0</coordinates></Point></Placemark>
    <Placemark><name>Location 595</name><Point><coordinates>-121.134,37.471999999999994,0</coordinates></Point></Placemark>
    <Placemark><name>Location 596</name><Point><coordinates>-121.12400000000001,37.471999999999994,0</coordinates></Point></Placemark>
    <Placemark><name>Location 597</name><Point><coordinates>-121.114,37.471999999999994,0</coordinates></Point></Placemark>
    <Placemark><name>Location 598</name><Point><coordinates>-121.104,37.471999999999994,0</coordinates></Point></Placemark>
    <Placemark><name>Location 599</name><Point><coordinates>-121.09400000000001,37.471999999999994,0</coordinates></Point></Placemark>
  </Document>
</kml>
