{"type": "Topology", "objects": {"sample": {"type": "GeometryCollection", "geometries": [{"type": "Point", "coordinates": [-122.084, 37.422], "properties": {"name": "Location 0"}}, {"type": "Point", "coordinates": [-122.074, 37.422], "properties": {"name": "Location 1"}}, {"type": "Point", "coordinates": [-122.06400000000001, 37.422], "properties": {"name": "Location 2"}}, {"type": "Point", "coordinates": [-122.054, 37.422], "properties": {"name": "Location 3"}}, {"type": "Point", "coordinates": [-122.044, 37.422], "properties": {"name": "Location 4"}}, {"type": "Point", "coordinates": [-122.034, 37.422], "properties": {"name": "Location 5"}}, {"type": "Point", "coordinates": [-122.024, 37.422], "properties": {"name": "Location 6"}}, {"type": "Point", "coordinates": [-122.01400000000001, 37.422], "properties": {"name": "Location 7"}}, {"type": "Point", "coordinates": [-122.004, 37.422], "properties": {"name": "Location 8"}}, {"type": "Point", "coordinates": [-121.994, 37.422], "properties": {"name": "Location 9"}}, {"type": "Point", "coordinates": [-121.98400000000001, 37.422], "properties": {"name": "Location 10"}}, {"type": "Point", "coordinates": [-121.974, 37.422], "properties": {"name": "Location 11"}}, {"type": "Point", "coordinates": [-121.964, 37.422], "properties": {"name": "Location 12"}}, {"type": "Point", "coordinates": [-121.95400000000001, 37.422], "properties": {"name": "Location 13"}}, {"type": "Point", "coordinates": [-121.944, 37.422], "properties": {"name": "Location 14"}}, {"type": "Point", "coordinates": [-121.934, 37.422], "properties": {"name": "Location 15"}}, {"type": "Point", "coordinates": [-121.924, 37.422], "properties": {"name": "Location 16"}}, {"type": "Point", "coordinates": [-121.914, 37.422], "properties": {"name": "Location 17"}}, {"type": "Point", "coordinates": [-121.904, 37.422], "properties": {"name": "Location 18"}}, {"type": "Point", "coordinates": [-121.894, 37.422], "properties": {"name": "Location 19"}}, {"type": "Point", "coordinates": [-121.884, 37.422], "properties": {"name": "Location 20"}}, {"type": "Point", "coordinates": [-121.87400000000001, 37.422], "properties": {"name": "Location 21"}}, {"type": "Point", "coordinates": [-121.864, 37.422], "properties": {"name": "Location 22"}}, {"type": "Point", "coordinates": [-121.854, 37.422], "properties": {"name": "Location 23"}}, {"type": "Point", "coordinates": [-121.84400000000001, 37.422], "properties": {"name": "Location 24"}}, {"type": "Point", "coordinates": [-121.834, 37.422], "properties": {"name": "Location 25"}}, {"type": "Point", "coordinates": [-121.824, 37.422], "properties": {"name": "Location 26"}}, {"type": "Point", "coordinates": [-121.81400000000001, 37.422], "properties": {"name": "Location 27"}}, {"type": "Point", "coordinates": [-121.804, 37.422], "properties": {"name": "Location 28"}}, {"type": "Point", "coordinates": [-121.794, 37.422], "properties": {"name": "Location 29"}}, {"type": "Point", "coordinates": [-121.784, 37.422], "properties": {"name": "Location 30"}}, {"type": "Point", "coordinates": [-121.774, 37.422], "properties": {"name": "Location 31"}}, {"type": "Point", "coordinates": [-121.76400000000001, 37.422], "properties": {"name": "Location 32"}}, {"type": "Point", "coordinates": [-121.754, 37.422], "properties": {"name": "Location 33"}}, {"type": "Point", "coordinates": [-121.744, 37.422], "properties": {"name": "Location 34"}}, {"type": "Point", "coordinates": [-121.73400000000001, 37.422], "properties": {"name": "Location 35"}}, {"type": "Point", "coordinates": [-121.724, 37.422], "properties": {"name": "Location 36"}}, {"type": "Point", "coordinates": [-121.714, 37.422], "properties": {"name": "Location 37"}}, {"type": "Point", "coordinates": [-121.70400000000001, 37.422], "properties": {"name": "Location 38"}}, {"type": "Point", "coordinates": [-121.694, 37.422], "properties": {"name": "Location 39"}}, {"type": "Point", "coordinates": [-121.684, 37.422], "properties": {"name": "Location 40"}}, {"type": "Point", "coordinates": [-121.674, 37.422], "properties": {"name": "Location 41"}}, {"type": "Point", "coordinates": [-121.664, 37.422], "properties": {"name": "Location 42"}}, {"type": "Point", "coordinates": [-121.654, 37.422], "properties": {"name": "Location 43"}}, {"type": "Point", "coordinates": [-121.644, 37.422], "properties": {"name": "Location 44"}}, {"type": "Point", "coordinates": [-121.634, 37.422], "properties": {"name": "Location 45"}}, {"type": "Point", "coordinates": [-121.62400000000001, 37.422], "properties": {"name": "Location 46"}}, {"type": "Point", "coordinates": [-121.614, 37.422], "properties": {"name": "Location 47"}}, {"type": "Point", "coordinates": [-121.604, 37.422], "properties": {"name": "Location 48"}}, {"type": "Point", "coordinates": [-121.59400000000001, 37.422], "properties": {"name": "Location 49"}}, {"type": "Point", "coordinates": [-121.584, 37.422], "properties": {"name": "Location 50"}}, {"type": "Point", "coordinates": [-121.574, 37.422], "properties": {"name": "Location 51"}}, {"type": "Point", "coordinates": [-121.56400000000001, 37.422], "properties": {"name": "Location 52"}}, {"type": "Point", "coordinates": [-121.554, 37.422], "properties": {"name": "Location 53"}}, {"type": "Point", "coordinates": [-121.544, 37.422], "properties": {"name": "Location 54"}}, {"type": "Point", "coordinates": [-121.534, 37.422], "properties": {"name": "Location 55"}}, {"type": "Point", "coordinates": [-121.524, 37.422], "properties": {"name": "Location 56"}}, {"type": "Point", "coordinates": [-121.51400000000001, 37.422], "properties": {"name": "Location 57"}}, {"type": "Point", "coordinates": [-121.504, 37.422], "properties": {"name": "Location 58"}}, {"type": "Point", "coordinates": [-121.494, 37.422], "properties": {"name": "Location 59"}}, {"type": "Point", "coordinates": [-121.48400000000001, 37.422], "properties": {"name": "Location 60"}}, {"type": "Point", "coordinates": [-121.474, 37.422], "properties": {"name": "Location 61"}}, {"type": "Point", "coordinates": [-121.464, 37.422], "properties": {"name": "Location 62"}}, {"type": "Point", "coordinates": [-121.45400000000001, 37.422], "properties": {"name": "Location 63"}}, {"type": "Point", "coordinates": [-121.444, 37.422], "properties": {"name": "Location 64"}}, {"type": "Point", "coordinates": [-121.434, 37.422], "properties": {"name": "Location 65"}}, {"type": "Point", "coordinates": [-121.424, 37.422], "properties": {"name": "Location 66"}}, {"type": "Point", "coordinates": [-121.414, 37.422], "properties": {"name": "Location 67"}}, {"type": "Point", "coordinates": [-121.404, 37.422], "properties": {"name": "Location 68"}}, {"type": "Point", "coordinates": [-121.394, 37.422], "properties": {"name": "Location 69"}}, {"type": "Point", "coordinates": [-121.384, 37.422], "properties": {"name": "Location 70"}}, {"type": "Point", "coordinates": [-121.37400000000001, 37.422], "properties": {"name": "Location 71"}}, {"type": "Point", "coordinates": [-121.364, 37.422], "properties": {"name": "Location 72"}}, {"type": "Point", "coordinates": [-121.354, 37.422], "properties": {"name": "Location 73"}}, {"type": "Point", "coordinates": [-121.34400000000001, 37.422], "properties": {"name": "Location 74"}}, {"type": "Point", "coordinates": [-121.334, 37.422], "properties": {"name": "Location 75"}}, {"type": "Point", "coordinates": [-121.324, 37.422], "properties": {"name": "Location 76"}}, {"type": "Point", "coordinates": [-121.31400000000001, 37.422], "properties": {"name": "Location 77"}}, {"type": "Point", "coordinates": [-121.304, 37.422], "properties": {"name": "Location 78"}}, {"type": "Point", "coordinates": [-121.294, 37.422], "properties": {"name": "Location 79"}}, {"type": "Point", "coordinates": [-121.284, 37.422], "properties": {"name": "Location 80"}}, {"type": "Point", "coordinates": [-121.274, 37.422], "properties": {"name": "Location 81"}}, {"type": "Point", "coordinates": [-121.26400000000001, 37.422], "properties": {"name": "Location 82"}}, {"type": "Point", "coordinates": [-121.254, 37.422], "properties": {"name": "Location 83"}}, {"type": "Point", "coordinates": [-121.244, 37.422], "properties": {"name": "Location 84"}}, {"type": "Point", "coordinates": [-121.23400000000001, 37.422], "properties": {"name": "Location 85"}}, {"type": "Point", "coordinates": [-121.224, 37.422], "properties": {"name": "Location 86"}}, {"type": "Point", "coordinates": [-121.214, 37.422], "properties": {"name": "Location 87"}}, {"type": "Point", "coordinates": [-121.20400000000001, 37.422], "properties": {"name": "Location 88"}}, {"type": "Point", "coordinates": [-121.194, 37.422], "properties": {"name": "Location 89"}}, {"type": "Point", "coordinates": [-121.184, 37.422], "properties": {"name": "Location 90"}}, {"type": "Point", "coordinates": [-121.174, 37.422], "properties": {"name": "Location 91"}}, {"type": "Point", "coordinates": [-121.164, 37.422], "properties": {"name": "Location 92"}}, {"type": "Point", "coordinates": [-121.154, 37.422], "properties": {"name": "Location 93"}}, {"type": "Point", "coordinates": [-121.144, 37.422], "properties": {"name": "Location 94"}}, {"type": "Point", "coordinates": [-121.134, 37.422], "properties": {"name": "Location 95"}}, {"type": "Point", "coordinates": [-121.12400000000001, 37.422], "properties": {"name": "Location 96"}}, {"type": "Point", "coordinates": [-121.114, 37.422], "properties": {"name": "Location 97"}}, {"type": "Point", "coordinates": [-121.104, 37.422], "properties": {"name": "Location 98"}}, {"type": "Point", "coordinates": [-121.09400000000001, 37.422], "properties": {"name": "Location 99"}}, {"type": "Point", "coordinates": [-122.084, 37.431999999999995], "properties": {"name": "Location 100"}}, {"type": "Point", "coordinates": [-122.074, 37.431999999999995], "properties": {"name": "Location 101"}}, {"type": "Point", "coordinates": [-122.06400000000001, 37.431999999999995], "properties": {"name": "Location 102"}}, {"type": "Point", "coordinates": [-122.054, 37.431999999999995], "properties": {"name": "Location 103"}}, {"type": "Point", "coordinates": [-122.044, 37.431999999999995], "properties": {"name": "Location 104"}}, {"type": "Point", "coordinates": [-122.034, 37.431999999999995], "properties": {"name": "Location 105"}}, {"type": "Point", "coordinates": [-122.024, 37.431999999999995], "properties": {"name": "Location 106"}}, {"type": "Point", "coordinates": [-122.01400000000001, 37.431999999999995], "properties": {"name": "Location 107"}}, {"type": "Point", "coordinates": [-122.004, 37.431999999999995], "properties": {"name": "Location 108"}}, {"type": "Point", "coordinates": [-121.994, 37.431999999999995], "properties": {"name": "Location 109"}}, {"type": "Point", "coordinates": [-121.98400000000001, 37.431999999999995], "properties": {"name": "Location 110"}}, {"type": "Point", "coordinates": [-121.974, 37.431999999999995], "properties": {"name": "Location 111"}}, {"type": "Point", "coordinates": [-121.964, 37.431999999999995], "properties": {"name": "Location 112"}}, {"type": "Point", "coordinates": [-121.95400000000001, 37.431999999999995], "properties": {"name": "Location 113"}}, {"type": "Point", "coordinates": [-121.944, 37.431999999999995], "properties": {"name": "Location 114"}}, {"type": "Point", "coordinates": [-121.934, 37.431999999999995], "properties": {"name": "Location 115"}}, {"type": "Point", "coordinates": [-121.924, 37.431999999999995], "properties": {"name": "Location 116"}}, {"type": "Point", "coordinates": [-121.914, 37.431999999999995], "properties": {"name": "Location 117"}}, {"type": "Point", "coordinates": [-121.904, 37.431999999999995], "properties": {"name": "Location 118"}}, {"type": "Point", "coordinates": [-121.894, 37.431999999999995], "properties": {"name": "Location 119"}}, {"type": "Point", "coordinates": [-121.884, 37.431999999999995], "properties": {"name": "Location 120"}}, {"type": "Point", "coordinates": [-121.87400000000001, 37.431999999999995], "properties": {"name": "Location 121"}}, {"type": "Point", "coordinates": [-121.864, 37.431999999999995], "properties": {"name": "Location 122"}}, {"type": "Point", "coordinates": [-121.854, 37.431999999999995], "properties": {"name": "Location 123"}}, {"type": "Point", "coordinates": [-121.84400000000001, 37.431999999999995], "properties": {"name": "Location 124"}}, {"type": "Point", "coordinates": [-121.834, 37.431999999999995], "properties": {"name": "Location 125"}}, {"type": "Point", "coordinates": [-121.824, 37.431999999999995], "properties": {"name": "Location 126"}}, {"type": "Point", "coordinates": [-121.81400000000001, 37.431999999999995], "properties": {"name": "Location 127"}}, {"type": "Point", "coordinates": [-121.804, 37.431999999999995], "properties": {"name": "Location 128"}}, {"type": "Point", "coordinates": [-121.794, 37.431999999999995], "properties": {"name": "Location 129"}}, {"type": "Point", "coordinates": [-121.784, 37.431999999999995], "properties": {"name": "Location 130"}}, {"type": "Point", "coordinates": [-121.774, 37.431999999999995], "properties": {"name": "Location 131"}}, {"type": "Point", "coordinates": [-121.76400000000001, 37.431999999999995], "properties": {"name": "Location 132"}}, {"type": "Point", "coordinates": [-121.754, 37.431999999999995], "properties": {"name": "Location 133"}}, {"type": "Point", "coordinates": [-121.744, 37.431999999999995], "properties": {"name": "Location 134"}}, {"type": "Point", "coordinates": [-121.73400000000001, 37.431999999999995], "properties": {"name": "Location 135"}}, {"type": "Point", "coordinates": [-121.724, 37.431999999999995], "properties": {"name": "Location 136"}}, {"type": "Point", "coordinates": [-121.714, 37.431999999999995], "properties": {"name": "Location 137"}}, {"type": "Point", "coordinates": [-121.70400000000001, 37.431999999999995], "properties": {"name": "Location 138"}}, {"type": "Point", "coordinates": [-121.694, 37.431999999999995], "properties": {"name": "Location 139"}}, {"type": "Point", "coordinates": [-121.684, 37.431999999999995], "properties": {"name": "Location 140"}}, {"type": "Point", "coordinates": [-121.674, 37.431999999999995], "properties": {"name": "Location 141"}}, {"type": "Point", "coordinates": [-121.664, 37.431999999999995], "properties": {"name": "Location 142"}}, {"type": "Point", "coordinates": [-121.654, 37.431999999999995], "properties": {"name": "Location 143"}}, {"type": "Point", "coordinates": [-121.644, 37.431999999999995], "properties": {"name": "Location 144"}}, {"type": "Point", "coordinates": [-121.634, 37.431999999999995], "properties": {"name": "Location 145"}}, {"type": "Point", "coordinates": [-121.62400000000001, 37.431999999999995], "properties": {"name": "Location 146"}}, {"type": "Point", "coordinates": [-121.614, 37.431999999999995], "properties": {"name": "Location 147"}}, {"type": "Point", "coordinates": [-121.604, 37.431999999999995], "properties": {"name": "Location 148"}}, {"type": "Point", "coordinates": [-121.59400000000001, 37.431999999999995], "properties": {"name": "Location 149"}}, {"type": "Point", "coordinates": [-121.584, 37.431999999999995], "properties": {"name": "Location 150"}}, {"type": "Point", "coordinates": [-121.574, 37.431999999999995], "properties": {"name": "Location 151"}}, {"type": "Point", "coordinates": [-121.56400000000001, 37.431999999999995], "properties": {"name": "Location 152"}}, {"type": "Point", "coordinates": [-121.554, 37.431999999999995], "properties": {"name": "Location 153"}}, {"type": "Point", "coordinates": [-121.544, 37.431999999999995], "properties": {"name": "Location 154"}}, {"type": "Point", "coordinates": [-121.534, 37.431999999999995], "properties": {"name": "Location 155"}}, {"type": "Point", "coordinates": [-121.524, 37.431999999999995], "properties": {"name": "Location 156"}}, {"type": "Point", "coordinates": [-121.51400000000001, 37.431999999999995], "properties": {"name": "Location 157"}}, {"type": "Point", "coordinates": [-121.504, 37.431999999999995], "properties": {"name": "Location 158"}}, {"type": "Point", "coordinates": [-121.494, 37.431999999999995], "properties": {"name": "Location 159"}}, {"type": "Point", "coordinates": [-121.48400000000001, 37.431999999999995], "properties": {"name": "Location 160"}}, {"type": "Point", "coordinates": [-121.474, 37.431999999999995], "properties": {"name": "Location 161"}}, {"type": "Point", "coordinates": [-121.464, 37.431999999999995], "properties": {"name": "Location 162"}}, {"type": "Point", "coordinates": [-121.45400000000001, 37.431999999999995], "properties": {"name": "Location 163"}}, {"type": "Point", "coordinates": [-121.444, 37.431999999999995], "properties": {"name": "Location 164"}}, {"type": "Point", "coordinates": [-121.434, 37.431999999999995], "properties": {"name": "Location 165"}}, {"type": "Point", "coordinates": [-121.424, 37.431999999999995], "properties": {"name": "Location 166"}}, {"type": "Point", "coordinates": [-121.414, 37.431999999999995], "properties": {"name": "Location 167"}}, {"type": "Point", "coordinates": [-121.404, 37.431999999999995], "properties": {"name": "Location 168"}}, {"type": "Point", "coordinates": [-121.394, 37.431999999999995], "properties": {"name": "Location 169"}}, {"type": "Point", "coordinates": [-121.384, 37.431999999999995], "properties": {"name": "Location 170"}}, {"type": "Point", "coordinates": [-121.37400000000001, 37.431999999999995], "properties": {"name": "Location 171"}}, {"type": "Point", "coordinates": [-121.364, 37.431999999999995], "properties": {"name": "Location 172"}}, {"type": "Point", "coordinates": [-121.354, 37.431999999999995], "properties": {"name": "Location 173"}}, {"type": "Point", "coordinates": [-121.34400000000001, 37.431999999999995], "properties": {"name": "Location 174"}}, {"type": "Point", "coordinates": [-121.334, 37.431999999999995], "properties": {"name": "Location 175"}}, {"type": "Point", "coordinates": [-121.324, 37.431999999999995], "properties": {"name": "Location 176"}}, {"type": "Point", "coordinates": [-121.31400000000001, 37.431999999999995], "properties": {"name": "Location 177"}}, {"type": "Point", "coordinates": [-121.304, 37.431999999999995], "properties": {"name": "Location 178"}}, {"type": "Point", "coordinates": [-121.294, 37.431999999999995], "properties": {"name": "Location 179"}}, {"type": "Point", "coordinates": [-121.284, 37.431999999999995], "properties": {"name": "Location 180"}}, {"type": "Point", "coordinates": [-121.274, 37.431999999999995], "properties": {"name": "Location 181"}}, {"type": "Point", "coordinates": [-121.26400000000001, 37.431999999999995], "properties": {"name": "Location 182"}}, {"type": "Point", "coordinates": [-121.254, 37.431999999999995], "properties": {"name": "Location 183"}}, {"type": "Point", "coordinates": [-121.244, 37.431999999999995], "properties": {"name": "Location 184"}}, {"type": "Point", "coordinates": [-121.23400000000001, 37.431999999999995], "properties": {"name": "Location 185"}}, {"type": "Point", "coordinates": [-121.224, 37.431999999999995], "properties": {"name": "Location 186"}}, {"type": "Point", "coordinates": [-121.214, 37.431999999999995], "properties": {"name": "Location 187"}}, {"type": "Point", "coordinates": [-121.20400000000001, 37.431999999999995], "properties": {"name": "Location 188"}}, {"type": "Point", "coordinates": [-121.194, 37.431999999999995], "properties": {"name": "Location 189"}}, {"type": "Point", "coordinates": [-121.184, 37.431999999999995], "properties": {"name": "Location 190"}}, {"type": "Point", "coordinates": [-121.174, 37.431999999999995], "properties": {"name": "Location 191"}}, {"type": "Point", "coordinates": [-121.164, 37.431999999999995], "properties": {"name": "Location 192"}}, {"type": "Point", "coordinates": [-121.154, 37.431999999999995], "properties": {"name": "Location 193"}}, {"type": "Point", "coordinates": [-121.144, 37.431999999999995], "properties": {"name": "Location 194"}}, {"type": "Point", "coordinates": [-121.134, 37.431999999999995], "properties": {"name": "Location 195"}}, {"type": "Point", "coordinates": [-121.12400000000001, 37.431999999999995], "properties": {"name": "Location 196"}}, {"type": "Point", "coordinates": [-121.114, 37.431999999999995], "properties": {"name": "Location 197"}}, {"type": "Point", "coordinates": [-121.104, 37.431999999999995], "properties": {"name": "Location 198"}}, {"type": "Point", "coordinates": [-121.09400000000001, 37.431999999999995], "properties": {"name": "Location 199"}}, {"type": "Point", "coordinates": [-122.084, 37.442], "properties": {"name": "Location 200"}}, {"type": "Point", "coordinates": [-122.074, 37.442], "properties": {"name": "Location 201"}}, {"type": "Point", "coordinates": [-122.06400000000001, 37.442], "properties": {"name": "Location 202"}}, {"type": "Point", "coordinates": [-122.054, 37.442], "properties": {"name": "Location 203"}}, {"type": "Point", "coordinates": [-122.044, 37.442], "properties": {"name": "Location 204"}}, {"type": "Point", "coordinates": [-122.034, 37.442], "properties": {"name": "Location 205"}}, {"type": "Point", "coordinates": [-122.024, 37.442], "properties": {"name": "Location 206"}}, {"type": "Point", "coordinates": [-122.01400000000001, 37.442], "properties": {"name": "Location 207"}}, {"type": "Point", "coordinates": [-122.004, 37.442], "properties": {"name": "Location 208"}}, {"type": "Point", "coordinates": [-121.994, 37.442], "properties": {"name": "Location 209"}}, {"type": "Point", "coordinates": [-121.98400000000001, 37.442], "properties": {"name": "Location 210"}}, {"type": "Point", "coordinates": [-121.974, 37.442], "properties": {"name": "Location 211"}}, {"type": "Point", "coordinates": [-121.964, 37.442], "properties": {"name": "Location 212"}}, {"type": "Point", "coordinates": [-121.95400000000001, 37.442], "properties": {"name": "Location 213"}}, {"type": "Point", "coordinates": [-121.944, 37.442], "properties": {"name": "Location 214"}}, {"type": "Point", "coordinates": [-121.934, 37.442], "properties": {"name": "Location 215"}}, {"type": "Point", "coordinates": [-121.924, 37.442], "properties": {"name": "Location 216"}}, {"type": "Point", "coordinates": [-121.914, 37.442], "properties": {"name": "Location 217"}}, {"type": "Point", "coordinates": [-121.904, 37.442], "properties": {"name": "Location 218"}}, {"type": "Point", "coordinates": [-121.894, 37.442], "properties": {"name": "Location 219"}}, {"type": "Point", "coordinates": [-121.884, 37.442], "properties": {"name": "Location 220"}}, {"type": "Point", "coordinates": [-121.87400000000001, 37.442], "properties": {"name": "Location 221"}}, {"type": "Point", "coordinates": [-121.864, 37.442], "properties": {"name": "Location 222"}}, {"type": "Point", "coordinates": [-121.854, 37.442], "properties": {"name": "Location 223"}}, {"type": "Point", "coordinates": [-121.84400000000001, 37.442], "properties": {"name": "Location 224"}}, {"type": "Point", "coordinates": [-121.834, 37.442], "properties": {"name": "Location 225"}}, {"type": "Point", "coordinates": [-121.824, 37.442], "properties": {"name": "Location 226"}}, {"type": "Point", "coordinates": [-121.81400000000001, 37.442], "properties": {"name": "Location 227"}}, {"type": "Point", "coordinates": [-121.804, 37.442], "properties": {"name": "Location 228"}}, {"type": "Point", "coordinates": [-121.794, 37.442], "properties": {"name": "Location 229"}}, {"type": "Point", "coordinates": [-121.784, 37.442], "properties": {"name": "Location 230"}}, {"type": "Point", "coordinates": [-121.774, 37.442], "properties": {"name": "Location 231"}}, {"type": "Point", "coordinates": [-121.76400000000001, 37.442], "properties": {"name": "Location 232"}}, {"type": "Point", "coordinates": [-121.754, 37.442], "properties": {"name": "Location 233"}}, {"type": "Point", "coordinates": [-121.744, 37.442], "properties": {"name": "Location 234"}}, {"type": "Point", "coordinates": [-121.73400000000001, 37.442], "properties": {"name": "Location 235"}}, {"type": "Point", "coordinates": [-121.724, 37.442], "properties": {"name": "Location 236"}}, {"type": "Point", "coordinates": [-121.714, 37.442], "properties": {"name": "Location 237"}}, {"type": "Point", "coordinates": [-121.70400000000001, 37.442], "properties": {"name": "Location 238"}}, {"type": "Point", "coordinates": [-121.694, 37.442], "properties": {"name": "Location 239"}}, {"type": "Point", "coordinates": [-121.684, 37.442], "properties": {"name": "Location 240"}}, {"type": "Point", "coordinates": [-121.674, 37.442], "properties": {"name": "Location 241"}}, {"type": "Point", "coordinates": [-121.664, 37.442], "properties": {"name": "Location 242"}}, {"type": "Point", "coordinates": [-121.654, 37.442], "properties": {"name": "Location 243"}}, {"type": "Point", "coordinates": [-121.644, 37.442], "properties": {"name": "Location 244"}}, {"type": "Point", "coordinates": [-121.634, 37.442], "properties": {"name": "Location 245"}}, {"type": "Point", "coordinates": [-121.62400000000001, 37.442], "properties": {"name": "Location 246"}}, {"type": "Point", "coordinates": [-121.614, 37.442], "properties": {"name": "Location 247"}}, {"type": "Point", "coordinates": [-121.604, 37.442], "properties": {"name": "Location 248"}}, {"type": "Point", "coordinates": [-121.59400000000001, 37.442], "properties": {"name": "Location 249"}}, {"type": "Point", "coordinates": [-121.584, 37.442], "properties": {"name": "Location 250"}}, {"type": "Point", "coordinates": [-121.574, 37.442], "properties": {"name": "Location 251"}}, {"type": "Point", "coordinates": [-121.56400000000001, 37.442], "properties": {"name": "Location 252"}}, {"type": "Point", "coordinates": [-121.554, 37.442], "properties": {"name": "Location 253"}}, {"type": "Point", "coordinates": [-121.544, 37.442], "properties": {"name": "Location 254"}}, {"type": "Point", "coordinates": [-121.534, 37.442], "properties": {"name": "Location 255"}}, {"type": "Point", "coordinates": [-121.524, 37.442], "properties": {"name": "Location 256"}}, {"type": "Point", "coordinates": [-121.51400000000001, 37.442], "properties": {"name": "Location 257"}}, {"type": "Point", "coordinates": [-121.504, 37.442], "properties": {"name": "Location 258"}}, {"type": "Point", "coordinates": [-121.494, 37.442], "properties": {"name": "Location 259"}}, {"type": "Point", "coordinates": [-121.48400000000001, 37.442], "properties": {"name": "Location 260"}}, {"type": "Point", "coordinates": [-121.474, 37.442], "properties": {"name": "Location 261"}}, {"type": "Point", "coordinates": [-121.464, 37.442], "properties": {"name": "Location 262"}}, {"type": "Point", "coordinates": [-121.45400000000001, 37.442], "properties": {"name": "Location 263"}}, {"type": "Point", "coordinates": [-121.444, 37.442], "properties": {"name": "Location 264"}}, {"type": "Point", "coordinates": [-121.434, 37.442], "properties": {"name": "Location 265"}}, {"type": "Point", "coordinates": [-121.424, 37.442], "properties": {"name": "Location 266"}}, {"type": "Point", "coordinates": [-121.414, 37.442], "properties": {"name": "Location 267"}}, {"type": "Point", "coordinates": [-121.404, 37.442], "properties": {"name": "Location 268"}}, {"type": "Point", "coordinates": [-121.394, 37.442], "properties": {"name": "Location 269"}}, {"type": "Point", "coordinates": [-121.384, 37.442], "properties": {"name": "Location 270"}}, {"type": "Point", "coordinates": [-121.37400000000001, 37.442], "properties": {"name": "Location 271"}}, {"type": "Point", "coordinates": [-121.364, 37.442], "properties": {"name": "Location 272"}}, {"type": "Point", "coordinates": [-121.354, 37.442], "properties": {"name": "Location 273"}}, {"type": "Point", "coordinates": [-121.34400000000001, 37.442], "properties": {"name": "Location 274"}}, {"type": "Point", "coordinates": [-121.334, 37.442], "properties": {"name": "Location 275"}}, {"type": "Point", "coordinates": [-121.324, 37.442], "properties": {"name": "Location 276"}}, {"type": "Point", "coordinates": [-121.31400000000001, 37.442], "properties": {"name": "Location 277"}}, {"type": "Point", "coordinates": [-121.304, 37.442], "properties": {"name": "Location 278"}}, {"type": "Point", "coordinates": [-121.294, 37.442], "properties": {"name": "Location 279"}}, {"type": "Point", "coordinates": [-121.284, 37.442], "properties": {"name": "Location 280"}}, {"type": "Point", "coordinates": [-121.274, 37.442], "properties": {"name": "Location 281"}}, {"type": "Point", "coordinates": [-121.26400000000001, 37.442], "properties": {"name": "Location 282"}}, {"type": "Point", "coordinates": [-121.254, 37.442], "properties": {"name": "Location 283"}}, {"type": "Point", "coordinates": [-121.244, 37.442], "properties": {"name": "Location 284"}}, {"type": "Point", "coordinates": [-121.23400000000001, 37.442], "properties": {"name": "Location 285"}}, {"type": "Point", "coordinates": [-121.224, 37.442], "properties": {"name": "Location 286"}}, {"type": "Point", "coordinates": [-121.214, 37.442], "properties": {"name": "Location 287"}}, {"type": "Point", "coordinates": [-121.20400000000001, 37.442], "properties": {"name": "Location 288"}}, {"type": "Point", "coordinates": [-121.194, 37.442], "properties": {"name": "Location 289"}}, {"type": "Point", "coordinates": [-121.184, 37.442], "properties": {"name": "Location 290"}}, {"type": "Point", "coordinates": [-121.174, 37.442], "properties": {"name": "Location 291"}}, {"type": "Point", "coordinates": [-121.164, 37.442], "properties": {"name": "Location 292"}}, {"type": "Point", "coordinates": [-121.154, 37.442], "properties": {"name": "Location 293"}}, {"type": "Point", "coordinates": [-121.144, 37.442], "properties": {"name": "Location 294"}}, {"type": "Point", "coordinates": [-121.134, 37.442], "properties": {"name": "Location 295"}}, {"type": "Point", "coordinates": [-121.12400000000001, 37.442], "properties": {"name": "Location 296"}}, {"type": "Point", "coordinates": [-121.114, 37.442], "properties": {"name": "Location 297"}}, {"type": "Point", "coordinates": [-121.104, 37.442], "properties": {"name": "Location 298"}}, {"type": "Point", "coordinates": [-121.09400000000001, 37.442], "properties": {"name": "Location 299"}}, {"type": "Point", "coordinates": [-122.084, 37.452], "properties": {"name": "Location 300"}}, {"type": "Point", "coordinates": [-122.074, 37.452], "properties": {"name": "Location 301"}}, {"type": "Point", "coordinates": [-122.06400000000001, 37.452], "properties": {"name": "Location 302"}}, {"type": "Point", "coordinates": [-122.054, 37.452], "properties": {"name": "Location 303"}}, {"type": "Point", "coordinates": [-122.044, 37.452], "properties": {"name": "Location 304"}}, {"type": "Point", "coordinates": [-122.034, 37.452], "properties": {"name": "Location 305"}}, {"type": "Point", "coordinates": [-122.024, 37.452], "properties": {"name": "Location 306"}}, {"type": "Point", "coordinates": [-122.01400000000001, 37.452], "properties": {"name": "Location 307"}}, {"type": "Point", "coordinates": [-122.004, 37.452], "properties": {"name": "Location 308"}}, {"type": "Point", "coordinates": [-121.994, 37.452], "properties": {"name": "Location 309"}}, {"type": "Point", "coordinates": [-121.98400000000001, 37.452], "properties": {"name": "Location 310"}}, {"type": "Point", "coordinates": [-121.974, 37.452], "properties": {"name": "Location 311"}}, {"type": "Point", "coordinates": [-121.964, 37.452], "properties": {"name": "Location 312"}}, {"type": "Point", "coordinates": [-121.95400000000001, 37.452], "properties": {"name": "Location 313"}}, {"type": "Point", "coordinates": [-121.944, 37.452], "properties": {"name": "Location 314"}}, {"type": "Point", "coordinates": [-121.934, 37.452], "properties": {"name": "Location 315"}}, {"type": "Point", "coordinates": [-121.924, 37.452], "properties": {"name": "Location 316"}}, {"type": "Point", "coordinates": [-121.914, 37.452], "properties": {"name": "Location 317"}}, {"type": "Point", "coordinates": [-121.904, 37.452], "properties": {"name": "Location 318"}}, {"type": "Point", "coordinates": [-121.894, 37.452], "properties": {"name": "Location 319"}}, {"type": "Point", "coordinates": [-121.884, 37.452], "properties": {"name": "Location 320"}}, {"type": "Point", "coordinates": [-121.87400000000001, 37.452], "properties": {"name": "Location 321"}}, {"type": "Point", "coordinates": [-121.864, 37.452], "properties": {"name": "Location 322"}}, {"type": "Point", "coordinates": [-121.854, 37.452], "properties": {"name": "Location 323"}}, {"type": "Point", "coordinates": [-121.84400000000001, 37.452], "properties": {"name": "Location 324"}}, {"type": "Point", "coordinates": [-121.834, 37.452], "properties": {"name": "Location 325"}}, {"type": "Point", "coordinates": [-121.824, 37.452], "properties": {"name": "Location 326"}}, {"type": "Point", "coordinates": [-121.81400000000001, 37.452], "properties": {"name": "Location 327"}}, {"type": "Point", "coordinates": [-121.804, 37.452], "properties": {"name": "Location 328"}}, {"type": "Point", "coordinates": [-121.794, 37.452], "properties": {"name": "Location 329"}}, {"type": "Point", "coordinates": [-121.784, 37.452], "properties": {"name": "Location 330"}}, {"type": "Point", "coordinates": [-121.774, 37.452], "properties": {"name": "Location 331"}}, {"type": "Point", "coordinates": [-121.76400000000001, 37.452], "properties": {"name": "Location 332"}}, {"type": "Point", "coordinates": [-121.754, 37.452], "properties": {"name": "Location 333"}}, {"type": "Point", "coordinates": [-121.744, 37.452], "properties": {"name": "Location 334"}}, {"type": "Point", "coordinates": [-121.73400000000001, 37.452], "properties": {"name": "Location 335"}}, {"type": "Point", "coordinates": [-121.724, 37.452], "properties": {"name": "Location 336"}}, {"type": "Point", "coordinates": [-121.714, 37.452], "properties": {"name": "Location 337"}}, {"type": "Point", "coordinates": [-121.70400000000001, 37.452], "properties": {"name": "Location 338"}}, {"type": "Point", "coordinates": [-121.694, 37.452], "properties": {"name": "Location 339"}}, {"type": "Point", "coordinates": [-121.684, 37.452], "properties": {"name": "Location 340"}}, {"type": "Point", "coordinates": [-121.674, 37.452], "properties": {"name": "Location 341"}}, {"type": "Point", "coordinates": [-121.664, 37.452], "properties": {"name": "Location 342"}}, {"type": "Point", "coordinates": [-121.654, 37.452], "properties": {"name": "Location 343"}}, {"type": "Point", "coordinates": [-121.644, 37.452], "properties": {"name": "Location 344"}}, {"type": "Point", "coordinates": [-121.634, 37.452], "properties": {"name": "Location 345"}}, {"type": "Point", "coordinates": [-121.62400000000001, 37.452], "properties": {"name": "Location 346"}}, {"type": "Point", "coordinates": [-121.614, 37.452], "properties": {"name": "Location 347"}}, {"type": "Point", "coordinates": [-121.604, 37.452], "properties": {"name": "Location 348"}}, {"type": "Point", "coordinates": [-121.59400000000001, 37.452], "properties": {"name": "Location 349"}}, {"type": "Point", "coordinates": [-121.584, 37.452], "properties": {"name": "Location 350"}}, {"type": "Point", "coordinates": [-121.574, 37.452], "properties": {"name": "Location 351"}}, {"type": "Point", "coordinates": [-121.56400000000001, 37.452], "properties": {"name": "Location 352"}}, {"type": "Point", "coordinates": [-121.554, 37.452], "properties": {"name": "Location 353"}}, {"type": "Point", "coordinates": [-121.544, 37.452], "properties": {"name": "Location 354"}}, {"type": "Point", "coordinates": [-121.534, 37.452], "properties": {"name": "Location 355"}}, {"type": "Point", "coordinates": [-121.524, 37.452], "properties": {"name": "Location 356"}}, {"type": "Point", "coordinates": [-121.51400000000001, 37.452], "properties": {"name": "Location 357"}}, {"type": "Point", "coordinates": [-121.504, 37.452], "properties": {"name": "Location 358"}}, {"type": "Point", "coordinates": [-121.494, 37.452], "properties": {"name": "Location 359"}}, {"type": "Point", "coordinates": [-121.48400000000001, 37.452], "properties": {"name": "Location 360"}}, {"type": "Point", "coordinates": [-121.474, 37.452], "properties": {"name": "Location 361"}}, {"type": "Point", "coordinates": [-121.464, 37.452], "properties": {"name": "Location 362"}}, {"type": "Point", "coordinates": [-121.45400000000001, 37.452], "properties": {"name": "Location 363"}}, {"type": "Point", "coordinates": [-121.444, 37.452], "properties": {"name": "Location 364"}}, {"type": "Point", "coordinates": [-121.434, 37.452], "properties": {"name": "Location 365"}}, {"type": "Point", "coordinates": [-121.424, 37.452], "properties": {"name": "Location 366"}}, {"type": "Point", "coordinates": [-121.414, 37.452], "properties": {"name": "Location 367"}}, {"type": "Point", "coordinates": [-121.404, 37.452], "properties": {"name": "Location 368"}}, {"type": "Point", "coordinates": [-121.394, 37.452], "properties": {"name": "Location 369"}}, {"type": "Point", "coordinates": [-121.384, 37.452], "properties": {"name": "Location 370"}}, {"type": "Point", "coordinates": [-121.37400000000001, 37.452], "properties": {"name": "Location 371"}}, {"type": "Point", "coordinates": [-121.364, 37.452], "properties": {"name": "Location 372"}}, {"type": "Point", "coordinates": [-121.354, 37.452], "properties": {"name": "Location 373"}}, {"type": "Point", "coordinates": [-121.34400000000001, 37.452], "properties": {"name": "Location 374"}}, {"type": "Point", "coordinates": [-121.334, 37.452], "properties": {"name": "Location 375"}}, {"type": "Point", "coordinates": [-121.324, 37.452], "properties": {"name": "Location 376"}}, {"type": "Point", "coordinates": [-121.31400000000001, 37.452], "properties": {"name": "Location 377"}}, {"type": "Point", "coordinates": [-121.304, 37.452], "properties": {"name": "Location 378"}}, {"type": "Point", "coordinates": [-121.294, 37.452], "properties": {"name": "Location 379"}}, {"type": "Point", "coordinates": [-121.284, 37.452], "properties": {"name": "Location 380"}}, {"type": "Point", "coordinates": [-121.274, 37.452], "properties": {"name": "Location 381"}}, {"type": "Point", "coordinates": [-121.26400000000001, 37.452], "properties": {"name": "Location 382"}}, {"type": "Point", "coordinates": [-121.254, 37.452], "properties": {"name": "Location 383"}}, {"type": "Point", "coordinates": [-121.244, 37.452], "properties": {"name": "Location 384"}}, {"type": "Point", "coordinates": [-121.23400000000001, 37.452], "properties": {"name": "Location 385"}}, {"type": "Point", "coordinates": [-121.224, 37.452], "properties": {"name": "Location 386"}}, {"type": "Point", "coordinates": [-121.214, 37.452], "properties": {"name": "Location 387"}}, {"type": "Point", "coordinates": [-121.20400000000001, 37.452], "properties": {"name": "Location 388"}}, {"type": "Point", "coordinates": [-121.194, 37.452], "properties": {"name": "Location 389"}}, {"type": "Point", "coordinates": [-121.184, 37.452], "properties": {"name": "Location 390"}}, {"type": "Point", "coordinates": [-121.174, 37.452], "properties": {"name": "Location 391"}}, {"type": "Point", "coordinates": [-121.164, 37.452], "properties": {"name": "Location 392"}}, {"type": "Point", "coordinates": [-121.154, 37.452], "properties": {"name": "Location 393"}}, {"type": "Point", "coordinates": [-121.144, 37.452], "properties": {"name": "Location 394"}}, {"type": "Point", "coordinates": [-121.134, 37.452], "properties": {"name": "Location 395"}}, {"type": "Point", "coordinates": [-121.12400000000001, 37.452], "properties": {"name": "Location 396"}}, {"type": "Point", "coordinates": [-121.114, 37.452], "properties": {"name": "Location 397"}}, {"type": "Point", "coordinates": [-121.104, 37.452], "properties": {"name": "Location 398"}}, {"type": "Point", "coordinates": [-121.09400000000001, 37.452], "properties": {"name": "Location 399"}}, {"type": "Point", "coordinates": [-122.084, 37.461999999999996], "properties": {"name": "Location 400"}}, {"type": "Point", "coordinates": [-122.074, 37.461999999999996], "properties": {"name": "Location 401"}}, {"type": "Point", "coordinates": [-122.06400000000001, 37.461999999999996], "properties": {"name": "Location 402"}}, {"type": "Point", "coordinates": [-122.054, 37.461999999999996], "properties": {"name": "Location 403"}}, {"type": "Point", "coordinates": [-122.044, 37.461999999999996], "properties": {"name": "Location 404"}}, {"type": "Point", "coordinates": [-122.034, 37.461999999999996], "properties": {"name": "Location 405"}}, {"type": "Point", "coordinates": [-122.024, 37.461999999999996], "properties": {"name": "Location 406"}}, {"type": "Point", "coordinates": [-122.01400000000001, 37.461999999999996], "properties": {"name": "Location 407"}}, {"type": "Point", "coordinates": [-122.004, 37.461999999999996], "properties": {"name": "Location 408"}}, {"type": "Point", "coordinates": [-121.994, 37.461999999999996], "properties": {"name": "Location 409"}}, {"type": "Point", "coordinates": [-121.98400000000001, 37.461999999999996], "properties": {"name": "Location 410"}}, {"type": "Point", "coordinates": [-121.974, 37.461999999999996], "properties": {"name": "Location 411"}}, {"type": "Point", "coordinates": [-121.964, 37.461999999999996], "properties": {"name": "Location 412"}}, {"type": "Point", "coordinates": [-121.95400000000001, 37.461999999999996], "properties": {"name": "Location 413"}}, {"type": "Point", "coordinates": [-121.944, 37.461999999999996], "properties": {"name": "Location 414"}}, {"type": "Point", "coordinates": [-121.934, 37.461999999999996], "properties": {"name": "Location 415"}}, {"type": "Point", "coordinates": [-121.924, 37.461999999999996], "properties": {"name": "Location 416"}}, {"type": "Point", "coordinates": [-121.914, 37.461999999999996], "properties": {"name": "Location 417"}}, {"type": "Point", "coordinates": [-121.904, 37.461999999999996], "properties": {"name": "Location 418"}}, {"type": "Point", "coordinates": [-121.894, 37.461999999999996], "properties": {"name": "Location 419"}}, {"type": "Point", "coordinates": [-121.884, 37.461999999999996], "properties": {"name": "Location 420"}}, {"type": "Point", "coordinates": [-121.87400000000001, 37.461999999999996], "properties": {"name": "Location 421"}}, {"type": "Point", "coordinates": [-121.864, 37.461999999999996], "properties": {"name": "Location 422"}}, {"type": "Point", "coordinates": [-121.854, 37.461999999999996], "properties": {"name": "Location 423"}}, {"type": "Point", "coordinates": [-121.84400000000001, 37.461999999999996], "properties": {"name": "Location 424"}}, {"type": "Point", "coordinates": [-121.834, 37.461999999999996], "properties": {"name": "Location 425"}}, {"type": "Point", "coordinates": [-121.824, 37.461999999999996], "properties": {"name": "Location 426"}}, {"type": "Point", "coordinates": [-121.81400000000001, 37.461999999999996], "properties": {"name": "Location 427"}}, {"type": "Point", "coordinates": [-121.804, 37.461999999999996], "properties": {"name": "Location 428"}}, {"type": "Point", "coordinates": [-121.794, 37.461999999999996], "properties": {"name": "Location 429"}}, {"type": "Point", "coordinates": [-121.784, 37.461999999999996], "properties": {"name": "Location 430"}}, {"type": "Point", "coordinates": [-121.774, 37.461999999999996], "properties": {"name": "Location 431"}}, {"type": "Point", "coordinates": [-121.76400000000001, 37.461999999999996], "properties": {"name": "Location 432"}}, {"type": "Point", "coordinates": [-121.754, 37.461999999999996], "properties": {"name": "Location 433"}}, {"type": "Point", "coordinates": [-121.744, 37.461999999999996], "properties": {"name": "Location 434"}}, {"type": "Point", "coordinates": [-121.73400000000001, 37.461999999999996], "properties": {"name": "Location 435"}}, {"type": "Point", "coordinates": [-121.724, 37.461999999999996], "properties": {"name": "Location 436"}}, {"type": "Point", "coordinates": [-121.714, 37.461999999999996], "properties": {"name": "Location 437"}}, {"type": "Point", "coordinates": [-121.70400000000001, 37.461999999999996], "properties": {"name": "Location 438"}}, {"type": "Point", "coordinates": [-121.694, 37.461999999999996], "properties": {"name": "Location 439"}}, {"type": "Point", "coordinates": [-121.684, 37.461999999999996], "properties": {"name": "Location 440"}}, {"type": "Point", "coordinates": [-121.674, 37.461999999999996], "properties": {"name": "Location 441"}}, {"type": "Point", "coordinates": [-121.664, 37.461999999999996], "properties": {"name": "Location 442"}}, {"type": "Point", "coordinates": [-121.654, 37.461999999999996], "properties": {"name": "Location 443"}}, {"type": "Point", "coordinates": [-121.644, 37.461999999999996], "properties": {"name": "Location 444"}}, {"type": "Point", "coordinates": [-121.634, 37.461999999999996], "properties": {"name": "Location 445"}}, {"type": "Point", "coordinates": [-121.62400000000001, 37.461999999999996], "properties": {"name": "Location 446"}}, {"type": "Point", "coordinates": [-121.614, 37.461999999999996], "properties": {"name": "Location 447"}}, {"type": "Point", "coordinates": [-121.604, 37.461999999999996], "properties": {"name": "Location 448"}}, {"type": "Point", "coordinates": [-121.59400000000001, 37.461999999999996], "properties": {"name": "Location 449"}}, {"type": "Point", "coordinates": [-121.584, 37.461999999999996], "properties": {"name": "Location 450"}}, {"type": "Point", "coordinates": [-121.574, 37.461999999999996], "properties": {"name": "Location 451"}}, {"type": "Point", "coordinates": [-121.56400000000001, 37.461999999999996], "properties": {"name": "Location 452"}}, {"type": "Point", "coordinates": [-121.554, 37.461999999999996], "properties": {"name": "Location 453"}}, {"type": "Point", "coordinates": [-121.544, 37.461999999999996], "properties": {"name": "Location 454"}}, {"type": "Point", "coordinates": [-121.534, 37.461999999999996], "properties": {"name": "Location 455"}}, {"type": "Point", "coordinates": [-121.524, 37.461999999999996], "properties": {"name": "Location 456"}}, {"type": "Point", "coordinates": [-121.51400000000001, 37.461999999999996], "properties": {"name": "Location 457"}}, {"type": "Point", "coordinates": [-121.504, 37.461999999999996], "properties": {"name": "Location 458"}}, {"type": "Point", "coordinates": [-121.494, 37.461999999999996], "properties": {"name": "Location 459"}}, {"type": "Point", "coordinates": [-121.48400000000001, 37.461999999999996], "properties": {"name": "Location 460"}}, {"type": "Point", "coordinates": [-121.474, 37.461999999999996], "properties": {"name": "Location 461"}}, {"type": "Point", "coordinates": [-121.464, 37.461999999999996], "properties": {"name": "Location 462"}}, {"type": "Point", "coordinates": [-121.45400000000001, 37.461999999999996], "properties": {"name": "Location 463"}}, {"type": "Point", "coordinates": [-121.444, 37.461999999999996], "properties": {"name": "Location 464"}}, {"type": "Point", "coordinates": [-121.434, 37.461999999999996], "properties": {"name": "Location 465"}}, {"type": "Point", "coordinates": [-121.424, 37.461999999999996], "properties": {"name": "Location 466"}}, {"type": "Point", "coordinates": [-121.414, 37.461999999999996], "properties": {"name": "Location 467"}}, {"type": "Point", "coordinates": [-121.404, 37.461999999999996], "properties": {"name": "Location 468"}}, {"type": "Point", "coordinates": [-121.394, 37.461999999999996], "properties": {"name": "Location 469"}}, {"type": "Point", "coordinates": [-121.384, 37.461999999999996], "properties": {"name": "Location 470"}}, {"type": "Point", "coordinates": [-121.37400000000001, 37.461999999999996], "properties": {"name": "Location 471"}}, {"type": "Point", "coordinates": [-121.364, 37.461999999999996], "properties": {"name": "Location 472"}}, {"type": "Point", "coordinates": [-121.354, 37.461999999999996], "properties": {"name": "Location 473"}}, {"type": "Point", "coordinates": [-121.34400000000001, 37.461999999999996], "properties": {"name": "Location 474"}}, {"type": "Point", "coordinates": [-121.334, 37.461999999999996], "properties": {"name": "Location 475"}}, {"type": "Point", "coordinates": [-121.324, 37.461999999999996], "properties": {"name": "Location 476"}}, {"type": "Point", "coordinates": [-121.31400000000001, 37.461999999999996], "properties": {"name": "Location 477"}}, {"type": "Point", "coordinates": [-121.304, 37.461999999999996], "properties": {"name": "Location 478"}}, {"type": "Point", "coordinates": [-121.294, 37.461999999999996], "properties": {"name": "Location 479"}}, {"type": "Point", "coordinates": [-121.284, 37.461999999999996], "properties": {"name": "Location 480"}}, {"type": "Point", "coordinates": [-121.274, 37.461999999999996], "properties": {"name": "Location 481"}}, {"type": "Point", "coordinates": [-121.26400000000001, 37.461999999999996], "properties": {"name": "Location 482"}}, {"type": "Point", "coordinates": [-121.254, 37.461999999999996], "properties": {"name": "Location 483"}}, {"type": "Point", "coordinates": [-121.244, 37.461999999999996], "properties": {"name": "Location 484"}}, {"type": "Point", "coordinates": [-121.23400000000001, 37.461999999999996], "properties": {"name": "Location 485"}}, {"type": "Point", "coordinates": [-121.224, 37.461999999999996], "properties": {"name": "Location 486"}}, {"type": "Point", "coordinates": [-121.214, 37.461999999999996], "properties": {"name": "Location 487"}}, {"type": "Point", "coordinates": [-121.20400000000001, 37.461999999999996], "properties": {"name": "Location 488"}}, {"type": "Point", "coordinates": [-121.194, 37.461999999999996], "properties": {"name": "Location 489"}}, {"type": "Point", "coordinates": [-121.184, 37.461999999999996], "properties": {"name": "Location 490"}}, {"type": "Point", "coordinates": [-121.174, 37.461999999999996], "properties": {"name": "Location 491"}}, {"type": "Point", "coordinates": [-121.164, 37.461999999999996], "properties": {"name": "Location 492"}}, {"type": "Point", "coordinates": [-121.154, 37.461999999999996], "properties": {"name": "Location 493"}}, {"type": "Point", "coordinates": [-121.144, 37.461999999999996], "properties": {"name": "Location 494"}}, {"type": "Point", "coordinates": [-121.134, 37.461999999999996], "properties": {"name": "Location 495"}}, {"type": "Point", "coordinates": [-121.12400000000001, 37.461999999999996], "properties": {"name": "Location 496"}}, {"type": "Point", "coordinates": [-121.114, 37.461999999999996], "properties": {"name": "Location 497"}}, {"type": "Point", "coordinates": [-121.104, 37.461999999999996], "properties": {"name": "Location 498"}}, {"type": "Point", "coordinates": [-121.09400000000001, 37.461999999999996], "properties": {"name": "Location 499"}}, {"type": "Point", "coordinates": [-122.084, 37.471999999999994], "properties": {"name": "Location 500"}}, {"type": "Point", "coordinates": [-122.074, 37.471999999999994], "properties": {"name": "Location 501"}}, {"type": "Point", "coordinates": [-122.06400000000001, 37.471999999999994], "properties": {"name": "Location 502"}}, {"type": "Point", "coordinates": [-122.054, 37.471999999999994], "properties": {"name": "Location 503"}}, {"type": "Point", "coordinates": [-122.044, 37.471999999999994], "properties": {"name": "Location 504"}}, {"type": "Point", "coordinates": [-122.034, 37.471999999999994], "properties": {"name": "Location 505"}}, {"type": "Point", "coordinates": [-122.024, 37.471999999999994], "properties": {"name": "Location 506"}}, {"type": "Point", "coordinates": [-122.01400000000001, 37.471999999999994], "properties": {"name": "Location 507"}}, {"type": "Point", "coordinates": [-122.004, 37.471999999999994], "properties": {"name": "Location 508"}}, {"type": "Point", "coordinates": [-121.994, 37.471999999999994], "properties": {"name": "Location 509"}}, {"type": "Point", "coordinates": [-121.98400000000001, 37.471999999999994], "properties": {"name": "Location 510"}}, {"type": "Point", "coordinates": [-121.974, 37.471999999999994], "properties": {"name": "Location 511"}}, {"type": "Point", "coordinates": [-121.964, 37.471999999999994], "properties": {"name": "Location 512"}}, {"type": "Point", "coordinates": [-121.95400000000001, 37.471999999999994], "properties": {"name": "Location 513"}}, {"type": "Point", "coordinates": [-121.944, 37.471999999999994], "properties": {"name": "Location 514"}}, {"type": "Point", "coordinates": [-121.934, 37.471999999999994], "properties": {"name": "Location 515"}}, {"type": "Point", "coordinates": [-121.924, 37.471999999999994], "properties": {"name": "Location 516"}}, {"type": "Point", "coordinates": [-121.914, 37.471999999999994], "properties": {"name": "Location 517"}}, {"type": "Point", "coordinates": [-121.904, 37.471999999999994], "properties": {"name": "Location 518"}}, {"type": "Point", "coordinates": [-121.894, 37.471999999999994], "properties": {"name": "Location 519"}}, {"type": "Point", "coordinates": [-121.884, 37.471999999999994], "properties": {"name": "Location 520"}}, {"type": "Point", "coordinates": [-121.87400000000001, 37.471999999999994], "properties": {"name": "Location 521"}}, {"type": "Point", "coordinates": [-121.864, 37.471999999999994], "properties": {"name": "Location 522"}}, {"type": "Point", "coordinates": [-121.854, 37.471999999999994], "properties": {"name": "Location 523"}}, {"type": "Point", "coordinates": [-121.84400000000001, 37.471999999999994], "properties": {"name": "Location 524"}}, {"type": "Point", "coordinates": [-121.834, 37.471999999999994], "properties": {"name": "Location 525"}}, {"type": "Point", "coordinates": [-121.824, 37.471999999999994], "properties": {"name": "Location 526"}}, {"type": "Point", "coordinates": [-121.81400000000001, 37.471999999999994], "properties": {"name": "Location 527"}}, {"type": "Point", "coordinates": [-121.804, 37.471999999999994], "properties": {"name": "Location 528"}}, {"type": "Point", "coordinates": [-121.794, 37.471999999999994], "properties": {"name": "Location 529"}}, {"type": "Point", "coordinates": [-121.784, 37.471999999999994], "properties": {"name": "Location 530"}}, {"type": "Point", "coordinates": [-121.774, 37.471999999999994], "properties": {"name": "Location 531"}}, {"type": "Point", "coordinates": [-121.76400000000001, 37.471999999999994], "properties": {"name": "Location 532"}}, {"type": "Point", "coordinates": [-121.754, 37.471999999999994], "properties": {"name": "Location 533"}}, {"type": "Point", "coordinates": [-121.744, 37.471999999999994], "properties": {"name": "Location 534"}}, {"type": "Point", "coordinates": [-121.73400000000001, 37.471999999999994], "properties": {"name": "Location 535"}}, {"type": "Point", "coordinates": [-121.724, 37.471999999999994], "properties": {"name": "Location 536"}}, {"type": "Point", "coordinates": [-121.714, 37.471999999999994], "properties": {"name": "Location 537"}}, {"type": "Point", "coordinates": [-121.70400000000001, 37.471999999999994], "properties": {"name": "Location 538"}}, {"type": "Point", "coordinates": [-121.694, 37.471999999999994], "properties": {"name": "Location 539"}}, {"type": "Point", "coordinates": [-121.684, 37.471999999999994], "properties": {"name": "Location 540"}}, {"type": "Point", "coordinates": [-121.674, 37.471999999999994], "properties": {"name": "Location 541"}}, {"type": "Point", "coordinates": [-121.664, 37.471999999999994], "properties": {"name": "Location 542"}}, {"type": "Point", "coordinates": [-121.654, 37.471999999999994], "properties": {"name": "Location 543"}}, {"type": "Point", "coordinates": [-121.644, 37.471999999999994], "properties": {"name": "Location 544"}}, {"type": "Point", "coordinates": [-121.634, 37.471999999999994], "properties": {"name": "Location 545"}}, {"type": "Point", "coordinates": [-121.62400000000001, 37.471999999999994], "properties": {"name": "Location 546"}}, {"type": "Point", "coordinates": [-121.614, 37.471999999999994], "properties": {"name": "Location 547"}}, {"type": "Point", "coordinates": [-121.604, 37.471999999999994], "properties": {"name": "Location 548"}}, {"type": "Point", "coordinates": [-121.59400000000001, 37.471999999999994], "properties": {"name": "Location 549"}}, {"type": "Point", "coordinates": [-121.584, 37.471999999999994], "properties": {"name": "Location 550"}}, {"type": "Point", "coordinates": [-121.574, 37.471999999999994], "properties": {"name": "Location 551"}}, {"type": "Point", "coordinates": [-121.56400000000001, 37.471999999999994], "properties": {"name": "Location 552"}}, {"type": "Point", "coordinates": [-121.554, 37.471999999999994], "properties": {"name": "Location 553"}}, {"type": "Point", "coordinates": [-121.544, 37.471999999999994], "properties": {"name": "Location 554"}}, {"type": "Point", "coordinates": [-121.534, 37.471999999999994], "properties": {"name": "Location 555"}}, {"type": "Point", "coordinates": [-121.524, 37.471999999999994], "properties": {"name": "Location 556"}}, {"type": "Point", "coordinates": [-121.51400000000001, 37.471999999999994], "properties": {"name": "Location 557"}}, {"type": "Point", "coordinates": [-121.504, 37.471999999999994], "properties": {"name": "Location 558"}}, {"type": "Point", "coordinates": [-121.494, 37.471999999999994], "properties": {"name": "Location 559"}}, {"type": "Point", "coordinates": [-121.48400000000001, 37.471999999999994], "properties": {"name": "Location 560"}}, {"type": "Point", "coordinates": [-121.474, 37.471999999999994], "properties": {"name": "Location 561"}}, {"type": "Point", "coordinates": [-121.464, 37.471999999999994], "properties": {"name": "Location 562"}}, {"type": "Point", "coordinates": [-121.45400000000001, 37.471999999999994], "properties": {"name": "Location 563"}}, {"type": "Point", "coordinates": [-121.444, 37.471999999999994], "properties": {"name": "Location 564"}}, {"type": "Point", "coordinates": [-121.434, 37.471999999999994], "properties": {"name": "Location 565"}}, {"type": "Point", "coordinates": [-121.424, 37.471999999999994], "properties": {"name": "Location 566"}}, {"type": "Point", "coordinates": [-121.414, 37.471999999999994], "properties": {"name": "Location 567"}}, {"type": "Point", "coordinates": [-121.404, 37.471999999999994], "properties": {"name": "Location 568"}}, {"type": "Point", "coordinates": [-121.394, 37.471999999999994], "properties": {"name": "Location 569"}}, {"type": "Point", "coordinates": [-121.384, 37.471999999999994], "properties": {"name": "Location 570"}}, {"type": "Point", "coordinates": [-121.37400000000001, 37.471999999999994], "properties": {"name": "Location 571"}}, {"type": "Point", "coordinates": [-121.364, 37.471999999999994], "properties": {"name": "Location 572"}}, {"type": "Point", "coordinates": [-121.354, 37.471999999999994], "properties": {"name": "Location 573"}}, {"type": "Point", "coordinates": [-121.34400000000001, 37.471999999999994], "properties": {"name": "Location 574"}}, {"type": "Point", "coordinates": [-121.334, 37.471999999999994], "properties": {"name": "Location 575"}}, {"type": "Point", "coordinates": [-121.324, 37.471999999999994], "properties": {"name": "Location 576"}}, {"type": "Point", "coordinates": [-121.31400000000001, 37.471999999999994], "properties": {"name": "Location 577"}}, {"type": "Point", "coordinates": [-121.304, 37.471999999999994], "properties": {"name": "Location 578"}}, {"type": "Point", "coordinates": [-121.294, 37.471999999999994], "properties": {"name": "Location 579"}}, {"type": "Point", "coordinates": [-121.284, 37.471999999999994], "properties": {"name": "Location 580"}}, {"type": "Point", "coordinates": [-121.274, 37.471999999999994], "properties": {"name": "Location 581"}}, {"type": "Point", "coordinates": [-121.26400000000001, 37.471999999999994], "properties": {"name": "Location 582"}}, {"type": "Point", "coordinates": [-121.254, 37.471999999999994], "properties": {"name": "Location 583"}}, {"type": "Point", "coordinates": [-121.244, 37.471999999999994], "properties": {"name": "Location 584"}}, {"type": "Point", "coordinates": [-121.23400000000001, 37.471999999999994], "properties": {"name": "Location 585"}}, {"type": "Point", "coordinates": [-121.224, 37.471999999999994], "properties": {"name": "Location 586"}}, {"type": "Point", "coordinates": [-121.214, 37.471999999999994], "properties": {"name": "Location 587"}}, {"type": "Point", "coordinates": [-121.20400000000001, 37.471999999999994], "properties": {"name": "Location 588"}}, {"type": "Point", "coordinates": [-121.194, 37.471999999999994], "properties": {"name": "Location 589"}}, {"type": "Point", "coordinates": [-121.184, 37.471999999999994], "properties": {"name": "Location 590"}}, {"type": "Point", "coordinates": [-121.174, 37.471999999999994], "properties": {"name": "Location 591"}}, {"type": "Point", "coordinates": [-121.164, 37.471999999999994], "properties": {"name": "Location 592"}}, {"type": "Point", "coordinates": [-121.154, 37.471999999999994], "properties": {"name": "Location 593"}}, {"type": "Point", "coordinates": [-121.144, 37.471999999999994], "properties": {"name": "Location 594"}}, {"type": "Point", "coordinates": [-121.134, 37.471999999999994], "properties": {"name": "Location 595"}}, {"type": "Point", "coordinates": [-121.12400000000001, 37.471999999999994], "properties": {"name": "Location 596"}}, {"type": "Point", "coordinates": [-121.114, 37.471999999999994], "properties": {"name": "Location 597"}}, {"type": "Point", "coordinates": [-121.104, 37.471999999999994], "properties": {"name": "Location 598"}}, {"type": "Point", "coordinates": [-121.09400000000001, 37.471999999999994], "properties": {"name": "Location 599"}}]}}, "arcs": []}