<?xml version="1.0" encoding="UTF-8"?>
<osm version="0.6" generator="GetSampleData.com">
  <node id="1" lat="37.422" lon="-122.084"><tag k="name" v="Location 0"/></node>
  <node id="2" lat="37.422" lon="-122.074"><tag k="name" v="Location 1"/></node>
  <node id="3" lat="37.422" lon="-122.06400000000001"><tag k="name" v="Location 2"/></node>
  <node id="4" lat="37.422" lon="-122.054"><tag k="name" v="Location 3"/></node>
  <node id="5" lat="37.422" lon="-122.044"><tag k="name" v="Location 4"/></node>
  <node id="6" lat="37.422" lon="-122.034"><tag k="name" v="Location 5"/></node>
  <node id="7" lat="37.422" lon="-122.024"><tag k="name" v="Location 6"/></node>
  <node id="8" lat="37.422" lon="-122.01400000000001"><tag k="name" v="Location 7"/></node>
  <node id="9" lat="37.422" lon="-122.004"><tag k="name" v="Location 8"/></node>
  <node id="10" lat="37.422" lon="-121.994"><tag k="name" v="Location 9"/></node>
  <node id="11" lat="37.422" lon="-121.98400000000001"><tag k="name" v="Location 10"/></node>
  <node id="12" lat="37.422" lon="-121.974"><tag k="name" v="Location 11"/></node>
  <node id="13" lat="37.422" lon="-121.964"><tag k="name" v="Location 12"/></node>
  <node id="14" lat="37.422" lon="-121.95400000000001"><tag k="name" v="Location 13"/></node>
  <node id="15" lat="37.422" lon="-121.944"><tag k="name" v="Location 14"/></node>
</osm>
