<?xml version="1.0" encoding="UTF-8"?>
<osm version="0.6" generator="GetSampleData.com">
  <node id="1" lat="37.422" lon="-122.084"><tag k="name" v="Location 0"/></node>
  <node id="2" lat="37.422" lon="-122.074"><tag k="name" v="Location 1"/></node>
  <node id="3" lat="37.422" lon="-122.06400000000001"><tag k="name" v="Location 2"/></node>
  <node id="4" lat="37.422" lon="-122.054"><tag k="name" v="Location 3"/></node>
  <node id="5" lat="37.422" lon="-122.044"><tag k="name" v="Location 4"/></node>
  <node id="6" lat="37.422" lon="-122.034"><tag k="name" v="Location 5"/></node>
  <node id="7" lat="37.422" lon="-122.024"><tag k="name" v="Location 6"/></node>
  <node id="8" lat="37.422" lon="-122.01400000000001"><tag k="name" v="Location 7"/></node>
  <node id="9" lat="37.422" lon="-122.004"><tag k="name" v="Location 8"/></node>
  <node id="10" lat="37.422" lon="-121.994"><tag k="name" v="Location 9"/></node>
  <node id="11" lat="37.422" lon="-121.98400000000001"><tag k="name" v="Location 10"/></node>
  <node id="12" lat="37.422" lon="-121.974"><tag k="name" v="Location 11"/></node>
  <node id="13" lat="37.422" lon="-121.964"><tag k="name" v="Location 12"/></node>
  <node id="14" lat="37.422" lon="-121.95400000000001"><tag k="name" v="Location 13"/></node>
  <node id="15" lat="37.422" lon="-121.944"><tag k="name" v="Location 14"/></node>
  <node id="16" lat="37.422" lon="-121.934"><tag k="name" v="Location 15"/></node>
  <node id="17" lat="37.422" lon="-121.924"><tag k="name" v="Location 16"/></node>
  <node id="18" lat="37.422" lon="-121.914"><tag k="name" v="Location 17"/></node>
  <node id="19" lat="37.422" lon="-121.904"><tag k="name" v="Location 18"/></node>
  <node id="20" lat="37.422" lon="-121.894"><tag k="name" v="Location 19"/></node>
  <node id="21" lat="37.422" lon="-121.884"><tag k="name" v="Location 20"/></node>
  <node id="22" lat="37.422" lon="-121.87400000000001"><tag k="name" v="Location 21"/></node>
  <node id="23" lat="37.422" lon="-121.864"><tag k="name" v="Location 22"/></node>
  <node id="24" lat="37.422" lon="-121.854"><tag k="name" v="Location 23"/></node>
  <node id="25" lat="37.422" lon="-121.84400000000001"><tag k="name" v="Location 24"/></node>
  <node id="26" lat="37.422" lon="-121.834"><tag k="name" v="Location 25"/></node>
  <node id="27" lat="37.422" lon="-121.824"><tag k="name" v="Location 26"/></node>
  <node id="28" lat="37.422" lon="-121.81400000000001"><tag k="name" v="Location 27"/></node>
  <node id="29" lat="37.422" lon="-121.804"><tag k="name" v="Location 28"/></node>
  <node id="30" lat="37.422" lon="-121.794"><tag k="name" v="Location 29"/></node>
  <node id="31" lat="37.422" lon="-121.784"><tag k="name" v="Location 30"/></node>
  <node id="32" lat="37.422" lon="-121.774"><tag k="name" v="Location 31"/></node>
  <node id="33" lat="37.422" lon="-121.76400000000001"><tag k="name" v="Location 32"/></node>
  <node id="34" lat="37.422" lon="-121.754"><tag k="name" v="Location 33"/></node>
  <node id="35" lat="37.422" lon="-121.744"><tag k="name" v="Location 34"/></node>
  <node id="36" lat="37.422" lon="-121.73400000000001"><tag k="name" v="Location 35"/></node>
  <node id="37" lat="37.422" lon="-121.724"><tag k="name" v="Location 36"/></node>
  <node id="38" lat="37.422" lon="-121.714"><tag k="name" v="Location 37"/></node>
  <node id="39" lat="37.422" lon="-121.70400000000001"><tag k="name" v="Location 38"/></node>
  <node id="40" lat="37.422" lon="-121.694"><tag k="name" v="Location 39"/></node>
  <node id="41" lat="37.422" lon="-121.684"><tag k="name" v="Location 40"/></node>
  <node id="42" lat="37.422" lon="-121.674"><tag k="name" v="Location 41"/></node>
  <node id="43" lat="37.422" lon="-121.664"><tag k="name" v="Location 42"/></node>
  <node id="44" lat="37.422" lon="-121.654"><tag k="name" v="Location 43"/></node>
  <node id="45" lat="37.422" lon="-121.644"><tag k="name" v="Location 44"/></node>
  <node id="46" lat="37.422" lon="-121.634"><tag k="name" v="Location 45"/></node>
  <node id="47" lat="37.422" lon="-121.62400000000001"><tag k="name" v="Location 46"/></node>
  <node id="48" lat="37.422" lon="-121.614"><tag k="name" v="Location 47"/></node>
  <node id="49" lat="37.422" lon="-121.604"><tag k="name" v="Location 48"/></node>
  <node id="50" lat="37.422" lon="-121.59400000000001"><tag k="name" v="Location 49"/></node>
  <node id="51" lat="37.422" lon="-121.584"><tag k="name" v="Location 50"/></node>
  <node id="52" lat="37.422" lon="-121.574"><tag k="name" v="Location 51"/></node>
  <node id="53" lat="37.422" lon="-121.56400000000001"><tag k="name" v="Location 52"/></node>
  <node id="54" lat="37.422" lon="-121.554"><tag k="name" v="Location 53"/></node>
  <node id="55" lat="37.422" lon="-121.544"><tag k="name" v="Location 54"/></node>
  <node id="56" lat="37.422" lon="-121.534"><tag k="name" v="Location 55"/></node>
  <node id="57" lat="37.422" lon="-121.524"><tag k="name" v="Location 56"/></node>
  <node id="58" lat="37.422" lon="-121.51400000000001"><tag k="name" v="Location 57"/></node>
  <node id="59" lat="37.422" lon="-121.504"><tag k="name" v="Location 58"/></node>
  <node id="60" lat="37.422" lon="-121.494"><tag k="name" v="Location 59"/></node>
  <node id="61" lat="37.422" lon="-121.48400000000001"><tag k="name" v="Location 60"/></node>
  <node id="62" lat="37.422" lon="-121.474"><tag k="name" v="Location 61"/></node>
  <node id="63" lat="37.422" lon="-121.464"><tag k="name" v="Location 62"/></node>
  <node id="64" lat="37.422" lon="-121.45400000000001"><tag k="name" v="Location 63"/></node>
  <node id="65" lat="37.422" lon="-121.444"><tag k="name" v="Location 64"/></node>
  <node id="66" lat="37.422" lon="-121.434"><tag k="name" v="Location 65"/></node>
  <node id="67" lat="37.422" lon="-121.424"><tag k="name" v="Location 66"/></node>
  <node id="68" lat="37.422" lon="-121.414"><tag k="name" v="Location 67"/></node>
  <node id="69" lat="37.422" lon="-121.404"><tag k="name" v="Location 68"/></node>
  <node id="70" lat="37.422" lon="-121.394"><tag k="name" v="Location 69"/></node>
  <node id="71" lat="37.422" lon="-121.384"><tag k="name" v="Location 70"/></node>
  <node id="72" lat="37.422" lon="-121.37400000000001"><tag k="name" v="Location 71"/></node>
  <node id="73" lat="37.422" lon="-121.364"><tag k="name" v="Location 72"/></node>
  <node id="74" lat="37.422" lon="-121.354"><tag k="name" v="Location 73"/></node>
  <node id="75" lat="37.422" lon="-121.34400000000001"><tag k="name" v="Location 74"/></node>
  <node id="76" lat="37.422" lon="-121.334"><tag k="name" v="Location 75"/></node>
  <node id="77" lat="37.422" lon="-121.324"><tag k="name" v="Location 76"/></node>
  <node id="78" lat="37.422" lon="-121.31400000000001"><tag k="name" v="Location 77"/></node>
  <node id="79" lat="37.422" lon="-121.304"><tag k="name" v="Location 78"/></node>
  <node id="80" lat="37.422" lon="-121.294"><tag k="name" v="Location 79"/></node>
  <node id="81" lat="37.422" lon="-121.284"><tag k="name" v="Location 80"/></node>
  <node id="82" lat="37.422" lon="-121.274"><tag k="name" v="Location 81"/></node>
  <node id="83" lat="37.422" lon="-121.26400000000001"><tag k="name" v="Location 82"/></node>
  <node id="84" lat="37.422" lon="-121.254"><tag k="name" v="Location 83"/></node>
  <node id="85" lat="37.422" lon="-121.244"><tag k="name" v="Location 84"/></node>
  <node id="86" lat="37.422" lon="-121.23400000000001"><tag k="name" v="Location 85"/></node>
  <node id="87" lat="37.422" lon="-121.224"><tag k="name" v="Location 86"/></node>
  <node id="88" lat="37.422" lon="-121.214"><tag k="name" v="Location 87"/></node>
  <node id="89" lat="37.422" lon="-121.20400000000001"><tag k="name" v="Location 88"/></node>
  <node id="90" lat="37.422" lon="-121.194"><tag k="name" v="Location 89"/></node>
  <node id="91" lat="37.422" lon="-121.184"><tag k="name" v="Location 90"/></node>
  <node id="92" lat="37.422" lon="-121.174"><tag k="name" v="Location 91"/></node>
  <node id="93" lat="37.422" lon="-121.164"><tag k="name" v="Location 92"/></node>
  <node id="94" lat="37.422" lon="-121.154"><tag k="name" v="Location 93"/></node>
  <node id="95" lat="37.422" lon="-121.144"><tag k="name" v="Location 94"/></node>
  <node id="96" lat="37.422" lon="-121.134"><tag k="name" v="Location 95"/></node>
  <node id="97" lat="37.422" lon="-121.12400000000001"><tag k="name" v="Location 96"/></node>
  <node id="98" lat="37.422" lon="-121.114"><tag k="name" v="Location 97"/></node>
  <node id="99" lat="37.422" lon="-121.104"><tag k="name" v="Location 98"/></node>
  <node id="100" lat="37.422" lon="-121.09400000000001"><tag k="name" v="Location 99"/></node>
</osm>
