<?xml version="1.0" encoding="UTF-8"?>
<osm version="0.6" generator="GetSampleData.com">
  <node id="1" lat="37.422" lon="-122.084"><tag k="name" v="Location 0"/></node>
  <node id="2" lat="37.422" lon="-122.074"><tag k="name" v="Location 1"/></node>
  <node id="3" lat="37.422" lon="-122.06400000000001"><tag k="name" v="Location 2"/></node>
  <node id="4" lat="37.422" lon="-122.054"><tag k="name" v="Location 3"/></node>
  <node id="5" lat="37.422" lon="-122.044"><tag k="name" v="Location 4"/></node>
  <node id="6" lat="37.422" lon="-122.034"><tag k="name" v="Location 5"/></node>
  <node id="7" lat="37.422" lon="-122.024"><tag k="name" v="Location 6"/></node>
  <node id="8" lat="37.422" lon="-122.01400000000001"><tag k="name" v="Location 7"/></node>
  <node id="9" lat="37.422" lon="-122.004"><tag k="name" v="Location 8"/></node>
  <node id="10" lat="37.422" lon="-121.994"><tag k="name" v="Location 9"/></node>
  <node id="11" lat="37.422" lon="-121.98400000000001"><tag k="name" v="Location 10"/></node>
  <node id="12" lat="37.422" lon="-121.974"><tag k="name" v="Location 11"/></node>
  <node id="13" lat="37.422" lon="-121.964"><tag k="name" v="Location 12"/></node>
  <node id="14" lat="37.422" lon="-121.95400000000001"><tag k="name" v="Location 13"/></node>
  <node id="15" lat="37.422" lon="-121.944"><tag k="name" v="Location 14"/></node>
  <node id="16" lat="37.422" lon="-121.934"><tag k="name" v="Location 15"/></node>
  <node id="17" lat="37.422" lon="-121.924"><tag k="name" v="Location 16"/></node>
  <node id="18" lat="37.422" lon="-121.914"><tag k="name" v="Location 17"/></node>
  <node id="19" lat="37.422" lon="-121.904"><tag k="name" v="Location 18"/></node>
  <node id="20" lat="37.422" lon="-121.894"><tag k="name" v="Location 19"/></node>
  <node id="21" lat="37.422" lon="-121.884"><tag k="name" v="Location 20"/></node>
  <node id="22" lat="37.422" lon="-121.87400000000001"><tag k="name" v="Location 21"/></node>
  <node id="23" lat="37.422" lon="-121.864"><tag k="name" v="Location 22"/></node>
  <node id="24" lat="37.422" lon="-121.854"><tag k="name" v="Location 23"/></node>
  <node id="25" lat="37.422" lon="-121.84400000000001"><tag k="name" v="Location 24"/></node>
  <node id="26" lat="37.422" lon="-121.834"><tag k="name" v="Location 25"/></node>
  <node id="27" lat="37.422" lon="-121.824"><tag k="name" v="Location 26"/></node>
  <node id="28" lat="37.422" lon="-121.81400000000001"><tag k="name" v="Location 27"/></node>
  <node id="29" lat="37.422" lon="-121.804"><tag k="name" v="Location 28"/></node>
  <node id="30" lat="37.422" lon="-121.794"><tag k="name" v="Location 29"/></node>
  <node id="31" lat="37.422" lon="-121.784"><tag k="name" v="Location 30"/></node>
  <node id="32" lat="37.422" lon="-121.774"><tag k="name" v="Location 31"/></node>
  <node id="33" lat="37.422" lon="-121.76400000000001"><tag k="name" v="Location 32"/></node>
  <node id="34" lat="37.422" lon="-121.754"><tag k="name" v="Location 33"/></node>
  <node id="35" lat="37.422" lon="-121.744"><tag k="name" v="Location 34"/></node>
  <node id="36" lat="37.422" lon="-121.73400000000001"><tag k="name" v="Location 35"/></node>
  <node id="37" lat="37.422" lon="-121.724"><tag k="name" v="Location 36"/></node>
  <node id="38" lat="37.422" lon="-121.714"><tag k="name" v="Location 37"/></node>
  <node id="39" lat="37.422" lon="-121.70400000000001"><tag k="name" v="Location 38"/></node>
  <node id="40" lat="37.422" lon="-121.694"><tag k="name" v="Location 39"/></node>
  <node id="41" lat="37.422" lon="-121.684"><tag k="name" v="Location 40"/></node>
  <node id="42" lat="37.422" lon="-121.674"><tag k="name" v="Location 41"/></node>
  <node id="43" lat="37.422" lon="-121.664"><tag k="name" v="Location 42"/></node>
  <node id="44" lat="37.422" lon="-121.654"><tag k="name" v="Location 43"/></node>
  <node id="45" lat="37.422" lon="-121.644"><tag k="name" v="Location 44"/></node>
  <node id="46" lat="37.422" lon="-121.634"><tag k="name" v="Location 45"/></node>
  <node id="47" lat="37.422" lon="-121.62400000000001"><tag k="name" v="Location 46"/></node>
  <node id="48" lat="37.422" lon="-121.614"><tag k="name" v="Location 47"/></node>
  <node id="49" lat="37.422" lon="-121.604"><tag k="name" v="Location 48"/></node>
  <node id="50" lat="37.422" lon="-121.59400000000001"><tag k="name" v="Location 49"/></node>
  <node id="51" lat="37.422" lon="-121.584"><tag k="name" v="Location 50"/></node>
  <node id="52" lat="37.422" lon="-121.574"><tag k="name" v="Location 51"/></node>
  <node id="53" lat="37.422" lon="-121.56400000000001"><tag k="name" v="Location 52"/></node>
  <node id="54" lat="37.422" lon="-121.554"><tag k="name" v="Location 53"/></node>
  <node id="55" lat="37.422" lon="-121.544"><tag k="name" v="Location 54"/></node>
  <node id="56" lat="37.422" lon="-121.534"><tag k="name" v="Location 55"/></node>
  <node id="57" lat="37.422" lon="-121.524"><tag k="name" v="Location 56"/></node>
  <node id="58" lat="37.422" lon="-121.51400000000001"><tag k="name" v="Location 57"/></node>
  <node id="59" lat="37.422" lon="-121.504"><tag k="name" v="Location 58"/></node>
  <node id="60" lat="37.422" lon="-121.494"><tag k="name" v="Location 59"/></node>
  <node id="61" lat="37.422" lon="-121.48400000000001"><tag k="name" v="Location 60"/></node>
  <node id="62" lat="37.422" lon="-121.474"><tag k="name" v="Location 61"/></node>
  <node id="63" lat="37.422" lon="-121.464"><tag k="name" v="Location 62"/></node>
  <node id="64" lat="37.422" lon="-121.45400000000001"><tag k="name" v="Location 63"/></node>
  <node id="65" lat="37.422" lon="-121.444"><tag k="name" v="Location 64"/></node>
  <node id="66" lat="37.422" lon="-121.434"><tag k="name" v="Location 65"/></node>
  <node id="67" lat="37.422" lon="-121.424"><tag k="name" v="Location 66"/></node>
  <node id="68" lat="37.422" lon="-121.414"><tag k="name" v="Location 67"/></node>
  <node id="69" lat="37.422" lon="-121.404"><tag k="name" v="Location 68"/></node>
  <node id="70" lat="37.422" lon="-121.394"><tag k="name" v="Location 69"/></node>
  <node id="71" lat="37.422" lon="-121.384"><tag k="name" v="Location 70"/></node>
  <node id="72" lat="37.422" lon="-121.37400000000001"><tag k="name" v="Location 71"/></node>
  <node id="73" lat="37.422" lon="-121.364"><tag k="name" v="Location 72"/></node>
  <node id="74" lat="37.422" lon="-121.354"><tag k="name" v="Location 73"/></node>
  <node id="75" lat="37.422" lon="-121.34400000000001"><tag k="name" v="Location 74"/></node>
  <node id="76" lat="37.422" lon="-121.334"><tag k="name" v="Location 75"/></node>
  <node id="77" lat="37.422" lon="-121.324"><tag k="name" v="Location 76"/></node>
  <node id="78" lat="37.422" lon="-121.31400000000001"><tag k="name" v="Location 77"/></node>
  <node id="79" lat="37.422" lon="-121.304"><tag k="name" v="Location 78"/></node>
  <node id="80" lat="37.422" lon="-121.294"><tag k="name" v="Location 79"/></node>
  <node id="81" lat="37.422" lon="-121.284"><tag k="name" v="Location 80"/></node>
  <node id="82" lat="37.422" lon="-121.274"><tag k="name" v="Location 81"/></node>
  <node id="83" lat="37.422" lon="-121.26400000000001"><tag k="name" v="Location 82"/></node>
  <node id="84" lat="37.422" lon="-121.254"><tag k="name" v="Location 83"/></node>
  <node id="85" lat="37.422" lon="-121.244"><tag k="name" v="Location 84"/></node>
  <node id="86" lat="37.422" lon="-121.23400000000001"><tag k="name" v="Location 85"/></node>
  <node id="87" lat="37.422" lon="-121.224"><tag k="name" v="Location 86"/></node>
  <node id="88" lat="37.422" lon="-121.214"><tag k="name" v="Location 87"/></node>
  <node id="89" lat="37.422" lon="-121.20400000000001"><tag k="name" v="Location 88"/></node>
  <node id="90" lat="37.422" lon="-121.194"><tag k="name" v="Location 89"/></node>
  <node id="91" lat="37.422" lon="-121.184"><tag k="name" v="Location 90"/></node>
  <node id="92" lat="37.422" lon="-121.174"><tag k="name" v="Location 91"/></node>
  <node id="93" lat="37.422" lon="-121.164"><tag k="name" v="Location 92"/></node>
  <node id="94" lat="37.422" lon="-121.154"><tag k="name" v="Location 93"/></node>
  <node id="95" lat="37.422" lon="-121.144"><tag k="name" v="Location 94"/></node>
  <node id="96" lat="37.422" lon="-121.134"><tag k="name" v="Location 95"/></node>
  <node id="97" lat="37.422" lon="-121.12400000000001"><tag k="name" v="Location 96"/></node>
  <node id="98" lat="37.422" lon="-121.114"><tag k="name" v="Location 97"/></node>
  <node id="99" lat="37.422" lon="-121.104"><tag k="name" v="Location 98"/></node>
  <node id="100" lat="37.422" lon="-121.09400000000001"><tag k="name" v="Location 99"/></node>
  <node id="101" lat="37.431999999999995" lon="-122.084"><tag k="name" v="Location 100"/></node>
  <node id="102" lat="37.431999999999995" lon="-122.074"><tag k="name" v="Location 101"/></node>
  <node id="103" lat="37.431999999999995" lon="-122.06400000000001"><tag k="name" v="Location 102"/></node>
  <node id="104" lat="37.431999999999995" lon="-122.054"><tag k="name" v="Location 103"/></node>
  <node id="105" lat="37.431999999999995" lon="-122.044"><tag k="name" v="Location 104"/></node>
  <node id="106" lat="37.431999999999995" lon="-122.034"><tag k="name" v="Location 105"/></node>
  <node id="107" lat="37.431999999999995" lon="-122.024"><tag k="name" v="Location 106"/></node>
  <node id="108" lat="37.431999999999995" lon="-122.01400000000001"><tag k="name" v="Location 107"/></node>
  <node id="109" lat="37.431999999999995" lon="-122.004"><tag k="name" v="Location 108"/></node>
  <node id="110" lat="37.431999999999995" lon="-121.994"><tag k="name" v="Location 109"/></node>
  <node id="111" lat="37.431999999999995" lon="-121.98400000000001"><tag k="name" v="Location 110"/></node>
  <node id="112" lat="37.431999999999995" lon="-121.974"><tag k="name" v="Location 111"/></node>
  <node id="113" lat="37.431999999999995" lon="-121.964"><tag k="name" v="Location 112"/></node>
  <node id="114" lat="37.431999999999995" lon="-121.95400000000001"><tag k="name" v="Location 113"/></node>
  <node id="115" lat="37.431999999999995" lon="-121.944"><tag k="name" v="Location 114"/></node>
  <node id="116" lat="37.431999999999995" lon="-121.934"><tag k="name" v="Location 115"/></node>
  <node id="117" lat="37.431999999999995" lon="-121.924"><tag k="name" v="Location 116"/></node>
  <node id="118" lat="37.431999999999995" lon="-121.914"><tag k="name" v="Location 117"/></node>
  <node id="119" lat="37.431999999999995" lon="-121.904"><tag k="name" v="Location 118"/></node>
  <node id="120" lat="37.431999999999995" lon="-121.894"><tag k="name" v="Location 119"/></node>
  <node id="121" lat="37.431999999999995" lon="-121.884"><tag k="name" v="Location 120"/></node>
  <node id="122" lat="37.431999999999995" lon="-121.87400000000001"><tag k="name" v="Location 121"/></node>
  <node id="123" lat="37.431999999999995" lon="-121.864"><tag k="name" v="Location 122"/></node>
  <node id="124" lat="37.431999999999995" lon="-121.854"><tag k="name" v="Location 123"/></node>
  <node id="125" lat="37.431999999999995" lon="-121.84400000000001"><tag k="name" v="Location 124"/></node>
  <node id="126" lat="37.431999999999995" lon="-121.834"><tag k="name" v="Location 125"/></node>
  <node id="127" lat="37.431999999999995" lon="-121.824"><tag k="name" v="Location 126"/></node>
  <node id="128" lat="37.431999999999995" lon="-121.81400000000001"><tag k="name" v="Location 127"/></node>
  <node id="129" lat="37.431999999999995" lon="-121.804"><tag k="name" v="Location 128"/></node>
  <node id="130" lat="37.431999999999995" lon="-121.794"><tag k="name" v="Location 129"/></node>
  <node id="131" lat="37.431999999999995" lon="-121.784"><tag k="name" v="Location 130"/></node>
  <node id="132" lat="37.431999999999995" lon="-121.774"><tag k="name" v="Location 131"/></node>
  <node id="133" lat="37.431999999999995" lon="-121.76400000000001"><tag k="name" v="Location 132"/></node>
  <node id="134" lat="37.431999999999995" lon="-121.754"><tag k="name" v="Location 133"/></node>
  <node id="135" lat="37.431999999999995" lon="-121.744"><tag k="name" v="Location 134"/></node>
  <node id="136" lat="37.431999999999995" lon="-121.73400000000001"><tag k="name" v="Location 135"/></node>
  <node id="137" lat="37.431999999999995" lon="-121.724"><tag k="name" v="Location 136"/></node>
  <node id="138" lat="37.431999999999995" lon="-121.714"><tag k="name" v="Location 137"/></node>
  <node id="139" lat="37.431999999999995" lon="-121.70400000000001"><tag k="name" v="Location 138"/></node>
  <node id="140" lat="37.431999999999995" lon="-121.694"><tag k="name" v="Location 139"/></node>
  <node id="141" lat="37.431999999999995" lon="-121.684"><tag k="name" v="Location 140"/></node>
  <node id="142" lat="37.431999999999995" lon="-121.674"><tag k="name" v="Location 141"/></node>
  <node id="143" lat="37.431999999999995" lon="-121.664"><tag k="name" v="Location 142"/></node>
  <node id="144" lat="37.431999999999995" lon="-121.654"><tag k="name" v="Location 143"/></node>
  <node id="145" lat="37.431999999999995" lon="-121.644"><tag k="name" v="Location 144"/></node>
  <node id="146" lat="37.431999999999995" lon="-121.634"><tag k="name" v="Location 145"/></node>
  <node id="147" lat="37.431999999999995" lon="-121.62400000000001"><tag k="name" v="Location 146"/></node>
  <node id="148" lat="37.431999999999995" lon="-121.614"><tag k="name" v="Location 147"/></node>
  <node id="149" lat="37.431999999999995" lon="-121.604"><tag k="name" v="Location 148"/></node>
  <node id="150" lat="37.431999999999995" lon="-121.59400000000001"><tag k="name" v="Location 149"/></node>
  <node id="151" lat="37.431999999999995" lon="-121.584"><tag k="name" v="Location 150"/></node>
  <node id="152" lat="37.431999999999995" lon="-121.574"><tag k="name" v="Location 151"/></node>
  <node id="153" lat="37.431999999999995" lon="-121.56400000000001"><tag k="name" v="Location 152"/></node>
  <node id="154" lat="37.431999999999995" lon="-121.554"><tag k="name" v="Location 153"/></node>
  <node id="155" lat="37.431999999999995" lon="-121.544"><tag k="name" v="Location 154"/></node>
  <node id="156" lat="37.431999999999995" lon="-121.534"><tag k="name" v="Location 155"/></node>
  <node id="157" lat="37.431999999999995" lon="-121.524"><tag k="name" v="Location 156"/></node>
  <node id="158" lat="37.431999999999995" lon="-121.51400000000001"><tag k="name" v="Location 157"/></node>
  <node id="159" lat="37.431999999999995" lon="-121.504"><tag k="name" v="Location 158"/></node>
  <node id="160" lat="37.431999999999995" lon="-121.494"><tag k="name" v="Location 159"/></node>
  <node id="161" lat="37.431999999999995" lon="-121.48400000000001"><tag k="name" v="Location 160"/></node>
  <node id="162" lat="37.431999999999995" lon="-121.474"><tag k="name" v="Location 161"/></node>
  <node id="163" lat="37.431999999999995" lon="-121.464"><tag k="name" v="Location 162"/></node>
  <node id="164" lat="37.431999999999995" lon="-121.45400000000001"><tag k="name" v="Location 163"/></node>
  <node id="165" lat="37.431999999999995" lon="-121.444"><tag k="name" v="Location 164"/></node>
  <node id="166" lat="37.431999999999995" lon="-121.434"><tag k="name" v="Location 165"/></node>
  <node id="167" lat="37.431999999999995" lon="-121.424"><tag k="name" v="Location 166"/></node>
  <node id="168" lat="37.431999999999995" lon="-121.414"><tag k="name" v="Location 167"/></node>
  <node id="169" lat="37.431999999999995" lon="-121.404"><tag k="name" v="Location 168"/></node>
  <node id="170" lat="37.431999999999995" lon="-121.394"><tag k="name" v="Location 169"/></node>
  <node id="171" lat="37.431999999999995" lon="-121.384"><tag k="name" v="Location 170"/></node>
  <node id="172" lat="37.431999999999995" lon="-121.37400000000001"><tag k="name" v="Location 171"/></node>
  <node id="173" lat="37.431999999999995" lon="-121.364"><tag k="name" v="Location 172"/></node>
  <node id="174" lat="37.431999999999995" lon="-121.354"><tag k="name" v="Location 173"/></node>
  <node id="175" lat="37.431999999999995" lon="-121.34400000000001"><tag k="name" v="Location 174"/></node>
  <node id="176" lat="37.431999999999995" lon="-121.334"><tag k="name" v="Location 175"/></node>
  <node id="177" lat="37.431999999999995" lon="-121.324"><tag k="name" v="Location 176"/></node>
  <node id="178" lat="37.431999999999995" lon="-121.31400000000001"><tag k="name" v="Location 177"/></node>
  <node id="179" lat="37.431999999999995" lon="-121.304"><tag k="name" v="Location 178"/></node>
  <node id="180" lat="37.431999999999995" lon="-121.294"><tag k="name" v="Location 179"/></node>
  <node id="181" lat="37.431999999999995" lon="-121.284"><tag k="name" v="Location 180"/></node>
  <node id="182" lat="37.431999999999995" lon="-121.274"><tag k="name" v="Location 181"/></node>
  <node id="183" lat="37.431999999999995" lon="-121.26400000000001"><tag k="name" v="Location 182"/></node>
  <node id="184" lat="37.431999999999995" lon="-121.254"><tag k="name" v="Location 183"/></node>
  <node id="185" lat="37.431999999999995" lon="-121.244"><tag k="name" v="Location 184"/></node>
  <node id="186" lat="37.431999999999995" lon="-121.23400000000001"><tag k="name" v="Location 185"/></node>
  <node id="187" lat="37.431999999999995" lon="-121.224"><tag k="name" v="Location 186"/></node>
  <node id="188" lat="37.431999999999995" lon="-121.214"><tag k="name" v="Location 187"/></node>
  <node id="189" lat="37.431999999999995" lon="-121.20400000000001"><tag k="name" v="Location 188"/></node>
  <node id="190" lat="37.431999999999995" lon="-121.194"><tag k="name" v="Location 189"/></node>
  <node id="191" lat="37.431999999999995" lon="-121.184"><tag k="name" v="Location 190"/></node>
  <node id="192" lat="37.431999999999995" lon="-121.174"><tag k="name" v="Location 191"/></node>
  <node id="193" lat="37.431999999999995" lon="-121.164"><tag k="name" v="Location 192"/></node>
  <node id="194" lat="37.431999999999995" lon="-121.154"><tag k="name" v="Location 193"/></node>
  <node id="195" lat="37.431999999999995" lon="-121.144"><tag k="name" v="Location 194"/></node>
  <node id="196" lat="37.431999999999995" lon="-121.134"><tag k="name" v="Location 195"/></node>
  <node id="197" lat="37.431999999999995" lon="-121.12400000000001"><tag k="name" v="Location 196"/></node>
  <node id="198" lat="37.431999999999995" lon="-121.114"><tag k="name" v="Location 197"/></node>
  <node id="199" lat="37.431999999999995" lon="-121.104"><tag k="name" v="Location 198"/></node>
  <node id="200" lat="37.431999999999995" lon="-121.09400000000001"><tag k="name" v="Location 199"/></node>
  <node id="201" lat="37.442" lon="-122.084"><tag k="name" v="Location 200"/></node>
  <node id="202" lat="37.442" lon="-122.074"><tag k="name" v="Location 201"/></node>
  <node id="203" lat="37.442" lon="-122.06400000000001"><tag k="name" v="Location 202"/></node>
  <node id="204" lat="37.442" lon="-122.054"><tag k="name" v="Location 203"/></node>
  <node id="205" lat="37.442" lon="-122.044"><tag k="name" v="Location 204"/></node>
  <node id="206" lat="37.442" lon="-122.034"><tag k="name" v="Location 205"/></node>
  <node id="207" lat="37.442" lon="-122.024"><tag k="name" v="Location 206"/></node>
  <node id="208" lat="37.442" lon="-122.01400000000001"><tag k="name" v="Location 207"/></node>
  <node id="209" lat="37.442" lon="-122.004"><tag k="name" v="Location 208"/></node>
  <node id="210" lat="37.442" lon="-121.994"><tag k="name" v="Location 209"/></node>
  <node id="211" lat="37.442" lon="-121.98400000000001"><tag k="name" v="Location 210"/></node>
  <node id="212" lat="37.442" lon="-121.974"><tag k="name" v="Location 211"/></node>
  <node id="213" lat="37.442" lon="-121.964"><tag k="name" v="Location 212"/></node>
  <node id="214" lat="37.442" lon="-121.95400000000001"><tag k="name" v="Location 213"/></node>
  <node id="215" lat="37.442" lon="-121.944"><tag k="name" v="Location 214"/></node>
  <node id="216" lat="37.442" lon="-121.934"><tag k="name" v="Location 215"/></node>
  <node id="217" lat="37.442" lon="-121.924"><tag k="name" v="Location 216"/></node>
  <node id="218" lat="37.442" lon="-121.914"><tag k="name" v="Location 217"/></node>
  <node id="219" lat="37.442" lon="-121.904"><tag k="name" v="Location 218"/></node>
  <node id="220" lat="37.442" lon="-121.894"><tag k="name" v="Location 219"/></node>
  <node id="221" lat="37.442" lon="-121.884"><tag k="name" v="Location 220"/></node>
  <node id="222" lat="37.442" lon="-121.87400000000001"><tag k="name" v="Location 221"/></node>
  <node id="223" lat="37.442" lon="-121.864"><tag k="name" v="Location 222"/></node>
  <node id="224" lat="37.442" lon="-121.854"><tag k="name" v="Location 223"/></node>
  <node id="225" lat="37.442" lon="-121.84400000000001"><tag k="name" v="Location 224"/></node>
  <node id="226" lat="37.442" lon="-121.834"><tag k="name" v="Location 225"/></node>
  <node id="227" lat="37.442" lon="-121.824"><tag k="name" v="Location 226"/></node>
  <node id="228" lat="37.442" lon="-121.81400000000001"><tag k="name" v="Location 227"/></node>
  <node id="229" lat="37.442" lon="-121.804"><tag k="name" v="Location 228"/></node>
  <node id="230" lat="37.442" lon="-121.794"><tag k="name" v="Location 229"/></node>
  <node id="231" lat="37.442" lon="-121.784"><tag k="name" v="Location 230"/></node>
  <node id="232" lat="37.442" lon="-121.774"><tag k="name" v="Location 231"/></node>
  <node id="233" lat="37.442" lon="-121.76400000000001"><tag k="name" v="Location 232"/></node>
  <node id="234" lat="37.442" lon="-121.754"><tag k="name" v="Location 233"/></node>
  <node id="235" lat="37.442" lon="-121.744"><tag k="name" v="Location 234"/></node>
  <node id="236" lat="37.442" lon="-121.73400000000001"><tag k="name" v="Location 235"/></node>
  <node id="237" lat="37.442" lon="-121.724"><tag k="name" v="Location 236"/></node>
  <node id="238" lat="37.442" lon="-121.714"><tag k="name" v="Location 237"/></node>
  <node id="239" lat="37.442" lon="-121.70400000000001"><tag k="name" v="Location 238"/></node>
  <node id="240" lat="37.442" lon="-121.694"><tag k="name" v="Location 239"/></node>
  <node id="241" lat="37.442" lon="-121.684"><tag k="name" v="Location 240"/></node>
  <node id="242" lat="37.442" lon="-121.674"><tag k="name" v="Location 241"/></node>
  <node id="243" lat="37.442" lon="-121.664"><tag k="name" v="Location 242"/></node>
  <node id="244" lat="37.442" lon="-121.654"><tag k="name" v="Location 243"/></node>
  <node id="245" lat="37.442" lon="-121.644"><tag k="name" v="Location 244"/></node>
  <node id="246" lat="37.442" lon="-121.634"><tag k="name" v="Location 245"/></node>
  <node id="247" lat="37.442" lon="-121.62400000000001"><tag k="name" v="Location 246"/></node>
  <node id="248" lat="37.442" lon="-121.614"><tag k="name" v="Location 247"/></node>
  <node id="249" lat="37.442" lon="-121.604"><tag k="name" v="Location 248"/></node>
  <node id="250" lat="37.442" lon="-121.59400000000001"><tag k="name" v="Location 249"/></node>
</osm>
