<?xml version="1.0" encoding="UTF-8"?>
<osm version="0.6" generator="GetSampleData.com">
  <node id="1" lat="37.422" lon="-122.084"><tag k="name" v="Location 0"/></node>
  <node id="2" lat="37.422" lon="-122.074"><tag k="name" v="Location 1"/></node>
  <node id="3" lat="37.422" lon="-122.06400000000001"><tag k="name" v="Location 2"/></node>
  <node id="4" lat="37.422" lon="-122.054"><tag k="name" v="Location 3"/></node>
  <node id="5" lat="37.422" lon="-122.044"><tag k="name" v="Location 4"/></node>
  <node id="6" lat="37.422" lon="-122.034"><tag k="name" v="Location 5"/></node>
  <node id="7" lat="37.422" lon="-122.024"><tag k="name" v="Location 6"/></node>
  <node id="8" lat="37.422" lon="-122.01400000000001"><tag k="name" v="Location 7"/></node>
  <node id="9" lat="37.422" lon="-122.004"><tag k="name" v="Location 8"/></node>
  <node id="10" lat="37.422" lon="-121.994"><tag k="name" v="Location 9"/></node>
  <node id="11" lat="37.422" lon="-121.98400000000001"><tag k="name" v="Location 10"/></node>
  <node id="12" lat="37.422" lon="-121.974"><tag k="name" v="Location 11"/></node>
  <node id="13" lat="37.422" lon="-121.964"><tag k="name" v="Location 12"/></node>
  <node id="14" lat="37.422" lon="-121.95400000000001"><tag k="name" v="Location 13"/></node>
  <node id="15" lat="37.422" lon="-121.944"><tag k="name" v="Location 14"/></node>
  <node id="16" lat="37.422" lon="-121.934"><tag k="name" v="Location 15"/></node>
  <node id="17" lat="37.422" lon="-121.924"><tag k="name" v="Location 16"/></node>
  <node id="18" lat="37.422" lon="-121.914"><tag k="name" v="Location 17"/></node>
  <node id="19" lat="37.422" lon="-121.904"><tag k="name" v="Location 18"/></node>
  <node id="20" lat="37.422" lon="-121.894"><tag k="name" v="Location 19"/></node>
  <node id="21" lat="37.422" lon="-121.884"><tag k="name" v="Location 20"/></node>
  <node id="22" lat="37.422" lon="-121.87400000000001"><tag k="name" v="Location 21"/></node>
  <node id="23" lat="37.422" lon="-121.864"><tag k="name" v="Location 22"/></node>
  <node id="24" lat="37.422" lon="-121.854"><tag k="name" v="Location 23"/></node>
  <node id="25" lat="37.422" lon="-121.84400000000001"><tag k="name" v="Location 24"/></node>
  <node id="26" lat="37.422" lon="-121.834"><tag k="name" v="Location 25"/></node>
  <node id="27" lat="37.422" lon="-121.824"><tag k="name" v="Location 26"/></node>
  <node id="28" lat="37.422" lon="-121.81400000000001"><tag k="name" v="Location 27"/></node>
  <node id="29" lat="37.422" lon="-121.804"><tag k="name" v="Location 28"/></node>
  <node id="30" lat="37.422" lon="-121.794"><tag k="name" v="Location 29"/></node>
  <node id="31" lat="37.422" lon="-121.784"><tag k="name" v="Location 30"/></node>
  <node id="32" lat="37.422" lon="-121.774"><tag k="name" v="Location 31"/></node>
  <node id="33" lat="37.422" lon="-121.76400000000001"><tag k="name" v="Location 32"/></node>
  <node id="34" lat="37.422" lon="-121.754"><tag k="name" v="Location 33"/></node>
  <node id="35" lat="37.422" lon="-121.744"><tag k="name" v="Location 34"/></node>
  <node id="36" lat="37.422" lon="-121.73400000000001"><tag k="name" v="Location 35"/></node>
  <node id="37" lat="37.422" lon="-121.724"><tag k="name" v="Location 36"/></node>
  <node id="38" lat="37.422" lon="-121.714"><tag k="name" v="Location 37"/></node>
  <node id="39" lat="37.422" lon="-121.70400000000001"><tag k="name" v="Location 38"/></node>
  <node id="40" lat="37.422" lon="-121.694"><tag k="name" v="Location 39"/></node>
  <node id="41" lat="37.422" lon="-121.684"><tag k="name" v="Location 40"/></node>
  <node id="42" lat="37.422" lon="-121.674"><tag k="name" v="Location 41"/></node>
  <node id="43" lat="37.422" lon="-121.664"><tag k="name" v="Location 42"/></node>
  <node id="44" lat="37.422" lon="-121.654"><tag k="name" v="Location 43"/></node>
  <node id="45" lat="37.422" lon="-121.644"><tag k="name" v="Location 44"/></node>
  <node id="46" lat="37.422" lon="-121.634"><tag k="name" v="Location 45"/></node>
  <node id="47" lat="37.422" lon="-121.62400000000001"><tag k="name" v="Location 46"/></node>
  <node id="48" lat="37.422" lon="-121.614"><tag k="name" v="Location 47"/></node>
  <node id="49" lat="37.422" lon="-121.604"><tag k="name" v="Location 48"/></node>
  <node id="50" lat="37.422" lon="-121.59400000000001"><tag k="name" v="Location 49"/></node>
  <node id="51" lat="37.422" lon="-121.584"><tag k="name" v="Location 50"/></node>
  <node id="52" lat="37.422" lon="-121.574"><tag k="name" v="Location 51"/></node>
  <node id="53" lat="37.422" lon="-121.56400000000001"><tag k="name" v="Location 52"/></node>
  <node id="54" lat="37.422" lon="-121.554"><tag k="name" v="Location 53"/></node>
  <node id="55" lat="37.422" lon="-121.544"><tag k="name" v="Location 54"/></node>
  <node id="56" lat="37.422" lon="-121.534"><tag k="name" v="Location 55"/></node>
  <node id="57" lat="37.422" lon="-121.524"><tag k="name" v="Location 56"/></node>
  <node id="58" lat="37.422" lon="-121.51400000000001"><tag k="name" v="Location 57"/></node>
  <node id="59" lat="37.422" lon="-121.504"><tag k="name" v="Location 58"/></node>
  <node id="60" lat="37.422" lon="-121.494"><tag k="name" v="Location 59"/></node>
  <node id="61" lat="37.422" lon="-121.48400000000001"><tag k="name" v="Location 60"/></node>
  <node id="62" lat="37.422" lon="-121.474"><tag k="name" v="Location 61"/></node>
  <node id="63" lat="37.422" lon="-121.464"><tag k="name" v="Location 62"/></node>
  <node id="64" lat="37.422" lon="-121.45400000000001"><tag k="name" v="Location 63"/></node>
  <node id="65" lat="37.422" lon="-121.444"><tag k="name" v="Location 64"/></node>
  <node id="66" lat="37.422" lon="-121.434"><tag k="name" v="Location 65"/></node>
  <node id="67" lat="37.422" lon="-121.424"><tag k="name" v="Location 66"/></node>
  <node id="68" lat="37.422" lon="-121.414"><tag k="name" v="Location 67"/></node>
  <node id="69" lat="37.422" lon="-121.404"><tag k="name" v="Location 68"/></node>
  <node id="70" lat="37.422" lon="-121.394"><tag k="name" v="Location 69"/></node>
  <node id="71" lat="37.422" lon="-121.384"><tag k="name" v="Location 70"/></node>
  <node id="72" lat="37.422" lon="-121.37400000000001"><tag k="name" v="Location 71"/></node>
  <node id="73" lat="37.422" lon="-121.364"><tag k="name" v="Location 72"/></node>
  <node id="74" lat="37.422" lon="-121.354"><tag k="name" v="Location 73"/></node>
  <node id="75" lat="37.422" lon="-121.34400000000001"><tag k="name" v="Location 74"/></node>
  <node id="76" lat="37.422" lon="-121.334"><tag k="name" v="Location 75"/></node>
  <node id="77" lat="37.422" lon="-121.324"><tag k="name" v="Location 76"/></node>
  <node id="78" lat="37.422" lon="-121.31400000000001"><tag k="name" v="Location 77"/></node>
  <node id="79" lat="37.422" lon="-121.304"><tag k="name" v="Location 78"/></node>
  <node id="80" lat="37.422" lon="-121.294"><tag k="name" v="Location 79"/></node>
  <node id="81" lat="37.422" lon="-121.284"><tag k="name" v="Location 80"/></node>
  <node id="82" lat="37.422" lon="-121.274"><tag k="name" v="Location 81"/></node>
  <node id="83" lat="37.422" lon="-121.26400000000001"><tag k="name" v="Location 82"/></node>
  <node id="84" lat="37.422" lon="-121.254"><tag k="name" v="Location 83"/></node>
  <node id="85" lat="37.422" lon="-121.244"><tag k="name" v="Location 84"/></node>
  <node id="86" lat="37.422" lon="-121.23400000000001"><tag k="name" v="Location 85"/></node>
  <node id="87" lat="37.422" lon="-121.224"><tag k="name" v="Location 86"/></node>
  <node id="88" lat="37.422" lon="-121.214"><tag k="name" v="Location 87"/></node>
  <node id="89" lat="37.422" lon="-121.20400000000001"><tag k="name" v="Location 88"/></node>
  <node id="90" lat="37.422" lon="-121.194"><tag k="name" v="Location 89"/></node>
  <node id="91" lat="37.422" lon="-121.184"><tag k="name" v="Location 90"/></node>
  <node id="92" lat="37.422" lon="-121.174"><tag k="name" v="Location 91"/></node>
  <node id="93" lat="37.422" lon="-121.164"><tag k="name" v="Location 92"/></node>
  <node id="94" lat="37.422" lon="-121.154"><tag k="name" v="Location 93"/></node>
  <node id="95" lat="37.422" lon="-121.144"><tag k="name" v="Location 94"/></node>
  <node id="96" lat="37.422" lon="-121.134"><tag k="name" v="Location 95"/></node>
  <node id="97" lat="37.422" lon="-121.12400000000001"><tag k="name" v="Location 96"/></node>
  <node id="98" lat="37.422" lon="-121.114"><tag k="name" v="Location 97"/></node>
  <node id="99" lat="37.422" lon="-121.104"><tag k="name" v="Location 98"/></node>
  <node id="100" lat="37.422" lon="-121.09400000000001"><tag k="name" v="Location 99"/></node>
  <node id="101" lat="37.431999999999995" lon="-122.084"><tag k="name" v="Location 100"/></node>
  <node id="102" lat="37.431999999999995" lon="-122.074"><tag k="name" v="Location 101"/></node>
  <node id="103" lat="37.431999999999995" lon="-122.06400000000001"><tag k="name" v="Location 102"/></node>
  <node id="104" lat="37.431999999999995" lon="-122.054"><tag k="name" v="Location 103"/></node>
  <node id="105" lat="37.431999999999995" lon="-122.044"><tag k="name" v="Location 104"/></node>
  <node id="106" lat="37.431999999999995" lon="-122.034"><tag k="name" v="Location 105"/></node>
  <node id="107" lat="37.431999999999995" lon="-122.024"><tag k="name" v="Location 106"/></node>
  <node id="108" lat="37.431999999999995" lon="-122.01400000000001"><tag k="name" v="Location 107"/></node>
  <node id="109" lat="37.431999999999995" lon="-122.004"><tag k="name" v="Location 108"/></node>
  <node id="110" lat="37.431999999999995" lon="-121.994"><tag k="name" v="Location 109"/></node>
  <node id="111" lat="37.431999999999995" lon="-121.98400000000001"><tag k="name" v="Location 110"/></node>
  <node id="112" lat="37.431999999999995" lon="-121.974"><tag k="name" v="Location 111"/></node>
  <node id="113" lat="37.431999999999995" lon="-121.964"><tag k="name" v="Location 112"/></node>
  <node id="114" lat="37.431999999999995" lon="-121.95400000000001"><tag k="name" v="Location 113"/></node>
  <node id="115" lat="37.431999999999995" lon="-121.944"><tag k="name" v="Location 114"/></node>
  <node id="116" lat="37.431999999999995" lon="-121.934"><tag k="name" v="Location 115"/></node>
  <node id="117" lat="37.431999999999995" lon="-121.924"><tag k="name" v="Location 116"/></node>
  <node id="118" lat="37.431999999999995" lon="-121.914"><tag k="name" v="Location 117"/></node>
  <node id="119" lat="37.431999999999995" lon="-121.904"><tag k="name" v="Location 118"/></node>
  <node id="120" lat="37.431999999999995" lon="-121.894"><tag k="name" v="Location 119"/></node>
  <node id="121" lat="37.431999999999995" lon="-121.884"><tag k="name" v="Location 120"/></node>
  <node id="122" lat="37.431999999999995" lon="-121.87400000000001"><tag k="name" v="Location 121"/></node>
  <node id="123" lat="37.431999999999995" lon="-121.864"><tag k="name" v="Location 122"/></node>
  <node id="124" lat="37.431999999999995" lon="-121.854"><tag k="name" v="Location 123"/></node>
  <node id="125" lat="37.431999999999995" lon="-121.84400000000001"><tag k="name" v="Location 124"/></node>
  <node id="126" lat="37.431999999999995" lon="-121.834"><tag k="name" v="Location 125"/></node>
  <node id="127" lat="37.431999999999995" lon="-121.824"><tag k="name" v="Location 126"/></node>
  <node id="128" lat="37.431999999999995" lon="-121.81400000000001"><tag k="name" v="Location 127"/></node>
  <node id="129" lat="37.431999999999995" lon="-121.804"><tag k="name" v="Location 128"/></node>
  <node id="130" lat="37.431999999999995" lon="-121.794"><tag k="name" v="Location 129"/></node>
  <node id="131" lat="37.431999999999995" lon="-121.784"><tag k="name" v="Location 130"/></node>
  <node id="132" lat="37.431999999999995" lon="-121.774"><tag k="name" v="Location 131"/></node>
  <node id="133" lat="37.431999999999995" lon="-121.76400000000001"><tag k="name" v="Location 132"/></node>
  <node id="134" lat="37.431999999999995" lon="-121.754"><tag k="name" v="Location 133"/></node>
  <node id="135" lat="37.431999999999995" lon="-121.744"><tag k="name" v="Location 134"/></node>
  <node id="136" lat="37.431999999999995" lon="-121.73400000000001"><tag k="name" v="Location 135"/></node>
  <node id="137" lat="37.431999999999995" lon="-121.724"><tag k="name" v="Location 136"/></node>
  <node id="138" lat="37.431999999999995" lon="-121.714"><tag k="name" v="Location 137"/></node>
  <node id="139" lat="37.431999999999995" lon="-121.70400000000001"><tag k="name" v="Location 138"/></node>
  <node id="140" lat="37.431999999999995" lon="-121.694"><tag k="name" v="Location 139"/></node>
  <node id="141" lat="37.431999999999995" lon="-121.684"><tag k="name" v="Location 140"/></node>
  <node id="142" lat="37.431999999999995" lon="-121.674"><tag k="name" v="Location 141"/></node>
  <node id="143" lat="37.431999999999995" lon="-121.664"><tag k="name" v="Location 142"/></node>
  <node id="144" lat="37.431999999999995" lon="-121.654"><tag k="name" v="Location 143"/></node>
  <node id="145" lat="37.431999999999995" lon="-121.644"><tag k="name" v="Location 144"/></node>
  <node id="146" lat="37.431999999999995" lon="-121.634"><tag k="name" v="Location 145"/></node>
  <node id="147" lat="37.431999999999995" lon="-121.62400000000001"><tag k="name" v="Location 146"/></node>
  <node id="148" lat="37.431999999999995" lon="-121.614"><tag k="name" v="Location 147"/></node>
  <node id="149" lat="37.431999999999995" lon="-121.604"><tag k="name" v="Location 148"/></node>
  <node id="150" lat="37.431999999999995" lon="-121.59400000000001"><tag k="name" v="Location 149"/></node>
  <node id="151" lat="37.431999999999995" lon="-121.584"><tag k="name" v="Location 150"/></node>
  <node id="152" lat="37.431999999999995" lon="-121.574"><tag k="name" v="Location 151"/></node>
  <node id="153" lat="37.431999999999995" lon="-121.56400000000001"><tag k="name" v="Location 152"/></node>
  <node id="154" lat="37.431999999999995" lon="-121.554"><tag k="name" v="Location 153"/></node>
  <node id="155" lat="37.431999999999995" lon="-121.544"><tag k="name" v="Location 154"/></node>
  <node id="156" lat="37.431999999999995" lon="-121.534"><tag k="name" v="Location 155"/></node>
  <node id="157" lat="37.431999999999995" lon="-121.524"><tag k="name" v="Location 156"/></node>
  <node id="158" lat="37.431999999999995" lon="-121.51400000000001"><tag k="name" v="Location 157"/></node>
  <node id="159" lat="37.431999999999995" lon="-121.504"><tag k="name" v="Location 158"/></node>
  <node id="160" lat="37.431999999999995" lon="-121.494"><tag k="name" v="Location 159"/></node>
  <node id="161" lat="37.431999999999995" lon="-121.48400000000001"><tag k="name" v="Location 160"/></node>
  <node id="162" lat="37.431999999999995" lon="-121.474"><tag k="name" v="Location 161"/></node>
  <node id="163" lat="37.431999999999995" lon="-121.464"><tag k="name" v="Location 162"/></node>
  <node id="164" lat="37.431999999999995" lon="-121.45400000000001"><tag k="name" v="Location 163"/></node>
  <node id="165" lat="37.431999999999995" lon="-121.444"><tag k="name" v="Location 164"/></node>
  <node id="166" lat="37.431999999999995" lon="-121.434"><tag k="name" v="Location 165"/></node>
  <node id="167" lat="37.431999999999995" lon="-121.424"><tag k="name" v="Location 166"/></node>
  <node id="168" lat="37.431999999999995" lon="-121.414"><tag k="name" v="Location 167"/></node>
  <node id="169" lat="37.431999999999995" lon="-121.404"><tag k="name" v="Location 168"/></node>
  <node id="170" lat="37.431999999999995" lon="-121.394"><tag k="name" v="Location 169"/></node>
  <node id="171" lat="37.431999999999995" lon="-121.384"><tag k="name" v="Location 170"/></node>
  <node id="172" lat="37.431999999999995" lon="-121.37400000000001"><tag k="name" v="Location 171"/></node>
  <node id="173" lat="37.431999999999995" lon="-121.364"><tag k="name" v="Location 172"/></node>
  <node id="174" lat="37.431999999999995" lon="-121.354"><tag k="name" v="Location 173"/></node>
  <node id="175" lat="37.431999999999995" lon="-121.34400000000001"><tag k="name" v="Location 174"/></node>
  <node id="176" lat="37.431999999999995" lon="-121.334"><tag k="name" v="Location 175"/></node>
  <node id="177" lat="37.431999999999995" lon="-121.324"><tag k="name" v="Location 176"/></node>
  <node id="178" lat="37.431999999999995" lon="-121.31400000000001"><tag k="name" v="Location 177"/></node>
  <node id="179" lat="37.431999999999995" lon="-121.304"><tag k="name" v="Location 178"/></node>
  <node id="180" lat="37.431999999999995" lon="-121.294"><tag k="name" v="Location 179"/></node>
  <node id="181" lat="37.431999999999995" lon="-121.284"><tag k="name" v="Location 180"/></node>
  <node id="182" lat="37.431999999999995" lon="-121.274"><tag k="name" v="Location 181"/></node>
  <node id="183" lat="37.431999999999995" lon="-121.26400000000001"><tag k="name" v="Location 182"/></node>
  <node id="184" lat="37.431999999999995" lon="-121.254"><tag k="name" v="Location 183"/></node>
  <node id="185" lat="37.431999999999995" lon="-121.244"><tag k="name" v="Location 184"/></node>
  <node id="186" lat="37.431999999999995" lon="-121.23400000000001"><tag k="name" v="Location 185"/></node>
  <node id="187" lat="37.431999999999995" lon="-121.224"><tag k="name" v="Location 186"/></node>
  <node id="188" lat="37.431999999999995" lon="-121.214"><tag k="name" v="Location 187"/></node>
  <node id="189" lat="37.431999999999995" lon="-121.20400000000001"><tag k="name" v="Location 188"/></node>
  <node id="190" lat="37.431999999999995" lon="-121.194"><tag k="name" v="Location 189"/></node>
  <node id="191" lat="37.431999999999995" lon="-121.184"><tag k="name" v="Location 190"/></node>
  <node id="192" lat="37.431999999999995" lon="-121.174"><tag k="name" v="Location 191"/></node>
  <node id="193" lat="37.431999999999995" lon="-121.164"><tag k="name" v="Location 192"/></node>
  <node id="194" lat="37.431999999999995" lon="-121.154"><tag k="name" v="Location 193"/></node>
  <node id="195" lat="37.431999999999995" lon="-121.144"><tag k="name" v="Location 194"/></node>
  <node id="196" lat="37.431999999999995" lon="-121.134"><tag k="name" v="Location 195"/></node>
  <node id="197" lat="37.431999999999995" lon="-121.12400000000001"><tag k="name" v="Location 196"/></node>
  <node id="198" lat="37.431999999999995" lon="-121.114"><tag k="name" v="Location 197"/></node>
  <node id="199" lat="37.431999999999995" lon="-121.104"><tag k="name" v="Location 198"/></node>
  <node id="200" lat="37.431999999999995" lon="-121.09400000000001"><tag k="name" v="Location 199"/></node>
  <node id="201" lat="37.442" lon="-122.084"><tag k="name" v="Location 200"/></node>
  <node id="202" lat="37.442" lon="-122.074"><tag k="name" v="Location 201"/></node>
  <node id="203" lat="37.442" lon="-122.06400000000001"><tag k="name" v="Location 202"/></node>
  <node id="204" lat="37.442" lon="-122.054"><tag k="name" v="Location 203"/></node>
  <node id="205" lat="37.442" lon="-122.044"><tag k="name" v="Location 204"/></node>
  <node id="206" lat="37.442" lon="-122.034"><tag k="name" v="Location 205"/></node>
  <node id="207" lat="37.442" lon="-122.024"><tag k="name" v="Location 206"/></node>
  <node id="208" lat="37.442" lon="-122.01400000000001"><tag k="name" v="Location 207"/></node>
  <node id="209" lat="37.442" lon="-122.004"><tag k="name" v="Location 208"/></node>
  <node id="210" lat="37.442" lon="-121.994"><tag k="name" v="Location 209"/></node>
  <node id="211" lat="37.442" lon="-121.98400000000001"><tag k="name" v="Location 210"/></node>
  <node id="212" lat="37.442" lon="-121.974"><tag k="name" v="Location 211"/></node>
  <node id="213" lat="37.442" lon="-121.964"><tag k="name" v="Location 212"/></node>
  <node id="214" lat="37.442" lon="-121.95400000000001"><tag k="name" v="Location 213"/></node>
  <node id="215" lat="37.442" lon="-121.944"><tag k="name" v="Location 214"/></node>
  <node id="216" lat="37.442" lon="-121.934"><tag k="name" v="Location 215"/></node>
  <node id="217" lat="37.442" lon="-121.924"><tag k="name" v="Location 216"/></node>
  <node id="218" lat="37.442" lon="-121.914"><tag k="name" v="Location 217"/></node>
  <node id="219" lat="37.442" lon="-121.904"><tag k="name" v="Location 218"/></node>
  <node id="220" lat="37.442" lon="-121.894"><tag k="name" v="Location 219"/></node>
  <node id="221" lat="37.442" lon="-121.884"><tag k="name" v="Location 220"/></node>
  <node id="222" lat="37.442" lon="-121.87400000000001"><tag k="name" v="Location 221"/></node>
  <node id="223" lat="37.442" lon="-121.864"><tag k="name" v="Location 222"/></node>
  <node id="224" lat="37.442" lon="-121.854"><tag k="name" v="Location 223"/></node>
  <node id="225" lat="37.442" lon="-121.84400000000001"><tag k="name" v="Location 224"/></node>
  <node id="226" lat="37.442" lon="-121.834"><tag k="name" v="Location 225"/></node>
  <node id="227" lat="37.442" lon="-121.824"><tag k="name" v="Location 226"/></node>
  <node id="228" lat="37.442" lon="-121.81400000000001"><tag k="name" v="Location 227"/></node>
  <node id="229" lat="37.442" lon="-121.804"><tag k="name" v="Location 228"/></node>
  <node id="230" lat="37.442" lon="-121.794"><tag k="name" v="Location 229"/></node>
  <node id="231" lat="37.442" lon="-121.784"><tag k="name" v="Location 230"/></node>
  <node id="232" lat="37.442" lon="-121.774"><tag k="name" v="Location 231"/></node>
  <node id="233" lat="37.442" lon="-121.76400000000001"><tag k="name" v="Location 232"/></node>
  <node id="234" lat="37.442" lon="-121.754"><tag k="name" v="Location 233"/></node>
  <node id="235" lat="37.442" lon="-121.744"><tag k="name" v="Location 234"/></node>
  <node id="236" lat="37.442" lon="-121.73400000000001"><tag k="name" v="Location 235"/></node>
  <node id="237" lat="37.442" lon="-121.724"><tag k="name" v="Location 236"/></node>
  <node id="238" lat="37.442" lon="-121.714"><tag k="name" v="Location 237"/></node>
  <node id="239" lat="37.442" lon="-121.70400000000001"><tag k="name" v="Location 238"/></node>
  <node id="240" lat="37.442" lon="-121.694"><tag k="name" v="Location 239"/></node>
  <node id="241" lat="37.442" lon="-121.684"><tag k="name" v="Location 240"/></node>
  <node id="242" lat="37.442" lon="-121.674"><tag k="name" v="Location 241"/></node>
  <node id="243" lat="37.442" lon="-121.664"><tag k="name" v="Location 242"/></node>
  <node id="244" lat="37.442" lon="-121.654"><tag k="name" v="Location 243"/></node>
  <node id="245" lat="37.442" lon="-121.644"><tag k="name" v="Location 244"/></node>
  <node id="246" lat="37.442" lon="-121.634"><tag k="name" v="Location 245"/></node>
  <node id="247" lat="37.442" lon="-121.62400000000001"><tag k="name" v="Location 246"/></node>
  <node id="248" lat="37.442" lon="-121.614"><tag k="name" v="Location 247"/></node>
  <node id="249" lat="37.442" lon="-121.604"><tag k="name" v="Location 248"/></node>
  <node id="250" lat="37.442" lon="-121.59400000000001"><tag k="name" v="Location 249"/></node>
  <node id="251" lat="37.442" lon="-121.584"><tag k="name" v="Location 250"/></node>
  <node id="252" lat="37.442" lon="-121.574"><tag k="name" v="Location 251"/></node>
  <node id="253" lat="37.442" lon="-121.56400000000001"><tag k="name" v="Location 252"/></node>
  <node id="254" lat="37.442" lon="-121.554"><tag k="name" v="Location 253"/></node>
  <node id="255" lat="37.442" lon="-121.544"><tag k="name" v="Location 254"/></node>
  <node id="256" lat="37.442" lon="-121.534"><tag k="name" v="Location 255"/></node>
  <node id="257" lat="37.442" lon="-121.524"><tag k="name" v="Location 256"/></node>
  <node id="258" lat="37.442" lon="-121.51400000000001"><tag k="name" v="Location 257"/></node>
  <node id="259" lat="37.442" lon="-121.504"><tag k="name" v="Location 258"/></node>
  <node id="260" lat="37.442" lon="-121.494"><tag k="name" v="Location 259"/></node>
  <node id="261" lat="37.442" lon="-121.48400000000001"><tag k="name" v="Location 260"/></node>
  <node id="262" lat="37.442" lon="-121.474"><tag k="name" v="Location 261"/></node>
  <node id="263" lat="37.442" lon="-121.464"><tag k="name" v="Location 262"/></node>
  <node id="264" lat="37.442" lon="-121.45400000000001"><tag k="name" v="Location 263"/></node>
  <node id="265" lat="37.442" lon="-121.444"><tag k="name" v="Location 264"/></node>
  <node id="266" lat="37.442" lon="-121.434"><tag k="name" v="Location 265"/></node>
  <node id="267" lat="37.442" lon="-121.424"><tag k="name" v="Location 266"/></node>
  <node id="268" lat="37.442" lon="-121.414"><tag k="name" v="Location 267"/></node>
  <node id="269" lat="37.442" lon="-121.404"><tag k="name" v="Location 268"/></node>
  <node id="270" lat="37.442" lon="-121.394"><tag k="name" v="Location 269"/></node>
  <node id="271" lat="37.442" lon="-121.384"><tag k="name" v="Location 270"/></node>
  <node id="272" lat="37.442" lon="-121.37400000000001"><tag k="name" v="Location 271"/></node>
  <node id="273" lat="37.442" lon="-121.364"><tag k="name" v="Location 272"/></node>
  <node id="274" lat="37.442" lon="-121.354"><tag k="name" v="Location 273"/></node>
  <node id="275" lat="37.442" lon="-121.34400000000001"><tag k="name" v="Location 274"/></node>
  <node id="276" lat="37.442" lon="-121.334"><tag k="name" v="Location 275"/></node>
  <node id="277" lat="37.442" lon="-121.324"><tag k="name" v="Location 276"/></node>
  <node id="278" lat="37.442" lon="-121.31400000000001"><tag k="name" v="Location 277"/></node>
  <node id="279" lat="37.442" lon="-121.304"><tag k="name" v="Location 278"/></node>
  <node id="280" lat="37.442" lon="-121.294"><tag k="name" v="Location 279"/></node>
  <node id="281" lat="37.442" lon="-121.284"><tag k="name" v="Location 280"/></node>
  <node id="282" lat="37.442" lon="-121.274"><tag k="name" v="Location 281"/></node>
  <node id="283" lat="37.442" lon="-121.26400000000001"><tag k="name" v="Location 282"/></node>
  <node id="284" lat="37.442" lon="-121.254"><tag k="name" v="Location 283"/></node>
  <node id="285" lat="37.442" lon="-121.244"><tag k="name" v="Location 284"/></node>
  <node id="286" lat="37.442" lon="-121.23400000000001"><tag k="name" v="Location 285"/></node>
  <node id="287" lat="37.442" lon="-121.224"><tag k="name" v="Location 286"/></node>
  <node id="288" lat="37.442" lon="-121.214"><tag k="name" v="Location 287"/></node>
  <node id="289" lat="37.442" lon="-121.20400000000001"><tag k="name" v="Location 288"/></node>
  <node id="290" lat="37.442" lon="-121.194"><tag k="name" v="Location 289"/></node>
  <node id="291" lat="37.442" lon="-121.184"><tag k="name" v="Location 290"/></node>
  <node id="292" lat="37.442" lon="-121.174"><tag k="name" v="Location 291"/></node>
  <node id="293" lat="37.442" lon="-121.164"><tag k="name" v="Location 292"/></node>
  <node id="294" lat="37.442" lon="-121.154"><tag k="name" v="Location 293"/></node>
  <node id="295" lat="37.442" lon="-121.144"><tag k="name" v="Location 294"/></node>
  <node id="296" lat="37.442" lon="-121.134"><tag k="name" v="Location 295"/></node>
  <node id="297" lat="37.442" lon="-121.12400000000001"><tag k="name" v="Location 296"/></node>
  <node id="298" lat="37.442" lon="-121.114"><tag k="name" v="Location 297"/></node>
  <node id="299" lat="37.442" lon="-121.104"><tag k="name" v="Location 298"/></node>
  <node id="300" lat="37.442" lon="-121.09400000000001"><tag k="name" v="Location 299"/></node>
  <node id="301" lat="37.452" lon="-122.084"><tag k="name" v="Location 300"/></node>
  <node id="302" lat="37.452" lon="-122.074"><tag k="name" v="Location 301"/></node>
  <node id="303" lat="37.452" lon="-122.06400000000001"><tag k="name" v="Location 302"/></node>
  <node id="304" lat="37.452" lon="-122.054"><tag k="name" v="Location 303"/></node>
  <node id="305" lat="37.452" lon="-122.044"><tag k="name" v="Location 304"/></node>
  <node id="306" lat="37.452" lon="-122.034"><tag k="name" v="Location 305"/></node>
  <node id="307" lat="37.452" lon="-122.024"><tag k="name" v="Location 306"/></node>
  <node id="308" lat="37.452" lon="-122.01400000000001"><tag k="name" v="Location 307"/></node>
  <node id="309" lat="37.452" lon="-122.004"><tag k="name" v="Location 308"/></node>
  <node id="310" lat="37.452" lon="-121.994"><tag k="name" v="Location 309"/></node>
  <node id="311" lat="37.452" lon="-121.98400000000001"><tag k="name" v="Location 310"/></node>
  <node id="312" lat="37.452" lon="-121.974"><tag k="name" v="Location 311"/></node>
  <node id="313" lat="37.452" lon="-121.964"><tag k="name" v="Location 312"/></node>
  <node id="314" lat="37.452" lon="-121.95400000000001"><tag k="name" v="Location 313"/></node>
  <node id="315" lat="37.452" lon="-121.944"><tag k="name" v="Location 314"/></node>
  <node id="316" lat="37.452" lon="-121.934"><tag k="name" v="Location 315"/></node>
  <node id="317" lat="37.452" lon="-121.924"><tag k="name" v="Location 316"/></node>
  <node id="318" lat="37.452" lon="-121.914"><tag k="name" v="Location 317"/></node>
  <node id="319" lat="37.452" lon="-121.904"><tag k="name" v="Location 318"/></node>
  <node id="320" lat="37.452" lon="-121.894"><tag k="name" v="Location 319"/></node>
  <node id="321" lat="37.452" lon="-121.884"><tag k="name" v="Location 320"/></node>
  <node id="322" lat="37.452" lon="-121.87400000000001"><tag k="name" v="Location 321"/></node>
  <node id="323" lat="37.452" lon="-121.864"><tag k="name" v="Location 322"/></node>
  <node id="324" lat="37.452" lon="-121.854"><tag k="name" v="Location 323"/></node>
  <node id="325" lat="37.452" lon="-121.84400000000001"><tag k="name" v="Location 324"/></node>
  <node id="326" lat="37.452" lon="-121.834"><tag k="name" v="Location 325"/></node>
  <node id="327" lat="37.452" lon="-121.824"><tag k="name" v="Location 326"/></node>
  <node id="328" lat="37.452" lon="-121.81400000000001"><tag k="name" v="Location 327"/></node>
  <node id="329" lat="37.452" lon="-121.804"><tag k="name" v="Location 328"/></node>
  <node id="330" lat="37.452" lon="-121.794"><tag k="name" v="Location 329"/></node>
  <node id="331" lat="37.452" lon="-121.784"><tag k="name" v="Location 330"/></node>
  <node id="332" lat="37.452" lon="-121.774"><tag k="name" v="Location 331"/></node>
  <node id="333" lat="37.452" lon="-121.76400000000001"><tag k="name" v="Location 332"/></node>
  <node id="334" lat="37.452" lon="-121.754"><tag k="name" v="Location 333"/></node>
  <node id="335" lat="37.452" lon="-121.744"><tag k="name" v="Location 334"/></node>
  <node id="336" lat="37.452" lon="-121.73400000000001"><tag k="name" v="Location 335"/></node>
  <node id="337" lat="37.452" lon="-121.724"><tag k="name" v="Location 336"/></node>
  <node id="338" lat="37.452" lon="-121.714"><tag k="name" v="Location 337"/></node>
  <node id="339" lat="37.452" lon="-121.70400000000001"><tag k="name" v="Location 338"/></node>
  <node id="340" lat="37.452" lon="-121.694"><tag k="name" v="Location 339"/></node>
  <node id="341" lat="37.452" lon="-121.684"><tag k="name" v="Location 340"/></node>
  <node id="342" lat="37.452" lon="-121.674"><tag k="name" v="Location 341"/></node>
  <node id="343" lat="37.452" lon="-121.664"><tag k="name" v="Location 342"/></node>
  <node id="344" lat="37.452" lon="-121.654"><tag k="name" v="Location 343"/></node>
  <node id="345" lat="37.452" lon="-121.644"><tag k="name" v="Location 344"/></node>
  <node id="346" lat="37.452" lon="-121.634"><tag k="name" v="Location 345"/></node>
  <node id="347" lat="37.452" lon="-121.62400000000001"><tag k="name" v="Location 346"/></node>
  <node id="348" lat="37.452" lon="-121.614"><tag k="name" v="Location 347"/></node>
  <node id="349" lat="37.452" lon="-121.604"><tag k="name" v="Location 348"/></node>
  <node id="350" lat="37.452" lon="-121.59400000000001"><tag k="name" v="Location 349"/></node>
  <node id="351" lat="37.452" lon="-121.584"><tag k="name" v="Location 350"/></node>
  <node id="352" lat="37.452" lon="-121.574"><tag k="name" v="Location 351"/></node>
  <node id="353" lat="37.452" lon="-121.56400000000001"><tag k="name" v="Location 352"/></node>
  <node id="354" lat="37.452" lon="-121.554"><tag k="name" v="Location 353"/></node>
  <node id="355" lat="37.452" lon="-121.544"><tag k="name" v="Location 354"/></node>
  <node id="356" lat="37.452" lon="-121.534"><tag k="name" v="Location 355"/></node>
  <node id="357" lat="37.452" lon="-121.524"><tag k="name" v="Location 356"/></node>
  <node id="358" lat="37.452" lon="-121.51400000000001"><tag k="name" v="Location 357"/></node>
  <node id="359" lat="37.452" lon="-121.504"><tag k="name" v="Location 358"/></node>
  <node id="360" lat="37.452" lon="-121.494"><tag k="name" v="Location 359"/></node>
  <node id="361" lat="37.452" lon="-121.48400000000001"><tag k="name" v="Location 360"/></node>
  <node id="362" lat="37.452" lon="-121.474"><tag k="name" v="Location 361"/></node>
  <node id="363" lat="37.452" lon="-121.464"><tag k="name" v="Location 362"/></node>
  <node id="364" lat="37.452" lon="-121.45400000000001"><tag k="name" v="Location 363"/></node>
  <node id="365" lat="37.452" lon="-121.444"><tag k="name" v="Location 364"/></node>
  <node id="366" lat="37.452" lon="-121.434"><tag k="name" v="Location 365"/></node>
  <node id="367" lat="37.452" lon="-121.424"><tag k="name" v="Location 366"/></node>
  <node id="368" lat="37.452" lon="-121.414"><tag k="name" v="Location 367"/></node>
  <node id="369" lat="37.452" lon="-121.404"><tag k="name" v="Location 368"/></node>
  <node id="370" lat="37.452" lon="-121.394"><tag k="name" v="Location 369"/></node>
  <node id="371" lat="37.452" lon="-121.384"><tag k="name" v="Location 370"/></node>
  <node id="372" lat="37.452" lon="-121.37400000000001"><tag k="name" v="Location 371"/></node>
  <node id="373" lat="37.452" lon="-121.364"><tag k="name" v="Location 372"/></node>
  <node id="374" lat="37.452" lon="-121.354"><tag k="name" v="Location 373"/></node>
  <node id="375" lat="37.452" lon="-121.34400000000001"><tag k="name" v="Location 374"/></node>
  <node id="376" lat="37.452" lon="-121.334"><tag k="name" v="Location 375"/></node>
  <node id="377" lat="37.452" lon="-121.324"><tag k="name" v="Location 376"/></node>
  <node id="378" lat="37.452" lon="-121.31400000000001"><tag k="name" v="Location 377"/></node>
  <node id="379" lat="37.452" lon="-121.304"><tag k="name" v="Location 378"/></node>
  <node id="380" lat="37.452" lon="-121.294"><tag k="name" v="Location 379"/></node>
  <node id="381" lat="37.452" lon="-121.284"><tag k="name" v="Location 380"/></node>
  <node id="382" lat="37.452" lon="-121.274"><tag k="name" v="Location 381"/></node>
  <node id="383" lat="37.452" lon="-121.26400000000001"><tag k="name" v="Location 382"/></node>
  <node id="384" lat="37.452" lon="-121.254"><tag k="name" v="Location 383"/></node>
  <node id="385" lat="37.452" lon="-121.244"><tag k="name" v="Location 384"/></node>
  <node id="386" lat="37.452" lon="-121.23400000000001"><tag k="name" v="Location 385"/></node>
  <node id="387" lat="37.452" lon="-121.224"><tag k="name" v="Location 386"/></node>
  <node id="388" lat="37.452" lon="-121.214"><tag k="name" v="Location 387"/></node>
  <node id="389" lat="37.452" lon="-121.20400000000001"><tag k="name" v="Location 388"/></node>
  <node id="390" lat="37.452" lon="-121.194"><tag k="name" v="Location 389"/></node>
  <node id="391" lat="37.452" lon="-121.184"><tag k="name" v="Location 390"/></node>
  <node id="392" lat="37.452" lon="-121.174"><tag k="name" v="Location 391"/></node>
  <node id="393" lat="37.452" lon="-121.164"><tag k="name" v="Location 392"/></node>
  <node id="394" lat="37.452" lon="-121.154"><tag k="name" v="Location 393"/></node>
  <node id="395" lat="37.452" lon="-121.144"><tag k="name" v="Location 394"/></node>
  <node id="396" lat="37.452" lon="-121.134"><tag k="name" v="Location 395"/></node>
  <node id="397" lat="37.452" lon="-121.12400000000001"><tag k="name" v="Location 396"/></node>
  <node id="398" lat="37.452" lon="-121.114"><tag k="name" v="Location 397"/></node>
  <node id="399" lat="37.452" lon="-121.104"><tag k="name" v="Location 398"/></node>
  <node id="400" lat="37.452" lon="-121.09400000000001"><tag k="name" v="Location 399"/></node>
  <node id="401" lat="37.461999999999996" lon="-122.084"><tag k="name" v="Location 400"/></node>
  <node id="402" lat="37.461999999999996" lon="-122.074"><tag k="name" v="Location 401"/></node>
  <node id="403" lat="37.461999999999996" lon="-122.06400000000001"><tag k="name" v="Location 402"/></node>
  <node id="404" lat="37.461999999999996" lon="-122.054"><tag k="name" v="Location 403"/></node>
  <node id="405" lat="37.461999999999996" lon="-122.044"><tag k="name" v="Location 404"/></node>
  <node id="406" lat="37.461999999999996" lon="-122.034"><tag k="name" v="Location 405"/></node>
  <node id="407" lat="37.461999999999996" lon="-122.024"><tag k="name" v="Location 406"/></node>
  <node id="408" lat="37.461999999999996" lon="-122.01400000000001"><tag k="name" v="Location 407"/></node>
  <node id="409" lat="37.461999999999996" lon="-122.004"><tag k="name" v="Location 408"/></node>
  <node id="410" lat="37.461999999999996" lon="-121.994"><tag k="name" v="Location 409"/></node>
  <node id="411" lat="37.461999999999996" lon="-121.98400000000001"><tag k="name" v="Location 410"/></node>
  <node id="412" lat="37.461999999999996" lon="-121.974"><tag k="name" v="Location 411"/></node>
  <node id="413" lat="37.461999999999996" lon="-121.964"><tag k="name" v="Location 412"/></node>
  <node id="414" lat="37.461999999999996" lon="-121.95400000000001"><tag k="name" v="Location 413"/></node>
  <node id="415" lat="37.461999999999996" lon="-121.944"><tag k="name" v="Location 414"/></node>
  <node id="416" lat="37.461999999999996" lon="-121.934"><tag k="name" v="Location 415"/></node>
  <node id="417" lat="37.461999999999996" lon="-121.924"><tag k="name" v="Location 416"/></node>
  <node id="418" lat="37.461999999999996" lon="-121.914"><tag k="name" v="Location 417"/></node>
  <node id="419" lat="37.461999999999996" lon="-121.904"><tag k="name" v="Location 418"/></node>
  <node id="420" lat="37.461999999999996" lon="-121.894"><tag k="name" v="Location 419"/></node>
  <node id="421" lat="37.461999999999996" lon="-121.884"><tag k="name" v="Location 420"/></node>
  <node id="422" lat="37.461999999999996" lon="-121.87400000000001"><tag k="name" v="Location 421"/></node>
  <node id="423" lat="37.461999999999996" lon="-121.864"><tag k="name" v="Location 422"/></node>
  <node id="424" lat="37.461999999999996" lon="-121.854"><tag k="name" v="Location 423"/></node>
  <node id="425" lat="37.461999999999996" lon="-121.84400000000001"><tag k="name" v="Location 424"/></node>
  <node id="426" lat="37.461999999999996" lon="-121.834"><tag k="name" v="Location 425"/></node>
  <node id="427" lat="37.461999999999996" lon="-121.824"><tag k="name" v="Location 426"/></node>
  <node id="428" lat="37.461999999999996" lon="-121.81400000000001"><tag k="name" v="Location 427"/></node>
  <node id="429" lat="37.461999999999996" lon="-121.804"><tag k="name" v="Location 428"/></node>
  <node id="430" lat="37.461999999999996" lon="-121.794"><tag k="name" v="Location 429"/></node>
  <node id="431" lat="37.461999999999996" lon="-121.784"><tag k="name" v="Location 430"/></node>
  <node id="432" lat="37.461999999999996" lon="-121.774"><tag k="name" v="Location 431"/></node>
  <node id="433" lat="37.461999999999996" lon="-121.76400000000001"><tag k="name" v="Location 432"/></node>
  <node id="434" lat="37.461999999999996" lon="-121.754"><tag k="name" v="Location 433"/></node>
  <node id="435" lat="37.461999999999996" lon="-121.744"><tag k="name" v="Location 434"/></node>
  <node id="436" lat="37.461999999999996" lon="-121.73400000000001"><tag k="name" v="Location 435"/></node>
  <node id="437" lat="37.461999999999996" lon="-121.724"><tag k="name" v="Location 436"/></node>
  <node id="438" lat="37.461999999999996" lon="-121.714"><tag k="name" v="Location 437"/></node>
  <node id="439" lat="37.461999999999996" lon="-121.70400000000001"><tag k="name" v="Location 438"/></node>
  <node id="440" lat="37.461999999999996" lon="-121.694"><tag k="name" v="Location 439"/></node>
  <node id="441" lat="37.461999999999996" lon="-121.684"><tag k="name" v="Location 440"/></node>
  <node id="442" lat="37.461999999999996" lon="-121.674"><tag k="name" v="Location 441"/></node>
  <node id="443" lat="37.461999999999996" lon="-121.664"><tag k="name" v="Location 442"/></node>
  <node id="444" lat="37.461999999999996" lon="-121.654"><tag k="name" v="Location 443"/></node>
  <node id="445" lat="37.461999999999996" lon="-121.644"><tag k="name" v="Location 444"/></node>
  <node id="446" lat="37.461999999999996" lon="-121.634"><tag k="name" v="Location 445"/></node>
  <node id="447" lat="37.461999999999996" lon="-121.62400000000001"><tag k="name" v="Location 446"/></node>
  <node id="448" lat="37.461999999999996" lon="-121.614"><tag k="name" v="Location 447"/></node>
  <node id="449" lat="37.461999999999996" lon="-121.604"><tag k="name" v="Location 448"/></node>
  <node id="450" lat="37.461999999999996" lon="-121.59400000000001"><tag k="name" v="Location 449"/></node>
  <node id="451" lat="37.461999999999996" lon="-121.584"><tag k="name" v="Location 450"/></node>
  <node id="452" lat="37.461999999999996" lon="-121.574"><tag k="name" v="Location 451"/></node>
  <node id="453" lat="37.461999999999996" lon="-121.56400000000001"><tag k="name" v="Location 452"/></node>
  <node id="454" lat="37.461999999999996" lon="-121.554"><tag k="name" v="Location 453"/></node>
  <node id="455" lat="37.461999999999996" lon="-121.544"><tag k="name" v="Location 454"/></node>
  <node id="456" lat="37.461999999999996" lon="-121.534"><tag k="name" v="Location 455"/></node>
  <node id="457" lat="37.461999999999996" lon="-121.524"><tag k="name" v="Location 456"/></node>
  <node id="458" lat="37.461999999999996" lon="-121.51400000000001"><tag k="name" v="Location 457"/></node>
  <node id="459" lat="37.461999999999996" lon="-121.504"><tag k="name" v="Location 458"/></node>
  <node id="460" lat="37.461999999999996" lon="-121.494"><tag k="name" v="Location 459"/></node>
  <node id="461" lat="37.461999999999996" lon="-121.48400000000001"><tag k="name" v="Location 460"/></node>
  <node id="462" lat="37.461999999999996" lon="-121.474"><tag k="name" v="Location 461"/></node>
  <node id="463" lat="37.461999999999996" lon="-121.464"><tag k="name" v="Location 462"/></node>
  <node id="464" lat="37.461999999999996" lon="-121.45400000000001"><tag k="name" v="Location 463"/></node>
  <node id="465" lat="37.461999999999996" lon="-121.444"><tag k="name" v="Location 464"/></node>
  <node id="466" lat="37.461999999999996" lon="-121.434"><tag k="name" v="Location 465"/></node>
  <node id="467" lat="37.461999999999996" lon="-121.424"><tag k="name" v="Location 466"/></node>
  <node id="468" lat="37.461999999999996" lon="-121.414"><tag k="name" v="Location 467"/></node>
  <node id="469" lat="37.461999999999996" lon="-121.404"><tag k="name" v="Location 468"/></node>
  <node id="470" lat="37.461999999999996" lon="-121.394"><tag k="name" v="Location 469"/></node>
  <node id="471" lat="37.461999999999996" lon="-121.384"><tag k="name" v="Location 470"/></node>
  <node id="472" lat="37.461999999999996" lon="-121.37400000000001"><tag k="name" v="Location 471"/></node>
  <node id="473" lat="37.461999999999996" lon="-121.364"><tag k="name" v="Location 472"/></node>
  <node id="474" lat="37.461999999999996" lon="-121.354"><tag k="name" v="Location 473"/></node>
  <node id="475" lat="37.461999999999996" lon="-121.34400000000001"><tag k="name" v="Location 474"/></node>
  <node id="476" lat="37.461999999999996" lon="-121.334"><tag k="name" v="Location 475"/></node>
  <node id="477" lat="37.461999999999996" lon="-121.324"><tag k="name" v="Location 476"/></node>
  <node id="478" lat="37.461999999999996" lon="-121.31400000000001"><tag k="name" v="Location 477"/></node>
  <node id="479" lat="37.461999999999996" lon="-121.304"><tag k="name" v="Location 478"/></node>
  <node id="480" lat="37.461999999999996" lon="-121.294"><tag k="name" v="Location 479"/></node>
  <node id="481" lat="37.461999999999996" lon="-121.284"><tag k="name" v="Location 480"/></node>
  <node id="482" lat="37.461999999999996" lon="-121.274"><tag k="name" v="Location 481"/></node>
  <node id="483" lat="37.461999999999996" lon="-121.26400000000001"><tag k="name" v="Location 482"/></node>
  <node id="484" lat="37.461999999999996" lon="-121.254"><tag k="name" v="Location 483"/></node>
  <node id="485" lat="37.461999999999996" lon="-121.244"><tag k="name" v="Location 484"/></node>
  <node id="486" lat="37.461999999999996" lon="-121.23400000000001"><tag k="name" v="Location 485"/></node>
  <node id="487" lat="37.461999999999996" lon="-121.224"><tag k="name" v="Location 486"/></node>
  <node id="488" lat="37.461999999999996" lon="-121.214"><tag k="name" v="Location 487"/></node>
  <node id="489" lat="37.461999999999996" lon="-121.20400000000001"><tag k="name" v="Location 488"/></node>
  <node id="490" lat="37.461999999999996" lon="-121.194"><tag k="name" v="Location 489"/></node>
  <node id="491" lat="37.461999999999996" lon="-121.184"><tag k="name" v="Location 490"/></node>
  <node id="492" lat="37.461999999999996" lon="-121.174"><tag k="name" v="Location 491"/></node>
  <node id="493" lat="37.461999999999996" lon="-121.164"><tag k="name" v="Location 492"/></node>
  <node id="494" lat="37.461999999999996" lon="-121.154"><tag k="name" v="Location 493"/></node>
  <node id="495" lat="37.461999999999996" lon="-121.144"><tag k="name" v="Location 494"/></node>
  <node id="496" lat="37.461999999999996" lon="-121.134"><tag k="name" v="Location 495"/></node>
  <node id="497" lat="37.461999999999996" lon="-121.12400000000001"><tag k="name" v="Location 496"/></node>
  <node id="498" lat="37.461999999999996" lon="-121.114"><tag k="name" v="Location 497"/></node>
  <node id="499" lat="37.461999999999996" lon="-121.104"><tag k="name" v="Location 498"/></node>
  <node id="500" lat="37.461999999999996" lon="-121.09400000000001"><tag k="name" v="Location 499"/></node>
  <node id="501" lat="37.471999999999994" lon="-122.084"><tag k="name" v="Location 500"/></node>
  <node id="502" lat="37.471999999999994" lon="-122.074"><tag k="name" v="Location 501"/></node>
  <node id="503" lat="37.471999999999994" lon="-122.06400000000001"><tag k="name" v="Location 502"/></node>
  <node id="504" lat="37.471999999999994" lon="-122.054"><tag k="name" v="Location 503"/></node>
  <node id="505" lat="37.471999999999994" lon="-122.044"><tag k="name" v="Location 504"/></node>
  <node id="506" lat="37.471999999999994" lon="-122.034"><tag k="name" v="Location 505"/></node>
  <node id="507" lat="37.471999999999994" lon="-122.024"><tag k="name" v="Location 506"/></node>
  <node id="508" lat="37.471999999999994" lon="-122.01400000000001"><tag k="name" v="Location 507"/></node>
  <node id="509" lat="37.471999999999994" lon="-122.004"><tag k="name" v="Location 508"/></node>
  <node id="510" lat="37.471999999999994" lon="-121.994"><tag k="name" v="Location 509"/></node>
  <node id="511" lat="37.471999999999994" lon="-121.98400000000001"><tag k="name" v="Location 510"/></node>
  <node id="512" lat="37.471999999999994" lon="-121.974"><tag k="name" v="Location 511"/></node>
  <node id="513" lat="37.471999999999994" lon="-121.964"><tag k="name" v="Location 512"/></node>
  <node id="514" lat="37.471999999999994" lon="-121.95400000000001"><tag k="name" v="Location 513"/></node>
  <node id="515" lat="37.471999999999994" lon="-121.944"><tag k="name" v="Location 514"/></node>
  <node id="516" lat="37.471999999999994" lon="-121.934"><tag k="name" v="Location 515"/></node>
  <node id="517" lat="37.471999999999994" lon="-121.924"><tag k="name" v="Location 516"/></node>
  <node id="518" lat="37.471999999999994" lon="-121.914"><tag k="name" v="Location 517"/></node>
  <node id="519" lat="37.471999999999994" lon="-121.904"><tag k="name" v="Location 518"/></node>
  <node id="520" lat="37.471999999999994" lon="-121.894"><tag k="name" v="Location 519"/></node>
  <node id="521" lat="37.471999999999994" lon="-121.884"><tag k="name" v="Location 520"/></node>
  <node id="522" lat="37.471999999999994" lon="-121.87400000000001"><tag k="name" v="Location 521"/></node>
  <node id="523" lat="37.471999999999994" lon="-121.864"><tag k="name" v="Location 522"/></node>
  <node id="524" lat="37.471999999999994" lon="-121.854"><tag k="name" v="Location 523"/></node>
  <node id="525" lat="37.471999999999994" lon="-121.84400000000001"><tag k="name" v="Location 524"/></node>
  <node id="526" lat="37.471999999999994" lon="-121.834"><tag k="name" v="Location 525"/></node>
  <node id="527" lat="37.471999999999994" lon="-121.824"><tag k="name" v="Location 526"/></node>
  <node id="528" lat="37.471999999999994" lon="-121.81400000000001"><tag k="name" v="Location 527"/></node>
  <node id="529" lat="37.471999999999994" lon="-121.804"><tag k="name" v="Location 528"/></node>
  <node id="530" lat="37.471999999999994" lon="-121.794"><tag k="name" v="Location 529"/></node>
  <node id="531" lat="37.471999999999994" lon="-121.784"><tag k="name" v="Location 530"/></node>
  <node id="532" lat="37.471999999999994" lon="-121.774"><tag k="name" v="Location 531"/></node>
  <node id="533" lat="37.471999999999994" lon="-121.76400000000001"><tag k="name" v="Location 532"/></node>
  <node id="534" lat="37.471999999999994" lon="-121.754"><tag k="name" v="Location 533"/></node>
  <node id="535" lat="37.471999999999994" lon="-121.744"><tag k="name" v="Location 534"/></node>
  <node id="536" lat="37.471999999999994" lon="-121.73400000000001"><tag k="name" v="Location 535"/></node>
  <node id="537" lat="37.471999999999994" lon="-121.724"><tag k="name" v="Location 536"/></node>
  <node id="538" lat="37.471999999999994" lon="-121.714"><tag k="name" v="Location 537"/></node>
  <node id="539" lat="37.471999999999994" lon="-121.70400000000001"><tag k="name" v="Location 538"/></node>
  <node id="540" lat="37.471999999999994" lon="-121.694"><tag k="name" v="Location 539"/></node>
  <node id="541" lat="37.471999999999994" lon="-121.684"><tag k="name" v="Location 540"/></node>
  <node id="542" lat="37.471999999999994" lon="-121.674"><tag k="name" v="Location 541"/></node>
  <node id="543" lat="37.471999999999994" lon="-121.664"><tag k="name" v="Location 542"/></node>
  <node id="544" lat="37.471999999999994" lon="-121.654"><tag k="name" v="Location 543"/></node>
  <node id="545" lat="37.471999999999994" lon="-121.644"><tag k="name" v="Location 544"/></node>
  <node id="546" lat="37.471999999999994" lon="-121.634"><tag k="name" v="Location 545"/></node>
  <node id="547" lat="37.471999999999994" lon="-121.62400000000001"><tag k="name" v="Location 546"/></node>
  <node id="548" lat="37.471999999999994" lon="-121.614"><tag k="name" v="Location 547"/></node>
  <node id="549" lat="37.471999999999994" lon="-121.604"><tag k="name" v="Location 548"/></node>
  <node id="550" lat="37.471999999999994" lon="-121.59400000000001"><tag k="name" v="Location 549"/></node>
  <node id="551" lat="37.471999999999994" lon="-121.584"><tag k="name" v="Location 550"/></node>
  <node id="552" lat="37.471999999999994" lon="-121.574"><tag k="name" v="Location 551"/></node>
  <node id="553" lat="37.471999999999994" lon="-121.56400000000001"><tag k="name" v="Location 552"/></node>
  <node id="554" lat="37.471999999999994" lon="-121.554"><tag k="name" v="Location 553"/></node>
  <node id="555" lat="37.471999999999994" lon="-121.544"><tag k="name" v="Location 554"/></node>
  <node id="556" lat="37.471999999999994" lon="-121.534"><tag k="name" v="Location 555"/></node>
  <node id="557" lat="37.471999999999994" lon="-121.524"><tag k="name" v="Location 556"/></node>
  <node id="558" lat="37.471999999999994" lon="-121.51400000000001"><tag k="name" v="Location 557"/></node>
  <node id="559" lat="37.471999999999994" lon="-121.504"><tag k="name" v="Location 558"/></node>
  <node id="560" lat="37.471999999999994" lon="-121.494"><tag k="name" v="Location 559"/></node>
  <node id="561" lat="37.471999999999994" lon="-121.48400000000001"><tag k="name" v="Location 560"/></node>
  <node id="562" lat="37.471999999999994" lon="-121.474"><tag k="name" v="Location 561"/></node>
  <node id="563" lat="37.471999999999994" lon="-121.464"><tag k="name" v="Location 562"/></node>
  <node id="564" lat="37.471999999999994" lon="-121.45400000000001"><tag k="name" v="Location 563"/></node>
  <node id="565" lat="37.471999999999994" lon="-121.444"><tag k="name" v="Location 564"/></node>
  <node id="566" lat="37.471999999999994" lon="-121.434"><tag k="name" v="Location 565"/></node>
  <node id="567" lat="37.471999999999994" lon="-121.424"><tag k="name" v="Location 566"/></node>
  <node id="568" lat="37.471999999999994" lon="-121.414"><tag k="name" v="Location 567"/></node>
  <node id="569" lat="37.471999999999994" lon="-121.404"><tag k="name" v="Location 568"/></node>
  <node id="570" lat="37.471999999999994" lon="-121.394"><tag k="name" v="Location 569"/></node>
  <node id="571" lat="37.471999999999994" lon="-121.384"><tag k="name" v="Location 570"/></node>
  <node id="572" lat="37.471999999999994" lon="-121.37400000000001"><tag k="name" v="Location 571"/></node>
  <node id="573" lat="37.471999999999994" lon="-121.364"><tag k="name" v="Location 572"/></node>
  <node id="574" lat="37.471999999999994" lon="-121.354"><tag k="name" v="Location 573"/></node>
  <node id="575" lat="37.471999999999994" lon="-121.34400000000001"><tag k="name" v="Location 574"/></node>
  <node id="576" lat="37.471999999999994" lon="-121.334"><tag k="name" v="Location 575"/></node>
  <node id="577" lat="37.471999999999994" lon="-121.324"><tag k="name" v="Location 576"/></node>
  <node id="578" lat="37.471999999999994" lon="-121.31400000000001"><tag k="name" v="Location 577"/></node>
  <node id="579" lat="37.471999999999994" lon="-121.304"><tag k="name" v="Location 578"/></node>
  <node id="580" lat="37.471999999999994" lon="-121.294"><tag k="name" v="Location 579"/></node>
  <node id="581" lat="37.471999999999994" lon="-121.284"><tag k="name" v="Location 580"/></node>
  <node id="582" lat="37.471999999999994" lon="-121.274"><tag k="name" v="Location 581"/></node>
  <node id="583" lat="37.471999999999994" lon="-121.26400000000001"><tag k="name" v="Location 582"/></node>
  <node id="584" lat="37.471999999999994" lon="-121.254"><tag k="name" v="Location 583"/></node>
  <node id="585" lat="37.471999999999994" lon="-121.244"><tag k="name" v="Location 584"/></node>
  <node id="586" lat="37.471999999999994" lon="-121.23400000000001"><tag k="name" v="Location 585"/></node>
  <node id="587" lat="37.471999999999994" lon="-121.224"><tag k="name" v="Location 586"/></node>
  <node id="588" lat="37.471999999999994" lon="-121.214"><tag k="name" v="Location 587"/></node>
  <node id="589" lat="37.471999999999994" lon="-121.20400000000001"><tag k="name" v="Location 588"/></node>
  <node id="590" lat="37.471999999999994" lon="-121.194"><tag k="name" v="Location 589"/></node>
  <node id="591" lat="37.471999999999994" lon="-121.184"><tag k="name" v="Location 590"/></node>
  <node id="592" lat="37.471999999999994" lon="-121.174"><tag k="name" v="Location 591"/></node>
  <node id="593" lat="37.471999999999994" lon="-121.164"><tag k="name" v="Location 592"/></node>
  <node id="594" lat="37.471999999999994" lon="-121.154"><tag k="name" v="Location 593"/></node>
  <node id="595" lat="37.471999999999994" lon="-121.144"><tag k="name" v="Location 594"/></node>
  <node id="596" lat="37.471999999999994" lon="-121.134"><tag k="name" v="Location 595"/></node>
  <node id="597" lat="37.471999999999994" lon="-121.12400000000001"><tag k="name" v="Location 596"/></node>
  <node id="598" lat="37.471999999999994" lon="-121.114"><tag k="name" v="Location 597"/></node>
  <node id="599" lat="37.471999999999994" lon="-121.104"><tag k="name" v="Location 598"/></node>
  <node id="600" lat="37.471999999999994" lon="-121.09400000000001"><tag k="name" v="Location 599"/></node>
</osm>
